{"type": "Feature", "properties": {"name_ar": "\u062d\u064a \u0627\u0644\u0646\u0632\u0647\u0629", "name_en": "El Nozha District"}, "geometry": {"type": "Polygon", "coordinates": [[[31.369309855906838, 30.111660943622866], [31.369011211741558, 30.111401760950745], [31.368775625052535, 30.11128228725457], [31.368521256933825, 30.111211069894992], [31.368257882609576, 30.1111908457152], [31.36799562340737, 30.11122239191908], [31.36774455780127, 30.111304496203704], [31.367514334101717, 30.111434003347465], [31.367227127217948, 30.11170580511512], [31.366554618939293, 30.112574187763585], [31.3661516290403, 30.112717434660034], [31.365837083215087, 30.112957069629985], [31.365672156878297, 30.113163405171168], [31.365517113041562, 30.113495647095213], [31.364310698721187, 30.11477272504751], [31.363866498721187, 30.11528742504751], [31.363607095799246, 30.115658919790565], [31.36285494478412, 30.115822053421066], [31.362485712850386, 30.115963587071104], [31.362173464969676, 30.116206208702405], [31.362010512448084, 30.116414106580766], [31.361891249877537, 30.116649800219605], [31.36182026045174, 30.11690423204455], [31.361800272254513, 30.117167624383264], [31.361832053421065, 30.117429855215878], [31.361914382618995, 30.11768084715856], [31.36204409598339, 30.117910954731702], [31.362216208702403, 30.118111335030324], [31.362424106580765, 30.118274287551916], [31.362678131378917, 30.118399648875688], [31.362617726317108, 30.118755734542212], [31.362479913202375, 30.119048716790832], [31.362423284768468, 30.119306725070924], [31.36243490071745, 30.119701983296277], [31.36250658315873, 30.119956220743823], [31.362703150948775, 30.12029933165723], [31.36299085443654, 30.120570607712402], [31.363344916790833, 30.120746686797627], [31.36372256835048, 30.120811559097202], [31.3629439, 30.1260988], [31.362842, 30.1264515], [31.3626006, 30.1269201], [31.3619447, 30.1283773], [31.3637006, 30.1286462], [31.3655158, 30.128743], [31.3662348, 30.1288095], [31.367382, 30.1290371], [31.3696984, 30.1298046], [31.3767301, 30.1322424], [31.3778251, 30.1298627], [31.38224896937438, 30.131104702012518], [31.383342386597327, 30.131992166268887], [31.384319260890074, 30.13272365015093], [31.38735238475543, 30.134886293680985], [31.390554133265937, 30.137242405944317], [31.391386502493305, 30.137785432225026], [31.392120395101724, 30.138126814040003], [31.39297572505369, 30.138448209785135], [31.3962516463309, 30.139990635134435], [31.396728681030577, 30.140281050346076], [31.399444204477774, 30.14151376959609], [31.39990500917191, 30.14163329701583], [31.40023134292365, 30.141632790521047], [31.400456116764, 30.14159076402395], [31.400750984297574, 30.14172275212629], [31.40104656742934, 30.141925247351086], [31.401422377117864, 30.1420482557776], [31.401817712028762, 30.14205687570842], [31.40207528370836, 30.14199829344156], [31.402309304926543, 30.14189422208107], [31.402671476267535, 30.142276443667754], [31.402880547134853, 30.142437888471203], [31.40311709708277, 30.142555443455194], [31.403372035629452, 30.142624591047618], [31.403767389916585, 30.142632271062375], [31.404136997619066, 30.142529144350988], [31.4097109, 30.142563966762484], [31.410291421813213, 30.142539443010307], [31.41460498963599, 30.141898404707852], [31.416572807873862, 30.141481649452366], [31.420677175209235, 30.141070914348248], [31.422749232482353, 30.140731088807147], [31.427488889854292, 30.14013397943975], [31.428128732532716, 30.140149991068686], [31.428805385215842, 30.14027035849099], [31.432495773957594, 30.14142549086471], [31.43275426905299, 30.14147985388319], [31.433149410176487, 30.141464771194276], [31.43340300904736, 30.141390861351812], [31.433637315992073, 30.14126889698087], [31.43384332672614, 30.141103565103815], [31.434025089752005, 30.14089798062298], [31.434172488140774, 30.14067878033304], [31.434270661548876, 30.140445084849237], [31.4368692, 30.1411851], [31.4376138, 30.1393218], [31.4379173, 30.1386711], [31.4382691, 30.138013], [31.4387207, 30.1373294], [31.4392208, 30.136708], [31.4399039, 30.1360127], [31.4404647, 30.135566], [31.4413488, 30.1350409], [31.4420766, 30.1347274], [31.4427823, 30.1345066], [31.443497, 30.1343569], [31.4441826, 30.1342821], [31.4560193, 30.1342464], [31.4570154, 30.1342205], [31.4580288, 30.1340934], [31.4586768, 30.1339566], [31.4593201, 30.1337753], [31.4599455, 30.1335522], [31.4605496, 30.1332884], [31.4614075, 30.13282], [31.462187, 30.1322685], [31.4625775, 30.1319392], [31.463051, 30.1314791], [31.463429, 30.1310513], [31.4637784, 30.1305918], [31.4643322, 30.1296686], [31.4646825, 30.1288509], [31.4648451, 30.1283251], [31.4649645, 30.1277887], [31.4650399, 30.1272409], [31.4650697, 30.1266588], [31.4650297, 30.1258825], [31.4649419, 30.1253141], [31.4647421, 30.1245473], [31.4645303, 30.1239795], [31.4642976, 30.1234842], [31.4638828, 30.1227821], [31.4416542, 30.0925835], [31.4385651, 30.0884337], [31.438252, 30.0879511], [31.4377026, 30.0869363], [31.4372755, 30.0858916], [31.4358799, 30.0809792], [31.4354261, 30.0796013], [31.4258766, 30.0788075], [31.424992, 30.0787871], [31.4240996, 30.0788173], [31.4232333, 30.0789036], [31.4223681, 30.0790412], [31.4161993, 30.0805106], [31.414936, 30.0807626], [31.4134378, 30.0810059], [31.4120024, 30.0811679], [31.4106443, 30.0812766], [31.4091811, 30.0813431], [31.4082102, 30.0813528], [31.4068423, 30.08131], [31.3845613, 30.0799152], [31.3835923, 30.0798002], [31.3773897, 30.0787431], [31.3763127, 30.0786328], [31.3756116, 30.0786147], [31.3749171, 30.0786473], [31.3708075, 30.0790304], [31.3591373, 30.0803515], [31.3490632, 30.0898573], [31.3488332, 30.0899853], [31.3487164, 30.0902151], [31.3485523, 30.0909106], [31.3484319, 30.0912327], [31.3481945, 30.0917237], [31.3479134, 30.0920438], [31.3434427, 30.0947187], [31.3425951, 30.0952552], [31.3410001, 30.0961496], [31.330132, 30.1026705], [31.3285092, 30.1036757], [31.325573, 30.1054052], [31.3241418, 30.106324], [31.3307021, 30.1116543], [31.3483175, 30.1032631], [31.3506885, 30.100055], [31.358926, 30.1046803], [31.3705222, 30.1104441], [31.369309855906838, 30.111660943622866]], [[31.369488662713284, 30.113147453080206], [31.36961383010501, 30.112772356933824], [31.369634054284802, 30.112508982609576], [31.369602508080924, 30.11224672340737], [31.369482157999794, 30.111919104074975], [31.3697489, 30.1116663], [31.3715167, 30.1113772], [31.3716611, 30.1113686], [31.3717778, 30.1114011], [31.3768647, 30.1139429], [31.3891425, 30.1199533], [31.3884752, 30.1210308], [31.38851, 30.1210807], [31.3891367, 30.1213831], [31.3891937, 30.1212882], [31.3894322, 30.1214151], [31.3894611, 30.1213697], [31.3895412, 30.1214078], [31.3895886, 30.1213332], [31.3896574, 30.1213659], [31.3896859, 30.1213211], [31.3900326, 30.1214859], [31.3900027, 30.1215331], [31.3900885, 30.1215738], [31.3900345, 30.1216589], [31.3900872, 30.121684], [31.3900626, 30.1217221], [31.3903026, 30.1218386], [31.3902753, 30.1218806], [31.390831, 30.1221209], [31.3908854, 30.1221003], [31.3913068, 30.1215515], [31.3912485, 30.1215121], [31.3912929, 30.1214618], [31.3913823, 30.1214389], [31.3915926, 30.1215189], [31.3916144, 30.1215648], [31.3942695, 30.1228416], [31.3953259, 30.1233827], [31.3951454, 30.1236253], [31.3967094, 30.1247566], [31.3969436, 30.1249482], [31.3969155, 30.1249806], [31.3976364, 30.1254757], [31.3977872, 30.1256183], [31.3977116, 30.1257024], [31.3979793, 30.1258793], [31.3979106, 30.1259597], [31.3979588, 30.1259939], [31.3980172, 30.1259231], [31.3982083, 30.1261226], [31.3982753, 30.1260653], [31.3987444, 30.1272922], [31.3996762, 30.1270427], [31.3999407, 30.1278134], [31.3998526, 30.1278362], [31.3998893, 30.1279428], [31.3999774, 30.1279201], [31.4001951, 30.1286009], [31.4000797, 30.1286306], [31.4001796, 30.1289413], [31.4002543, 30.1289217], [31.4002485, 30.1288951], [31.4011571, 30.12868], [31.4011069, 30.1285593], [31.4012213, 30.128521], [31.4011496, 30.1283225], [31.4015701, 30.1282225], [31.4012253, 30.1272862], [31.4027484, 30.1268668], [31.4031444, 30.127954], [31.4033642, 30.1278949], [31.4033394, 30.1278258], [31.4038713, 30.1276829], [31.4037792, 30.1273365], [31.4037847, 30.1272332], [31.4038758, 30.1269618], [31.4040427, 30.1266871], [31.4040974, 30.1265376], [31.4045065, 30.1258779], [31.4044042, 30.1258431], [31.4044515, 30.1256925], [31.4045026, 30.1257058], [31.4045284, 30.1256276], [31.4044775, 30.1256139], [31.4045913, 30.1253481], [31.4046275, 30.1251832], [31.4046922, 30.1252008], [31.4047066, 30.1251516], [31.4046473, 30.1250966], [31.4054938, 30.1228434], [31.4058763, 30.1219557], [31.4057761, 30.1219218], [31.4058124, 30.1218267], [31.4058915, 30.1218475], [31.4060256, 30.1214578], [31.4059411, 30.1214322], [31.4059502, 30.1213814], [31.4066519, 30.119502], [31.406737, 30.1195249], [31.4068088, 30.1193164], [31.4067216, 30.119292], [31.4074883, 30.1171173], [31.4076904, 30.1166189], [31.4079916, 30.1156912], [31.4064615, 30.1152101], [31.4063004, 30.115388], [31.4059285, 30.1151101], [31.4059151, 30.1150157], [31.405689, 30.1148401], [31.4053808, 30.1151242], [31.4055628, 30.1152707], [31.4053135, 30.1155427], [31.405233, 30.1156135], [31.4051176, 30.1155276], [31.405013, 30.1156332], [31.4050573, 30.1156657], [31.4050318, 30.1156958], [31.4049822, 30.1157051], [31.4035915, 30.1170357], [31.4035888, 30.117096], [31.403495, 30.1171824], [31.4032844, 30.1171065], [31.4031104, 30.1169928], [31.4030866, 30.1170166], [31.4021066, 30.1162984], [31.4021947, 30.1162163], [31.3999006, 30.1144778], [31.3998138, 30.1144929], [31.39928, 30.1140871], [31.3992591, 30.1141013], [31.3988909, 30.1137057], [31.398814, 30.11376], [31.3987744, 30.1137215], [31.3987446, 30.1137378], [31.3986263, 30.1135904], [31.3985944, 30.1134981], [31.3986267, 30.113314], [31.3993147, 30.1125172], [31.3995213, 30.1121019], [31.399608, 30.1117401], [31.3996291, 30.1114625], [31.3995455, 30.1107857], [31.4000663, 30.1107072], [31.3999975, 30.1104006], [31.3999396, 30.1103108], [31.3991652, 30.1105453], [31.3990903, 30.1106799], [31.3981177, 30.1109186], [31.3979293, 30.1110381], [31.3978623, 30.1111262], [31.397839, 30.1112599], [31.3977243, 30.111379], [31.3974862, 30.1121884], [31.3957358, 30.1117902], [31.3959963, 30.1109787], [31.3949377, 30.1107463], [31.3951681, 30.109995], [31.3932322, 30.1095471], [31.3931065, 30.1100103], [31.3920325, 30.10977], [31.3921639, 30.1093235], [31.3912722, 30.1091018], [31.391256, 30.1091459], [31.3901386, 30.1088863], [31.3898129, 30.1099748], [31.3897526, 30.1099661], [31.3897875, 30.1098048], [31.3894054, 30.109716], [31.3894465, 30.1095834], [31.3889139, 30.1094658], [31.3888838, 30.1095644], [31.3875613, 30.109241], [31.3875031, 30.1094456], [31.3872034, 30.1091798], [31.3871964, 30.1091241], [31.3868729, 30.1088237], [31.3869564, 30.1085484], [31.3863557, 30.1084238], [31.3864779, 30.1080067], [31.3863563, 30.1079734], [31.3866855, 30.1068413], [31.3866522, 30.106783], [31.3877632, 30.1050456], [31.3879421, 30.1047129], [31.388154, 30.1040489], [31.3882479, 30.1030699], [31.3882086, 30.102668], [31.3878348, 30.1018436], [31.387187, 30.1008226], [31.3869374, 30.1005561], [31.3869926, 30.1003631], [31.3869725, 30.100319], [31.3870235, 30.1002819], [31.3867888, 30.0999222], [31.3868076, 30.0998955], [31.3866976, 30.0997366], [31.3867244, 30.0997157], [31.3866386, 30.0995939], [31.3861638, 30.0991298], [31.3857564, 30.0988094], [31.3852371, 30.0978228], [31.3850829, 30.0968405], [31.3850641, 30.096395], [31.3852237, 30.0962024], [31.385276, 30.0960921], [31.3853846, 30.0961037], [31.3884182, 30.0930005], [31.3878693, 30.0925519], [31.3877828, 30.0921393], [31.3881489, 30.0917449], [31.3887735, 30.0916621], [31.3892672, 30.0920588], [31.3908269, 30.0904599], [31.3908966, 30.0905202], [31.3908805, 30.0905353], [31.3941343, 30.0929865], [31.3942286, 30.0929657], [31.3943164, 30.0928867], [31.3951023, 30.0910574], [31.395217, 30.0909231], [31.3953689, 30.0908107], [31.3957202, 30.0906921], [31.4050925, 30.0912005], [31.4067431, 30.0914288], [31.4082203, 30.091843], [31.4090008, 30.0919202], [31.4094293, 30.0918923], [31.4101334, 30.0917455], [31.4103393, 30.091662], [31.410747, 30.0914352], [31.4110568, 30.0911862], [31.4112774, 30.090942], [31.4115073, 30.0905829], [31.411567, 30.0904378], [31.4116717, 30.0900462], [31.4117608, 30.0892357], [31.4118647, 30.0888898], [31.4120123, 30.0886032], [31.4122134, 30.0883329], [31.413173, 30.0872665], [31.4134788, 30.0871359], [31.4137906, 30.0871203], [31.4140045, 30.0871695], [31.4143049, 30.0873437], [31.4597368, 30.121445], [31.4600238, 30.1217838], [31.460174, 30.1220946], [31.4602209, 30.1224403], [31.4602102, 30.1226386], [31.4601666, 30.1228791], [31.4598843, 30.1235736], [31.4596738, 30.1239808], [31.4592621, 30.1246106], [31.4588075, 30.1251384], [31.4583756, 30.1255502], [31.457866, 30.125948], [31.4567099, 30.1266058], [31.4561306, 30.1268563], [31.4557738, 30.1269734], [31.4550094, 30.1271579], [31.4529535, 30.1274652], [31.4527885, 30.127398], [31.4476227, 30.1235156], [31.4410766, 30.12101], [31.4407086, 30.1209253], [31.4402559, 30.1209462], [31.4401245, 30.1209764], [31.4398147, 30.1211213], [31.4395371, 30.1213389], [31.4394419, 30.1214647], [31.4384481, 30.1233207], [31.4376548, 30.1245897], [31.4373383, 30.125009], [31.436187, 30.1263796], [31.4377367, 30.1275569], [31.4365009, 30.1285753], [31.4359866, 30.1290387], [31.4357203, 30.1296169], [31.434182, 30.1284628], [31.4333089, 30.1291618], [31.4330318, 30.1293012], [31.4325406, 30.1293954], [31.4294976, 30.1292805], [31.4288619, 30.1292307], [31.4285441, 30.129095], [31.4273625, 30.1282077], [31.4245916, 30.1303479], [31.4237201, 30.1305506], [31.4209172, 30.1307942], [31.4210714, 30.1303729], [31.4197058, 30.1300174], [31.4198792, 30.1293815], [31.4193052, 30.1292237], [31.4196163, 30.1283143], [31.4195627, 30.1282447], [31.4182806, 30.1278782], [31.4192569, 30.125614], [31.4191979, 30.1255861], [31.4192516, 30.1254934], [31.4189681, 30.1253488], [31.4187886, 30.1258331], [31.4177258, 30.1282743], [31.4175505, 30.1283532], [31.4165281, 30.1280659], [31.4163115, 30.1282154], [31.4160598, 30.1289431], [31.41593, 30.1290158], [31.4158948, 30.1290955], [31.4158749, 30.1291749], [31.415915, 30.1292987], [31.4155483, 30.1304134], [31.4154337, 30.1303727], [31.41534, 30.1306493], [31.4168751, 30.1310007], [31.417028, 30.1311097], [31.4170307, 30.1312025], [31.416219, 30.1336062], [31.4161895, 30.1335966], [31.4161416, 30.1337227], [31.4159341, 30.1336694], [31.415891, 30.1337789], [31.4160889, 30.1338631], [31.4154482, 30.1355265], [31.4152366, 30.136206], [31.4151285, 30.136178], [31.415096, 30.1362823], [31.4152042, 30.1363103], [31.4147577, 30.1375857], [31.414679, 30.1376045], [31.4146275, 30.1377695], [31.4146745, 30.1378161], [31.4144728, 30.1382644], [31.41417276271709, 30.139080721192947], [31.409985756768954, 30.139709611207106], [31.408541407359017, 30.139725506419616], [31.403751762931773, 30.139671895371972], [31.403075346819602, 30.139731462310774], [31.402701815026397, 30.13987201667779], [31.40236498997528, 30.1395355792595], [31.40211029252271, 30.13938047560675], [31.398053656055644, 30.137533378054083], [31.39741635211429, 30.137336703136633], [31.39420771077894, 30.13578827675228], [31.393679449082054, 30.1355175048473], [31.392903041994984, 30.13505434243637], [31.385635355373505, 30.12977009850345], [31.380852831189255, 30.125972144880468], [31.371533023568908, 30.1186692752026], [31.36914043509619, 30.116717885142016], [31.368998806254503, 30.116559605712382], [31.368928302932627, 30.116419321748662], [31.368857682977875, 30.11610457568379], [31.368823261675313, 30.11468777401546], [31.368771892631678, 30.11442866733188], [31.368688461981893, 30.114221623415993], [31.369488662713284, 30.113147453080206]]]}}