{"type":"FeatureCollection","features":[{"type":"Feature","properties":{"ar":"شارع العروبه","en":"Al Orouba Street","cls":"trunk"},"geometry":{"type":"LineString","coordinates":[[31.33793,30.093101],[31.335054,30.091504],[31.332382,30.09]]}},{"type":"Feature","properties":{"ar":"شارع النزهه","en":"Al Nozha Street","cls":"secondary"},"geometry":{"type":"LineString","coordinates":[[31.343557,30.105394],[31.343693,30.105066]]}},{"type":"Feature","properties":{"ar":"شارع النزهه","en":"Al Nozha Street","cls":"primary"},"geometry":{"type":"LineString","coordinates":[[31.342858,30.0994],[31.34277,30.099325],[31.342732,30.099222],[31.342252,30.095965],[31.342185,30.095871],[31.342122,30.095838],[31.341948,30.095803],[31.34181,30.095807]]}},{"type":"Feature","properties":{"ar":"شارع عبد العزيز فهمى","en":"Abd Al Aziz Fahmy Street","cls":"tertiary"},"geometry":{"type":"LineString","coordinates":[[31.350839,30.100353],[31.350724,30.100388],[31.350635,30.100463],[31.348707,30.103018],[31.348669,30.103121],[31.348654,30.103381]]}},{"type":"Feature","properties":{"ar":"شارع نجيب بسيونى","en":"Naguib Basyouni Street","cls":"residential"},"geometry":{"type":"LineString","coordinates":[[31.348093,30.104381],[31.348215,30.104551],[31.348314,30.104627],[31.350023,30.105601]]}},{"type":"Feature","properties":{"ar":"شارع ابن الوردى","en":"Ibn Al Wardy Street","cls":"residential"},"geometry":{"type":"LineString","coordinates":[[31.350934,30.109111],[31.350485,30.1096],[31.350138,30.11]]}},{"type":"Feature","properties":{"ar":"شارع طارق بن زياد","en":"Tarek Ibn Ziyad Street","cls":"residential"},"geometry":{"type":"LineString","coordinates":[[31.352218,30.11],[31.352248,30.109966]]}},{"type":"Feature","properties":{"ar":"شارع عمر بن الخطاب","en":"Omar Ibn Al Khatab Street","cls":"tertiary"},"geometry":{"type":"LineString","coordinates":[[31.332609,30.101105],[31.332588,30.101004],[31.332609,30.100903],[31.332816,30.100434],[31.333411,30.098909],[31.334225,30.096953],[31.334243,30.096827],[31.334194,30.096605],[31.334204,30.096475]]}},{"type":"Feature","properties":{"ar":"شارع الشهيد فريد سميكه","en":"Al Shahid Farid Samikuh Street","cls":"primary"},"geometry":{"type":"LineString","coordinates":[[31.346671,30.11],[31.347605,30.108806],[31.347822,30.108549],[31.349598,30.106197],[31.349925,30.105745],[31.350302,30.105183],[31.35036,30.105059],[31.350372,30.104927]]}},{"type":"Feature","properties":{"ar":"شارع العروبه","en":"Al Orouba Street","cls":"trunk"},"geometry":{"type":"LineString","coordinates":[[31.333099,30.09],[31.333171,30.090042],[31.338131,30.092836],[31.338341,30.09298]]}},{"type":"Feature","properties":{"ar":"شارع احمد فؤاد","en":"Ahmed Fouad Street","cls":"tertiary"},"geometry":{"type":"LineString","coordinates":[[31.344065,30.105407],[31.34628,30.106169],[31.348634,30.107487]]}},{"type":"Feature","properties":{"ar":"شارع إسنا","en":"Esna Street","cls":"residential"},"geometry":{"type":"LineString","coordinates":[[31.33,30.09129],[31.330188,30.091571]]}},{"type":"Feature","properties":{"ar":"ميدان تريومف","en":"Triumph Square","cls":"secondary"},"geometry":{"type":"LineString","coordinates":[[31.343535,30.100669],[31.343434,30.100735],[31.34332,30.100783],[31.343189,30.10081],[31.343054,30.100811],[31.342922,30.100787],[31.342821,30.100749],[31.342651,30.100631],[31.342587,30.100554],[31.34251,30.100369],[31.342502,30.100256],[31.342525,30.100138],[31.342578,30.100028],[31.342657,30.09993],[31.34276,30.099851],[31.342925,30.099779]]}},{"type":"Feature","properties":{"ar":"شارع عثمان بن عفان","en":"Othman Ibn Affan Street","cls":"secondary"},"geometry":{"type":"LineString","coordinates":[[31.334194,30.096443],[31.333972,30.096341],[31.33,30.095091]]}},{"type":"Feature","properties":{"ar":"شارع عبد الله بن رواحه","en":"Abd Allah Ibn Rawahah Street","cls":"residential"},"geometry":{"type":"LineString","coordinates":[[31.351064,30.109974],[31.351041,30.11]]}},{"type":"Feature","properties":{"ar":"شارع صلاح الدين","en":"Salah Al Din Street","cls":"residential"},"geometry":{"type":"LineString","coordinates":[[31.334763,30.091333],[31.33,30.094935]]}},{"type":"Feature","properties":{"ar":"شارع الحجاز","en":"Al Hegaz Street","cls":"primary"},"geometry":{"type":"LineString","coordinates":[[31.33,30.104253],[31.336166,30.107032],[31.336992,30.107358],[31.338884,30.108162],[31.342437,30.109831],[31.342875,30.11]]}},{"type":"Feature","properties":{"ar":"شارع عثمان بن عفان","en":"Othman Ibn Affan Street","cls":"primary"},"geometry":{"type":"LineString","coordinates":[[31.343655,30.100514],[31.34383,30.100638],[31.344311,30.100915],[31.346076,30.101884],[31.348115,30.103044]]}},{"type":"Feature","properties":{"ar":"شارع عثمان بن عفان","en":"Othman Ibn Affan Street","cls":"primary"},"geometry":{"type":"LineString","coordinates":[[31.347841,30.103124],[31.344813,30.101427]]}},{"type":"Feature","properties":{"ar":"شارع عبد العزيز فهمى","en":"Abd Al Aziz Fahmy Street","cls":"tertiary"},"geometry":{"type":"LineString","coordinates":[[31.348115,30.103044],[31.348361,30.102904],[31.348441,30.102829],[31.349288,30.101588],[31.35027,30.100286],[31.350308,30.100167],[31.350291,30.100045]]}},{"type":"Feature","properties":{"ar":"شارع عثمان بن عفان","en":"Othman Ibn Affan Street","cls":"primary"},"geometry":{"type":"LineString","coordinates":[[31.348115,30.103044],[31.34921,30.103733],[31.350204,30.104376],[31.350451,30.104553],[31.350511,30.104633],[31.350581,30.10482],[31.350597,30.104974],[31.350566,30.105211]]}},{"type":"Feature","properties":{"ar":"شارع عبد العزيز فهمى","en":"Abd Al Aziz Fahmy Street","cls":"secondary"},"geometry":{"type":"LineString","coordinates":[[31.347952,30.103577],[31.344065,30.105407],[31.341329,30.106674]]}},{"type":"Feature","properties":{"ar":"شارع على شلبى","en":"Ali Shalaby Street","cls":"residential"},"geometry":{"type":"LineString","coordinates":[[31.34687,30.104088],[31.347364,30.104876],[31.347479,30.104995],[31.347615,30.105095],[31.349838,30.106333]]}},{"type":"Feature","properties":{"ar":"شارع الحجاز","en":"Al Hegaz Street","cls":"primary"},"geometry":{"type":"LineString","coordinates":[[31.342349,30.11],[31.342323,30.109989],[31.339714,30.108832],[31.338932,30.108424],[31.338547,30.108316],[31.338049,30.108065],[31.337466,30.107814],[31.336836,30.107613],[31.33634,30.107422],[31.334835,30.106648],[31.333429,30.106013],[31.331973,30.105328],[31.330924,30.104875],[31.33,30.104461]]}},{"type":"Feature","properties":{"ar":"شارع بيروت","en":"Beirut Street","cls":"tertiary"},"geometry":{"type":"LineString","coordinates":[[31.33,30.091645],[31.332736,30.09054],[31.332805,30.090466],[31.33282,30.090402],[31.3328,30.09029],[31.332743,30.090199]]}},{"type":"Feature","properties":{"ar":"شارع عثمان بن عفان","en":"Othman Ibn Affan Street","cls":"secondary"},"geometry":{"type":"LineString","coordinates":[[31.33,30.095002],[31.33404,30.09627],[31.334247,30.096298]]}},{"type":"Feature","properties":{"ar":"ميدان الاسماعيلية","en":"Al Ismaileya Square","cls":"secondary"},"geometry":{"type":"LineString","coordinates":[[31.334846,30.096414],[31.334885,30.096495],[31.334864,30.096597],[31.334777,30.096667],[31.334639,30.0967],[31.334462,30.096677],[31.334344,30.096624],[31.334225,30.096509],[31.33419,30.096416],[31.334207,30.096345],[31.334269,30.096282],[31.334361,30.096251],[31.334445,30.096241],[31.334571,30.096251],[31.334652,30.096274],[31.33476,30.096332],[31.334846,30.096414]]}},{"type":"Feature","properties":{"ar":"شارع عثمان بن عفان","en":"Othman Ibn Affan Street","cls":"secondary"},"geometry":{"type":"LineString","coordinates":[[31.334858,30.096429],[31.33502,30.096522],[31.335236,30.096615],[31.337848,30.097449],[31.338583,30.097747],[31.338759,30.09783],[31.338849,30.097907],[31.339198,30.098052],[31.342378,30.09982]]}},{"type":"Feature","properties":{"ar":"شارع عثمان بن عفان","en":"Othman Ibn Affan Street","cls":"secondary"},"geometry":{"type":"LineString","coordinates":[[31.342502,30.100256],[31.342465,30.100154],[31.342409,30.100062],[31.342329,30.099984],[31.339195,30.098191],[31.338606,30.097894],[31.338214,30.097731],[31.337693,30.097546],[31.335085,30.096746],[31.33474,30.096682]]}},{"type":"Feature","properties":{"ar":"شارع السيد الميرغنى","en":"Al Sayed Al Marghany Street","cls":"secondary"},"geometry":{"type":"LineString","coordinates":[[31.341579,30.09116],[31.341329,30.090855],[31.341053,30.090626]]}},{"type":"Feature","properties":{"ar":"شارع عبد العزيز فهمى","en":"Abd Al Aziz Fahmy Street","cls":"secondary"},"geometry":{"type":"LineString","coordinates":[[31.338547,30.108316],[31.338264,30.108332],[31.337986,30.108378],[31.337764,30.108442],[31.337459,30.108554],[31.336568,30.108994],[31.33494,30.109744],[31.334366,30.11]]}},{"type":"Feature","properties":{"ar":"شارع عبد العزيز فهمى","en":"Abd Al Aziz Fahmy Street","cls":"secondary"},"geometry":{"type":"LineString","coordinates":[[31.333726,30.11],[31.334827,30.109493],[31.335542,30.109188],[31.336385,30.108804],[31.337639,30.10818],[31.337712,30.108097],[31.337727,30.108047],[31.337714,30.107914]]}},{"type":"Feature","properties":{"ar":"شارع النزهه","en":"Al Nozha Street","cls":"secondary"},"geometry":{"type":"LineString","coordinates":[[31.345216,30.11],[31.343928,30.106014],[31.343819,30.105791],[31.34375,30.105712],[31.343624,30.105605]]}},{"type":"Feature","properties":{"ar":"شارع النزهه","en":"Al Nozha Street","cls":"secondary"},"geometry":{"type":"LineString","coordinates":[[31.34332,30.100783],[31.343279,30.101029],[31.343313,30.101416],[31.343836,30.104836],[31.343871,30.104969],[31.343911,30.105049],[31.344015,30.105179]]}},{"type":"Feature","properties":{"ar":"شارع صلاح الدين فاضل","en":"Salah Al Din Fadel Street","cls":"residential"},"geometry":{"type":"LineString","coordinates":[[31.348674,30.109184],[31.349952,30.11]]}},{"type":"Feature","properties":{"ar":"شارع احمد عبد السلام ذكى","en":"Ahmed Abd Al Salam Zaki Street","cls":"residential"},"geometry":{"type":"LineString","coordinates":[[31.349234,30.11],[31.349489,30.109705]]}},{"type":"Feature","properties":{"ar":"شارع ابراهيم النجار","en":"Ibrahim Al Nagar Street","cls":"residential"},"geometry":{"type":"LineString","coordinates":[[31.349451,30.108131],[31.348129,30.109923]]}},{"type":"Feature","properties":{"ar":"شارع المنتزه","en":"Al Montazah Street","cls":"tertiary"},"geometry":{"type":"LineString","coordinates":[[31.338397,30.11],[31.338226,30.108936],[31.33815,30.108601],[31.338094,30.108524],[31.338031,30.108481],[31.337929,30.108453],[31.337764,30.108442]]}},{"type":"Feature","properties":{"ar":"شارع هارون الرشيد","en":"Haroun Al Rashid Street","cls":"tertiary"},"geometry":{"type":"LineString","coordinates":[[31.332884,30.101114],[31.334789,30.102819],[31.336069,30.103941],[31.33753,30.105267],[31.337656,30.105338],[31.337814,30.105384]]}},{"type":"Feature","properties":{"ar":"شارع هارون الرشيد","en":"Haroun Al Rashid Street","cls":"tertiary"},"geometry":{"type":"LineString","coordinates":[[31.337743,30.105546],[31.337531,30.105387],[31.33599,30.104008],[31.332773,30.101178]]}},{"type":"Feature","properties":{"ar":"شارع عمر بكير","en":"Omar Bakir Street","cls":"residential"},"geometry":{"type":"LineString","coordinates":[[31.349022,30.103871],[31.348891,30.103981],[31.348739,30.104072],[31.34535,30.10568],[31.345271,30.105748],[31.345235,30.105805]]}},{"type":"Feature","properties":{"ar":"شارع خليل العروسى","en":"Khalil Al Arousi Street","cls":"residential"},"geometry":{"type":"LineString","coordinates":[[31.349149,30.106788],[31.346792,30.105473],[31.346645,30.105341],[31.346496,30.10513]]}},{"type":"Feature","properties":{"ar":"شارع محمود وجيه خليل","en":"Mahmoud Wagih Khalil Street","cls":"residential"},"geometry":{"type":"LineString","coordinates":[[31.346792,30.105473],[31.345465,30.10726]]}},{"type":"Feature","properties":{"ar":"شارع عمر بن الخطاب","en":"Omar Ibn Al Khatab Street","cls":"tertiary"},"geometry":{"type":"LineString","coordinates":[[31.341728,30.090384],[31.341869,30.090392],[31.342007,30.090339],[31.342463,30.09]]}},{"type":"Feature","properties":{"ar":"شارع السيد الميرغنى","en":"Al Sayed Al Marghany Street","cls":"secondary"},"geometry":{"type":"LineString","coordinates":[[31.344374,30.092127],[31.345403,30.09262],[31.345567,30.092661],[31.345693,30.092674],[31.345904,30.092655],[31.346302,30.092555],[31.347033,30.09219],[31.347769,30.091776],[31.348127,30.091487]]}},{"type":"Feature","properties":{"ar":"شارع الفي شحاته","en":"Alfi Shehata Street","cls":"residential"},"geometry":{"type":"LineString","coordinates":[[31.345206,30.090121],[31.345085,30.09]]}},{"type":"Feature","properties":{"ar":"شارع الشهيد على صالح","en":"Al Shahid Ali Saleh Street","cls":"residential"},"geometry":{"type":"LineString","coordinates":[[31.34648,30.090588],[31.346464,30.090678],[31.346393,30.09085],[31.346338,30.090929],[31.346196,30.091065],[31.346111,30.091119],[31.345921,30.091197],[31.345818,30.09122],[31.345618,30.091229]]}},{"type":"Feature","properties":{"ar":"شارع الشهيد مصطفى طباله","en":"Al Shahid Moustafa Tabaluh Street","cls":"residential"},"geometry":{"type":"LineString","coordinates":[[31.345476,30.09],[31.345874,30.090389],[31.345918,30.090454],[31.345935,30.090529],[31.345921,30.09061],[31.345833,30.090717],[31.345692,30.090765],[31.345543,30.090738],[31.345464,30.090681],[31.345016,30.09024]]}},{"type":"Feature","properties":{"ar":"شارع الشهيد ابراهيم هندى","en":"Al Shahid Ibrahim Hendy Street","cls":"residential"},"geometry":{"type":"LineString","coordinates":[[31.347091,30.090545],[31.347008,30.090591],[31.346929,30.090605],[31.345933,30.090567]]}},{"type":"Feature","properties":{"ar":"شارع مصطفى طلبه","en":"Moustafa Tolba Street","cls":"residential"},"geometry":{"type":"LineString","coordinates":[[31.34565,30.090765],[31.345543,30.092176],[31.345558,30.092274]]}},{"type":"Feature","properties":{"ar":"شارع الشهيد كمال الفسخاني","en":"Al Shahid Kamal Al Faskhany Street","cls":"residential"},"geometry":{"type":"LineString","coordinates":[[31.345667,30.092211],[31.346015,30.092171],[31.346352,30.092087],[31.346664,30.091949],[31.346829,30.091846],[31.346979,30.091729],[31.347173,30.091528],[31.347359,30.091246],[31.347477,30.090938],[31.347517,30.09074],[31.347511,30.090693]]}},{"type":"Feature","properties":{"ar":"شارع الخرطوم","en":"Al Khartoum Street","cls":"residential"},"geometry":{"type":"LineString","coordinates":[[31.331424,30.09],[31.331299,30.090167],[31.331225,30.090244],[31.331118,30.090321],[31.33,30.090786]]}},{"type":"Feature","properties":{"ar":"شارع الإسكندرية","en":"Al Alexandria Street","cls":"residential"},"geometry":{"type":"LineString","coordinates":[[31.33,30.097452],[31.332132,30.099588],[31.332293,30.09968],[31.333023,30.099903]]}},{"type":"Feature","properties":{"ar":"شارع دمنهور","en":"Damanhour Street","cls":"residential"},"geometry":{"type":"LineString","coordinates":[[31.331321,30.096448],[31.33,30.097449]]}},{"type":"Feature","properties":{"ar":"شارع المنصوره","en":"Al Mansoura Street","cls":"residential"},"geometry":{"type":"LineString","coordinates":[[31.33,30.096189],[31.330603,30.095732]]}},{"type":"Feature","properties":{"ar":"شارع شبين","en":"Shebin Street","cls":"residential"},"geometry":{"type":"LineString","coordinates":[[31.333895,30.097746],[31.33213,30.097188],[31.332007,30.097121],[31.330239,30.09537],[31.330212,30.095276],[31.330259,30.095166]]}},{"type":"Feature","properties":{"ar":"شارع اسوان","en":"Aswan Street","cls":"residential"},"geometry":{"type":"LineString","coordinates":[[31.330137,30.102434],[31.33,30.102297]]}},{"type":"Feature","properties":{"ar":"شارع العقبه","en":"Al Aqaba Street","cls":"residential"},"geometry":{"type":"LineString","coordinates":[[31.331388,30.099711],[31.330195,30.100627]]}},{"type":"Feature","properties":{"ar":"شارع الوسطي","en":"Al Wosta Street","cls":"residential"},"geometry":{"type":"LineString","coordinates":[[31.330998,30.099324],[31.33,30.100089]]}},{"type":"Feature","properties":{"ar":"شارع الكهف","en":"Al Kahf Street","cls":"residential"},"geometry":{"type":"LineString","coordinates":[[31.331436,30.100893],[31.331552,30.10105],[31.331944,30.101505]]}},{"type":"Feature","properties":{"ar":"شارع ندى","en":"Nada Street","cls":"residential"},"geometry":{"type":"LineString","coordinates":[[31.330228,30.101613],[31.330703,30.102103]]}},{"type":"Feature","properties":{"ar":"حارة الوسط","en":"Al Wasat Alley","cls":"residential"},"geometry":{"type":"LineString","coordinates":[[31.33,30.099033],[31.330401,30.09873]]}},{"type":"Feature","properties":{"ar":"شارع عزبة البستان","en":"Ezbet Al Bostan Street","cls":"residential"},"geometry":{"type":"LineString","coordinates":[[31.330541,30.09887],[31.33,30.099281]]}},{"type":"Feature","properties":{"ar":"شارع بلبيس","en":"Belbes Street","cls":"residential"},"geometry":{"type":"LineString","coordinates":[[31.330838,30.099165],[31.33,30.099812]]}},{"type":"Feature","properties":{"ar":"شارع ندى","en":"Nada Street","cls":"residential"},"geometry":{"type":"LineString","coordinates":[[31.330332,30.101549],[31.33,30.101225]]}},{"type":"Feature","properties":{"ar":"شارع الإمام على","en":"Al Imam Ali Street","cls":"residential"},"geometry":{"type":"LineString","coordinates":[[31.330178,30.098509],[31.332007,30.097121],[31.332978,30.096028]]}},{"type":"Feature","properties":{"ar":"شارع قناه السويس","en":"Qanah Al Suez Street","cls":"residential"},"geometry":{"type":"LineString","coordinates":[[31.337041,30.097344],[31.337055,30.097391],[31.33705,30.097463],[31.337028,30.097508],[31.336973,30.097563],[31.333481,30.099663],[31.333302,30.099731]]}},{"type":"Feature","properties":{"ar":"شارع العباسيين","en":"Al Abbaseyin Street","cls":"residential"},"geometry":{"type":"LineString","coordinates":[[31.336745,30.098481],[31.336389,30.098025],[31.336258,30.097919],[31.334337,30.097297]]}},{"type":"Feature","properties":{"ar":"شارع الخلفاء","en":"Al Kholafa' Street","cls":"residential"},"geometry":{"type":"LineString","coordinates":[[31.336008,30.098965],[31.335625,30.098498],[31.335486,30.098389],[31.334075,30.097913]]}},{"type":"Feature","properties":{"ar":"شارع الفاطميين","en":"Al Fatemyin Street","cls":"residential"},"geometry":{"type":"LineString","coordinates":[[31.333805,30.098547],[31.334757,30.098871],[31.334826,30.098929],[31.335108,30.099284],[31.335147,30.09931],[31.335218,30.099323],[31.335363,30.099296],[31.335462,30.099293],[31.33556,30.099305],[31.335602,30.099337]]}},{"type":"Feature","properties":{"ar":"شارع محمد كمال الدين حسين","en":"Mohamed Kamal Al Din Hussein Street","cls":"residential"},"geometry":{"type":"LineString","coordinates":[[31.335181,30.098281],[31.335741,30.096946]]}},{"type":"Feature","properties":{"ar":"شارع العزيز","en":"Al Aziz Street","cls":"residential"},"geometry":{"type":"LineString","coordinates":[[31.333951,30.099381],[31.334412,30.100012]]}},{"type":"Feature","properties":{"ar":"شارع زفتى","en":"Zefta Street","cls":"residential"},"geometry":{"type":"LineString","coordinates":[[31.333106,30.092586],[31.332134,30.091642],[31.331544,30.091027]]}},{"type":"Feature","properties":{"ar":"شارع محمد صبرى ابو علم باشا","en":"Mohamed Sabry Abou Aalam Pasha Street","cls":"residential"},"geometry":{"type":"LineString","coordinates":[[31.334692,30.095884],[31.330994,30.092203],[31.330913,30.092101],[31.330625,30.091555],[31.330617,30.091462],[31.330641,30.091389]]}},{"type":"Feature","properties":{"ar":"شارع اشمون","en":"Ashmoun Street","cls":"residential"},"geometry":{"type":"LineString","coordinates":[[31.332134,30.091642],[31.330272,30.092412],[31.33,30.092517]]}},{"type":"Feature","properties":{"ar":"شارع تلا","en":"Tala Street","cls":"residential"},"geometry":{"type":"LineString","coordinates":[[31.331758,30.094756],[31.330522,30.09351],[31.330486,30.093428],[31.330272,30.092412]]}},{"type":"Feature","properties":{"ar":"شارع الإمام على","en":"Al Imam Ali Street","cls":"residential"},"geometry":{"type":"LineString","coordinates":[[31.337104,30.092643],[31.336714,30.093177],[31.336622,30.093276],[31.333062,30.095963]]}},{"type":"Feature","properties":{"ar":"شارع مراد","en":"Mourad Street","cls":"residential"},"geometry":{"type":"LineString","coordinates":[[31.336238,30.092159],[31.335798,30.092744],[31.335704,30.092839],[31.332042,30.095644]]}},{"type":"Feature","properties":{"ar":"شارع قايتباى","en":"Qaitbay Street","cls":"residential"},"geometry":{"type":"LineString","coordinates":[[31.332741,30.092862],[31.335304,30.095422]]}},{"type":"Feature","properties":{"ar":"شارع دسوق","en":"Desok Street","cls":"residential"},"geometry":{"type":"LineString","coordinates":[[31.335932,30.094946],[31.33336,30.092393]]}},{"type":"Feature","properties":{"ar":"شارع الخليفه العادل","en":"Al Khalifa Al Adel Street","cls":"residential"},"geometry":{"type":"LineString","coordinates":[[31.33599,30.093756],[31.336659,30.094401]]}},{"type":"Feature","properties":{"ar":"شارع رشيد","en":"Rashid Street","cls":"residential"},"geometry":{"type":"LineString","coordinates":[[31.33101,30.095319],[31.334857,30.092414],[31.334968,30.092306],[31.335419,30.0917]]}},{"type":"Feature","properties":{"ar":"شارع الخليفه العادل","en":"Al Khalifa Al Adel Street","cls":"residential"},"geometry":{"type":"LineString","coordinates":[[31.335928,30.093802],[31.335274,30.093168]]}},{"type":"Feature","properties":{"ar":"شارع افلاطون","en":"Aflatoun Street","cls":"residential"},"geometry":{"type":"LineString","coordinates":[[31.337584,30.093711],[31.337719,30.093838],[31.337828,30.093913],[31.340459,30.095378],[31.340595,30.095499],[31.341057,30.096067]]}},{"type":"Feature","properties":{"ar":"شارع رشدى باشا","en":"Roshdi Pasha Street","cls":"residential"},"geometry":{"type":"LineString","coordinates":[[31.341281,30.094987],[31.337407,30.097307]]}},{"type":"Feature","properties":{"ar":"شارع يعقوب ارتين","en":"Yaacoub Artin Street","cls":"residential"},"geometry":{"type":"LineString","coordinates":[[31.338846,30.093682],[31.338511,30.094153],[31.338404,30.094269],[31.33612,30.096006],[31.336008,30.096164],[31.335754,30.096779]]}},{"type":"Feature","properties":{"ar":"شارع فوزي المطيعي باشا","en":"Fawzi Al Moteaay Pasha Street","cls":"residential"},"geometry":{"type":"LineString","coordinates":[[31.339587,30.094076],[31.33921,30.094575],[31.339101,30.094681],[31.336885,30.096249],[31.336789,30.096387],[31.336528,30.097023]]}},{"type":"Feature","properties":{"ar":"شارع كمال الشافعى","en":"Kamal Al Shafie Street","cls":"residential"},"geometry":{"type":"LineString","coordinates":[[31.338283,30.096782],[31.33606,30.096075],[31.335906,30.095981],[31.335442,30.095552]]}},{"type":"Feature","properties":{"ar":"شارع ابن سينا","en":"Ibn Sina Street","cls":"residential"},"geometry":{"type":"LineString","coordinates":[[31.340243,30.094428],[31.339879,30.094949],[31.339786,30.095044],[31.337554,30.096552]]}},{"type":"Feature","properties":{"ar":"شارع سرابيس","en":"Sarabis Street","cls":"residential"},"geometry":{"type":"LineString","coordinates":[[31.339206,30.095438],[31.339779,30.095965],[31.34016,30.096426]]}},{"type":"Feature","properties":{"ar":"شارع ابو بكر الصديق","en":"Abou Bakr Al Sedik Street","cls":"primary"},"geometry":{"type":"LineString","coordinates":[[31.33,30.102512],[31.331364,30.101714],[31.331515,30.101654],[31.331734,30.101631]]}},{"type":"Feature","properties":{"ar":"شارع بيروت","en":"Beirut Street","cls":"residential"},"geometry":{"type":"LineString","coordinates":[[31.333458,30.090204],[31.333821,30.09]]}},{"type":"Feature","properties":{"ar":"شارع الغزالى","en":"Al Ghazali Street","cls":"residential"},"geometry":{"type":"LineString","coordinates":[[31.335102,30.09],[31.334914,30.091023]]}},{"type":"Feature","properties":{"ar":"شارع عمر بن الخطاب","en":"Omar Ibn Al Khatab Street","cls":"tertiary"},"geometry":{"type":"LineString","coordinates":[[31.338276,30.092931],[31.338482,30.09294],[31.338629,30.0929],[31.338717,30.092853],[31.340866,30.091198],[31.341044,30.091054],[31.341126,30.090932],[31.341144,30.090791],[31.341095,30.090655]]}},{"type":"Feature","properties":{"ar":"شارع عمر بن الخطاب","en":"Omar Ibn Al Khatab Street","cls":"tertiary"},"geometry":{"type":"LineString","coordinates":[[31.341594,30.091232],[31.341496,30.091157],[31.341418,30.091131],[31.341295,30.091136],[31.341222,30.09117],[31.339063,30.092821],[31.338985,30.09292],[31.33895,30.093029],[31.338955,30.093141],[31.339023,30.093279]]}},{"type":"Feature","properties":{"ar":"شارع عبد الواحد","en":"Abd Al Wahed Street","cls":"residential"},"geometry":{"type":"LineString","coordinates":[[31.339175,30.0925],[31.336102,30.090767]]}},{"type":"Feature","properties":{"ar":"شارع لومومبا","en":"Lomomba Street","cls":"residential"},"geometry":{"type":"LineString","coordinates":[[31.335618,30.091418],[31.336643,30.090031],[31.336668,30.09]]}},{"type":"Feature","properties":{"ar":"شارع عبد السلام فريد","en":"Abd Al Salam Farid Street","cls":"residential"},"geometry":{"type":"LineString","coordinates":[[31.336591,30.09],[31.339845,30.091984]]}},{"type":"Feature","properties":{"ar":"شارع حسن محمد علام","en":"Hassn Mohamed Alam Street","cls":"residential"},"geometry":{"type":"LineString","coordinates":[[31.338441,30.092083],[31.340019,30.090845]]}},{"type":"Feature","properties":{"ar":"شارع الدكتور على مصطفى مشرفه","en":"Al Doctor Ali Moustafa Moshrafa Street","cls":"residential"},"geometry":{"type":"LineString","coordinates":[[31.337303,30.092368],[31.338305,30.091045],[31.33885,30.090255]]}},{"type":"Feature","properties":{"ar":"شارع الصفا","en":"Al Safa Street","cls":"residential"},"geometry":{"type":"LineString","coordinates":[[31.339599,30.091175],[31.339097,30.090329]]}},{"type":"Feature","properties":{"ar":"شارع البادية","en":"Al Badyah Street","cls":"residential"},"geometry":{"type":"LineString","coordinates":[[31.340221,30.090179],[31.340063,30.090243],[31.339045,30.090334],[31.33889,30.090329],[31.33871,30.090282],[31.33863,30.090245],[31.33824,30.09]]}},{"type":"Feature","properties":{"ar":"شارع محمود عزمى القطان","en":"Mahmoud Azmy Al Qatan Street","cls":"residential"},"geometry":{"type":"LineString","coordinates":[[31.340013,30.092095],[31.341261,30.092872],[31.341307,30.092958]]}},{"type":"Feature","properties":{"ar":"شارع عبد الله فكرى","en":"Abd Allah Fekry Street","cls":"residential"},"geometry":{"type":"LineString","coordinates":[[31.341307,30.092958],[31.341301,30.093021],[31.341241,30.093101],[31.340158,30.093915]]}},{"type":"Feature","properties":{"ar":"شارع عبد القوى احمد باشا","en":"Abd Al Qawi Ahmed Pasha Street","cls":"residential"},"geometry":{"type":"LineString","coordinates":[[31.339063,30.092821],[31.339067,30.092887],[31.339099,30.092947],[31.339155,30.092992],[31.339226,30.093016],[31.340039,30.09299]]}},{"type":"Feature","properties":{"ar":"شارع الشيخ عبد الوهاب النجار","en":"Al Sheikh Abd Al Wahab Al Nagar Street","cls":"residential"},"geometry":{"type":"LineString","coordinates":[[31.342657,30.098722],[31.341836,30.098816],[31.341792,30.098834],[31.341733,30.098893],[31.341453,30.099303]]}},{"type":"Feature","properties":{"ar":"شارع الشيخ حسن العطار","en":"Al Sheikh Hassn Al Atar Street","cls":"residential"},"geometry":{"type":"LineString","coordinates":[[31.34062,30.098841],[31.341112,30.098176],[31.341533,30.097923],[31.341643,30.097865],[31.341768,30.097836],[31.342512,30.09775]]}},{"type":"Feature","properties":{"ar":"شارع نخله المطيعى","en":"Nakhla Al Moteaay Street","cls":"tertiary"},"geometry":{"type":"LineString","coordinates":[[31.33456,30.100096],[31.334585,30.100226],[31.334644,30.100311],[31.334731,30.100375],[31.334837,30.100411],[31.340214,30.10131],[31.34025,30.10132],[31.340306,30.101363]]}},{"type":"Feature","properties":{"ar":"شارع محمود حافظ","en":"Mahmoud Hafez Street","cls":"residential"},"geometry":{"type":"LineString","coordinates":[[31.337728,30.100994],[31.33812,30.09808]]}},{"type":"Feature","properties":{"ar":"شارع فارسكور","en":"Farskour Street","cls":"residential"},"geometry":{"type":"LineString","coordinates":[[31.340418,30.09889],[31.340221,30.099623],[31.340224,30.099753],[31.340037,30.100464],[31.340035,30.100633],[31.339879,30.101254]]}},{"type":"Feature","properties":{"ar":"شارع محمد رمزى بك","en":"Mohamed Ramzy Bek Street","cls":"residential"},"geometry":{"type":"LineString","coordinates":[[31.342019,30.099804],[31.340334,30.100545],[31.340234,30.100572],[31.34013,30.100578],[31.337843,30.10018],[31.336568,30.099986]]}},{"type":"Feature","properties":{"ar":"شارع ميت غمر","en":"Mit Ghamr Street","cls":"residential"},"geometry":{"type":"LineString","coordinates":[[31.33609,30.100721],[31.336123,30.100625],[31.336424,30.100137],[31.336568,30.099986],[31.33733,30.099472],[31.337987,30.099093]]}},{"type":"Feature","properties":{"ar":"شارع الخليفه المنصور","en":"Al Khalifa Al Mansour Street","cls":"residential"},"geometry":{"type":"LineString","coordinates":[[31.341552,30.100903],[31.341189,30.100327],[31.341092,30.100219],[31.340958,30.10011],[31.338069,30.098474]]}},{"type":"Feature","properties":{"ar":"شارع دكرنس","en":"Dekernes Street","cls":"residential"},"geometry":{"type":"LineString","coordinates":[[31.339462,30.099262],[31.339327,30.099838],[31.339214,30.10042]]}},{"type":"Feature","properties":{"ar":"شارع فاقوس","en":"Faqos Street","cls":"residential"},"geometry":{"type":"LineString","coordinates":[[31.338961,30.098979],[31.339452,30.098337]]}},{"type":"Feature","properties":{"ar":"شارع اجا","en":"Aga Street","cls":"residential"},"geometry":{"type":"LineString","coordinates":[[31.337955,30.099333],[31.339327,30.099838]]}},{"type":"Feature","properties":{"ar":"شارع مستشفى هليوبوليس","en":"Mostashfa Heliopolis Street","cls":"residential"},"geometry":{"type":"LineString","coordinates":[[31.336166,30.107032],[31.336587,30.106299],[31.336968,30.105687],[31.337097,30.105551],[31.337487,30.105228]]}},{"type":"Feature","properties":{"ar":"شارع الدكتور على ابراهيم رامز","en":"Al Doctor Ali Ibrahim Ramez Street","cls":"residential"},"geometry":{"type":"LineString","coordinates":[[31.336968,30.105687],[31.333733,30.10423],[31.331188,30.103107],[31.33055,30.102829],[31.330333,30.102774]]}},{"type":"Feature","properties":{"ar":"شارع عبد الحميد ابو هيف","en":"Abd Al Hamid Abou Hif Street","cls":"residential"},"geometry":{"type":"LineString","coordinates":[[31.33,30.103321],[31.333149,30.104729],[31.336639,30.106322]]}},{"type":"Feature","properties":{"ar":"شارع محمد ذكى","en":"Mohamed Zaki Street","cls":"residential"},"geometry":{"type":"LineString","coordinates":[[31.33188,30.10497],[31.332491,30.104437],[31.33311,30.103955]]}},{"type":"Feature","properties":{"ar":"شارع محمود ابو النصر","en":"Mahmoud Abou Al Nasr Street","cls":"residential"},"geometry":{"type":"LineString","coordinates":[[31.332432,30.105351],[31.333733,30.10423]]}},{"type":"Feature","properties":{"ar":"شارع الدكتور على فهمى الزناتى","en":"Al Doctor Ali Fahmy Al Zanaty Street","cls":"residential"},"geometry":{"type":"LineString","coordinates":[[31.336069,30.103941],[31.335039,30.104822]]}},{"type":"Feature","properties":{"ar":"شارع ابو تيج","en":"Abou Tieg Street","cls":"residential"},"geometry":{"type":"LineString","coordinates":[[31.336481,30.104446],[31.33567,30.105107]]}},{"type":"Feature","properties":{"ar":"شارع الدكتور عبد الرؤوف حسن","en":"Al Doctor Abd Al Raouf Hassn Street","cls":"residential"},"geometry":{"type":"LineString","coordinates":[[31.336938,30.104855],[31.336271,30.105375]]}},{"type":"Feature","properties":{"ar":"شارع الدكتور محمود ناشد","en":"Al Doctor Mahmoud Nashed Street","cls":"residential"},"geometry":{"type":"LineString","coordinates":[[31.335472,30.103557],[31.334373,30.104521]]}},{"type":"Feature","properties":{"ar":"شارع المحكمه","en":"Al Mahkama Street","cls":"residential"},"geometry":{"type":"LineString","coordinates":[[31.331188,30.103107],[31.330485,30.103538],[31.330347,30.103702],[31.330062,30.104171]]}},{"type":"Feature","properties":{"ar":"شارع السيد ابو شادى","en":"Al Sayed Abou Shady Street","cls":"residential"},"geometry":{"type":"LineString","coordinates":[[31.343009,30.098769],[31.344151,30.098652],[31.344208,30.098631],[31.34429,30.098552],[31.34525,30.097272]]}},{"type":"Feature","properties":{"ar":"شارع نخله المطيعي","en":"Nakhla Al Matei Street","cls":"tertiary"},"geometry":{"type":"LineString","coordinates":[[31.347651,30.098571],[31.347524,30.098546],[31.347394,30.098548],[31.347268,30.098577],[31.343902,30.100006],[31.343752,30.1001],[31.343712,30.100167]]}},{"type":"Feature","properties":{"ar":"شارع نخله المطيعي","en":"Nakhla Al Matei Street","cls":"tertiary"},"geometry":{"type":"LineString","coordinates":[[31.343591,30.099951],[31.343678,30.099956],[31.343856,30.099913],[31.347094,30.098549],[31.347154,30.098504],[31.347194,30.098445],[31.347207,30.098378],[31.347194,30.09831]]}},{"type":"Feature","properties":{"ar":"شارع النجاح","en":"Al Nagah Street","cls":"residential"},"geometry":{"type":"LineString","coordinates":[[31.346509,30.097922],[31.345516,30.09836],[31.344387,30.098832]]}},{"type":"Feature","properties":{"ar":"شارع الامل","en":"Al Amal Street","cls":"residential"},"geometry":{"type":"LineString","coordinates":[[31.344519,30.101029],[31.344687,30.100961],[31.344799,30.100883],[31.345192,30.100359],[31.345315,30.100244],[31.347985,30.099059],[31.348038,30.099024],[31.348095,30.098921],[31.348076,30.098809]]}},{"type":"Feature","properties":{"ar":"شارع احمد فهيم بيومى","en":"Ahmed Fahim Bayoumi Street","cls":"residential"},"geometry":{"type":"LineString","coordinates":[[31.348796,30.102314],[31.345394,30.100391],[31.345262,30.100284]]}},{"type":"Feature","properties":{"ar":"شارع اللواء عبد العزيز على","en":"Al Lowa' Abd Al Aziz Ali Street","cls":"residential"},"geometry":{"type":"LineString","coordinates":[[31.346259,30.099819],[31.346305,30.099893],[31.346379,30.099962],[31.349288,30.101588]]}},{"type":"Feature","properties":{"ar":"شارع الشهيد محمود حسونه","en":"Al Shahid Mahmoud Hassouna Street","cls":"residential"},"geometry":{"type":"LineString","coordinates":[[31.346916,30.09953],[31.346979,30.099606],[31.347099,30.099704],[31.349637,30.101127]]}},{"type":"Feature","properties":{"ar":"شارع محمود حسان عشرى","en":"Mahmoud Hassan Ashry Street","cls":"residential"},"geometry":{"type":"LineString","coordinates":[[31.349981,30.100671],[31.347781,30.099434],[31.347531,30.099259]]}},{"type":"Feature","properties":{"ar":"شارع عبد الله ابو السعود","en":"Abd Allah Abou Al Seoud Street","cls":"residential"},"geometry":{"type":"LineString","coordinates":[[31.340149,30.10376],[31.341118,30.102184],[31.341211,30.102072],[31.341331,30.101982],[31.342124,30.101656],[31.343148,30.101537]]}},{"type":"Feature","properties":{"ar":"شارع عبد العزيز اسماعيل","en":"Abd Al Aziz Ismail Street","cls":"residential"},"geometry":{"type":"LineString","coordinates":[[31.342376,30.104841],[31.342419,30.104813],[31.342486,30.104736],[31.342507,30.104688],[31.342516,30.104589],[31.342124,30.101656],[31.342056,30.101502],[31.341539,30.100991]]}},{"type":"Feature","properties":{"ar":"شارع مصطفى صديق الرافعى","en":"Moustafa Sedik Al Rafei Street","cls":"residential"},"geometry":{"type":"LineString","coordinates":[[31.339675,30.106128],[31.342174,30.102047]]}},{"type":"Feature","properties":{"ar":"شارع عبد اللطيف المكباتى","en":"Abd Al Latif Al Makbaty Street","cls":"residential"},"geometry":{"type":"LineString","coordinates":[[31.342523,30.104901],[31.340912,30.105624],[31.339228,30.106412],[31.339065,30.106455],[31.338192,30.106539]]}},{"type":"Feature","properties":{"ar":"شارع محمد عدلى كفافى","en":"Mohamed Adly Kafafi Street","cls":"residential"},"geometry":{"type":"LineString","coordinates":[[31.343711,30.104016],[31.343834,30.104053],[31.343895,30.104045],[31.346599,30.10278],[31.346659,30.10274],[31.346703,30.102686],[31.346726,30.102623],[31.346727,30.102557],[31.346704,30.102494]]}},{"type":"Feature","properties":{"ar":"شارع على شاكر الروبى","en":"Ali Shaker Al Roubi Street","cls":"residential"},"geometry":{"type":"LineString","coordinates":[[31.343433,30.102197],[31.344142,30.102121],[31.344307,30.10207],[31.344416,30.101979],[31.344813,30.101427]]}},{"type":"Feature","properties":{"ar":"شارع امين الشمسى باشا","en":"Amin Al Shamsy Pasha Street","cls":"residential"},"geometry":{"type":"LineString","coordinates":[[31.345249,30.109186],[31.346024,30.108998],[31.346133,30.108993],[31.346254,30.10901],[31.346497,30.109089],[31.347116,30.109436]]}},{"type":"Feature","properties":{"ar":"شارع احمد خشبه","en":"Ahmed Khashba Street","cls":"residential"},"geometry":{"type":"LineString","coordinates":[[31.345445,30.109791],[31.345995,30.109667],[31.346158,30.109662],[31.346308,30.109716],[31.346711,30.109957]]}},{"type":"Feature","properties":{"ar":"شارع محمد تيمور","en":"Mohamed Taymour Street","cls":"residential"},"geometry":{"type":"LineString","coordinates":[[31.346024,30.108998],[31.345042,30.105977],[31.345033,30.105933],[31.345062,30.105848]]}},{"type":"Feature","properties":{"ar":"شارع احمد سنان باشا","en":"Ahmed Snan Pasha Street","cls":"residential"},"geometry":{"type":"LineString","coordinates":[[31.340251,30.108814],[31.340634,30.108133],[31.340687,30.108064],[31.340823,30.107958],[31.342544,30.10712],[31.343175,30.106851],[31.34412,30.106593]]}},{"type":"Feature","properties":{"ar":"شارع امين الشمسى باشا","en":"Amin Al Shamsy Pasha Street","cls":"residential"},"geometry":{"type":"LineString","coordinates":[[31.343727,30.11],[31.343994,30.109562],[31.344052,30.109505],[31.344163,30.109443],[31.34498,30.109258]]}},{"type":"Feature","properties":{"ar":"شارع اسماعيل صبرى","en":"Ismail Sabry Street","cls":"residential"},"geometry":{"type":"LineString","coordinates":[[31.340188,30.107202],[31.340637,30.107882],[31.340753,30.108003],[31.344052,30.109505]]}},{"type":"Feature","properties":{"ar":"شارع الشيخ احمد السلاوى","en":"Al Sheikh Ahmed Al Selawy Street","cls":"residential"},"geometry":{"type":"LineString","coordinates":[[31.342544,30.10712],[31.342884,30.108053],[31.342913,30.108204],[31.342911,30.108307]]}},{"type":"Feature","properties":{"ar":"شارع محمد الماجد","en":"Mohamed Al Maged Street","cls":"residential"},"geometry":{"type":"LineString","coordinates":[[31.341433,30.108319],[31.342767,30.107709]]}},{"type":"Feature","properties":{"ar":"شارع الشيخ بشير نعمه","en":"Al Sheikh Bashir Neema Street","cls":"residential"},"geometry":{"type":"LineString","coordinates":[[31.343784,30.108694],[31.342172,30.107979]]}},{"type":"Feature","properties":{"ar":"شارع احمد خشبه","en":"Ahmed Khashba Street","cls":"residential"},"geometry":{"type":"LineString","coordinates":[[31.345173,30.109863],[31.344749,30.109959],[31.344678,30.11]]}},{"type":"Feature","properties":{"ar":"شارع الشيخ محمود ابو العيون","en":"Al Sheikh Mahmoud Abou Al Eyoun Street","cls":"residential"},"geometry":{"type":"LineString","coordinates":[[31.331973,30.105328],[31.331496,30.106146],[31.33144,30.106207],[31.331169,30.106471],[31.33,30.10754]]}},{"type":"Feature","properties":{"ar":"شارع الشيخ على محمود","en":"Al Sheikh Ali Mahmoud Street","cls":"residential"},"geometry":{"type":"LineString","coordinates":[[31.331496,30.106146],[31.335941,30.108142],[31.336015,30.108205],[31.336069,30.108282],[31.336385,30.108804]]}},{"type":"Feature","properties":{"ar":"شارع الدكتور على ابراهيم","en":"Al Doctor Ali Ibrahim Street","cls":"residential"},"geometry":{"type":"LineString","coordinates":[[31.332811,30.107656],[31.332716,30.107819],[31.332672,30.107932],[31.332629,30.108168],[31.332647,30.108405],[31.332679,30.108521],[31.332726,30.108634],[31.332824,30.108794]]}},{"type":"Feature","properties":{"ar":"شارع النجمه","en":"Al Negma Street","cls":"residential"},"geometry":{"type":"LineString","coordinates":[[31.335776,30.108134],[31.334402,30.108802]]}},{"type":"Feature","properties":{"ar":"شارع شهاب الدين","en":"Shehab Al Din Street","cls":"residential"},"geometry":{"type":"LineString","coordinates":[[31.332278,30.107483],[31.33215,30.107767],[31.332089,30.108066],[31.332085,30.108219],[31.332099,30.108371],[31.332157,30.108612],[31.332231,30.108789],[31.33233,30.108957]]}},{"type":"Feature","properties":{"ar":"شارع احمد عبد الوهاب باشا","en":"Ahmed Abd Al Wahab Pasha Street","cls":"residential"},"geometry":{"type":"LineString","coordinates":[[31.334469,30.109041],[31.332853,30.109787]]}},{"type":"Feature","properties":{"ar":"شارع زكريا الانصارى","en":"Zakaria Al Ansary Street","cls":"residential"},"geometry":{"type":"LineString","coordinates":[[31.334234,30.10866],[31.332611,30.109398]]}},{"type":"Feature","properties":{"ar":"شارع الدكتور حسن محمود","en":"Al Doctor Hassn Mahmoud Street","cls":"residential"},"geometry":{"type":"LineString","coordinates":[[31.33213,30.108521],[31.331203,30.108892],[31.330997,30.109016],[31.33,30.109936]]}},{"type":"Feature","properties":{"ar":"شارع الاميرالاى حسين جاد","en":"Al Amyralay Hussein Gad Street","cls":"residential"},"geometry":{"type":"LineString","coordinates":[[31.330636,30.109349],[31.33,30.108835]]}},{"type":"Feature","properties":{"ar":"شارع على فهمى كامل","en":"Ali Fahmy Kamel Street","cls":"residential"},"geometry":{"type":"LineString","coordinates":[[31.332079,30.107337],[31.330594,30.108681]]}},{"type":"Feature","properties":{"ar":"شارع لبيب الشاهد","en":"Labib Al Shahed Street","cls":"residential"},"geometry":{"type":"LineString","coordinates":[[31.331595,30.106926],[31.330113,30.10828]]}},{"type":"Feature","properties":{"ar":"شارع القائم مقام احمد فرج","en":"Al Qa'em Maqam Ahmed Farag Street","cls":"residential"},"geometry":{"type":"LineString","coordinates":[[31.332193,30.11],[31.331715,30.109247]]}},{"type":"Feature","properties":{"ar":"شارع القائم مقام فوده حسن","en":"Al Qa'em Maqam Fouda Hassn Street","cls":"residential"},"geometry":{"type":"LineString","coordinates":[[31.331113,30.109531],[31.331421,30.11]]}},{"type":"Feature","properties":{"ar":"شارع القائم مقام خضر خضر","en":"Al Qa'em Maqam Khedr Khedr Street","cls":"residential"},"geometry":{"type":"LineString","coordinates":[[31.331404,30.109974],[31.331349,30.11]]}},{"type":"Feature","properties":{"ar":"شارع شمس الدين الكوفى","en":"Shams Al Din Al Koufi Street","cls":"residential"},"geometry":{"type":"LineString","coordinates":[[31.335092,30.11],[31.33494,30.109744]]}},{"type":"Feature","properties":{"ar":"شارع بيومى بك نصار","en":"Bayoumi Bek Nasar Street","cls":"residential"},"geometry":{"type":"LineString","coordinates":[[31.335981,30.11],[31.338226,30.108936]]}},{"type":"Feature","properties":{"ar":"شارع محمد باشا رياض","en":"Mohamed Pasha Riyad Street","cls":"residential"},"geometry":{"type":"LineString","coordinates":[[31.336488,30.11],[31.336375,30.109812]]}},{"type":"Feature","properties":{"ar":"شارع سليمان باشا السيد","en":"Soliman Pasha Al Sayed Street","cls":"residential"},"geometry":{"type":"LineString","coordinates":[[31.337775,30.11],[31.337736,30.109894],[31.337596,30.109597],[31.337428,30.109312]]}},{"type":"Feature","properties":{"ar":"شارع الحسين بن على","en":"Al Hussein Ibn Ali Street","cls":"residential"},"geometry":{"type":"LineString","coordinates":[[31.338552,30.109126],[31.339379,30.109479],[31.340552,30.11]]}},{"type":"Feature","properties":{"ar":"شارع عبد المعطى الخيال","en":"Abd Al Moaaty Al Khayal Street","cls":"residential"},"geometry":{"type":"LineString","coordinates":[[31.339467,30.11],[31.339379,30.109479]]}},{"type":"Feature","properties":{"ar":"شارع الدكتور محمد والى","en":"Al Doctor Mohamed Wali Street","cls":"residential"},"geometry":{"type":"LineString","coordinates":[[31.340863,30.11],[31.341174,30.109479]]}},{"type":"Feature","properties":{"ar":"شارع الدكتور محمد جمعه","en":"Al Doctor Mohamed Gomaa Street","cls":"residential"},"geometry":{"type":"LineString","coordinates":[[31.34012,30.11],[31.340085,30.109793]]}},{"type":"Feature","properties":{"ar":"شارع هارون الرشيد","en":"Haroun Al Rashid Street","cls":"tertiary"},"geometry":{"type":"LineString","coordinates":[[31.332346,30.101263],[31.332424,30.101135],[31.332456,30.101009],[31.332445,30.100851],[31.332382,30.100718],[31.331639,30.099961],[31.33,30.09833]]}},{"type":"Feature","properties":{"ar":"شارع اسيوط","en":"Asyout Street","cls":"residential"},"geometry":{"type":"LineString","coordinates":[[31.337512,30.093766],[31.334089,30.09188],[31.332203,30.090763]]}},{"type":"Feature","properties":{"ar":"شارع الدليفران","en":"Al Delifran Street","cls":"residential"},"geometry":{"type":"LineString","coordinates":[[31.332203,30.090763],[31.330765,30.09]]}},{"type":"Feature","properties":{"ar":"شارع الشيخ","en":"Al Sheikh Street","cls":"residential"},"geometry":{"type":"LineString","coordinates":[[31.336067,30.095083],[31.336617,30.095625]]}},{"type":"Feature","properties":{"ar":"شارع محمد الكردي","en":"Mohamed Al Kordy Street","cls":"residential"},"geometry":{"type":"LineString","coordinates":[[31.339964,30.093098],[31.340039,30.09299],[31.341464,30.09191],[31.341552,30.091794],[31.341598,30.091691]]}},{"type":"Feature","properties":{"ar":"شارع الرياض","en":"Al Reyad Street","cls":"residential"},"geometry":{"type":"LineString","coordinates":[[31.331318,30.101743],[31.33,30.100434]]}},{"type":"Feature","properties":{"ar":"شارع خليل بن قلاوون","en":"Khalil Ibn Qalawoun Street","cls":"residential"},"geometry":{"type":"LineString","coordinates":[[31.349051,30.108673],[31.351105,30.11]]}},{"type":"Feature","properties":{"ar":"شارع سكه ناشد","en":"Sekat Nashed Street","cls":"residential"},"geometry":{"type":"LineString","coordinates":[[31.334897,30.104055],[31.335457,30.104465]]}},{"type":"Feature","properties":{"ar":"امتداد شارع ميت غمر","en":"Extension Mit Ghamr Street","cls":"residential"},"geometry":{"type":"LineString","coordinates":[[31.336844,30.09885],[31.33733,30.099472]]}},{"type":"Feature","properties":{"ar":"شارع الشهيد عادل دسوقي","en":"Al Shahid Adel Desouki Street","cls":"residential"},"geometry":{"type":"LineString","coordinates":[[31.346542,30.09141],[31.34689,30.0918]]}},{"type":"Feature","properties":{"ar":"شارع الشهيد محمد قنايه","en":"Al Shahid Mohamed Qanayah Street","cls":"residential"},"geometry":{"type":"LineString","coordinates":[[31.347008,30.090591],[31.346968,30.090823],[31.346874,30.091043],[31.34673,30.091241],[31.346641,30.09133],[31.346449,30.091472],[31.346248,30.091575],[31.346029,30.091647],[31.3458,30.091686],[31.345583,30.091691],[31.345455,30.091678],[31.345134,30.091598],[31.344936,30.091509],[31.343814,30.090878]]}},{"type":"Feature","properties":{"ar":"شارع الشيخ محمد رفعت","en":"Al Sheikh Mohamed Refaat Street","cls":"residential"},"geometry":{"type":"LineString","coordinates":[[31.331169,30.106471],[31.33228,30.107403],[31.332419,30.107478],[31.334008,30.108205],[31.33407,30.10826],[31.334827,30.109493]]}},{"type":"Feature","properties":{"ar":"شارع العروبه","en":"Al Orouba Street","cls":"trunk"},"geometry":{"type":"LineString","coordinates":[[31.345916,30.097246],[31.347532,30.098087],[31.350679,30.09987],[31.356,30.102851]]}},{"type":"Feature","properties":{"ar":"شارع العروبه","en":"Al Orouba Street","cls":"primary"},"geometry":{"type":"LineString","coordinates":[[31.338341,30.09298],[31.338469,30.092996],[31.338584,30.093039],[31.341787,30.094826],[31.341889,30.094853],[31.34195,30.094849],[31.342029,30.09481],[31.342071,30.09474]]}},{"type":"Feature","properties":{"ar":"شارع العروبه","en":"Al Orouba Street","cls":"trunk"},"geometry":{"type":"LineString","coordinates":[[31.356,30.103266],[31.346352,30.097833]]}},{"type":"Feature","properties":{"ar":"شارع احمد عبد الغفار","en":"Ahmed Abd Al Ghafar Street","cls":"residential"},"geometry":{"type":"LineString","coordinates":[[31.330282,30.109063],[31.33,30.109322]]}},{"type":"Feature","properties":{"ar":"شارع محمد نهاد فهمى","en":"Mohamed Nehad Fahmy Street","cls":"residential"},"geometry":{"type":"LineString","coordinates":[[31.345262,30.100284],[31.344804,30.099514],[31.344163,30.098648]]}},{"type":"Feature","properties":{"ar":"شارع الدكتور احمد امين","en":"Al Doctor Ahmed Amin Street","cls":"tertiary"},"geometry":{"type":"LineString","coordinates":[[31.343557,30.105394],[31.342523,30.104901],[31.339236,30.103558]]}},{"type":"Feature","properties":{"ar":"شارع امين الخولى","en":"Amin Al Khouli Street","cls":"residential"},"geometry":{"type":"LineString","coordinates":[[31.333626,30.096232],[31.33315,30.097346],[31.333084,30.09745],[31.332744,30.09768],[31.330838,30.099165]]}},{"type":"Feature","properties":{"ar":"شارع محمد على سلام","en":"Mohamed Ali Sallam Street","cls":"residential"},"geometry":{"type":"LineString","coordinates":[[31.332475,30.0966],[31.332689,30.096747],[31.332862,30.096831],[31.334106,30.097241]]}},{"type":"Feature","properties":{"ar":"شارع قمبيز","en":"Qambiz Street","cls":"residential"},"geometry":{"type":"LineString","coordinates":[[31.333584,30.098495],[31.332414,30.098122],[31.332234,30.098096],[31.331722,30.09793],[31.331626,30.097872],[31.33136,30.097613]]}},{"type":"Feature","properties":{"ar":"شارع بهجت حلمى","en":"Bahgat Helmi Street","cls":"residential"},"geometry":{"type":"LineString","coordinates":[[31.332652,30.099195],[31.331835,30.098382]]}},{"type":"Feature","properties":{"ar":"شارع سوهاج","en":"Souhag Street","cls":"residential"},"geometry":{"type":"LineString","coordinates":[[31.333411,30.098909],[31.333224,30.098848],[31.333127,30.098854],[31.33307,30.09888],[31.33,30.101208]]}},{"type":"Feature","properties":{"ar":"حارة بلبيس","en":"Belbes Alley","cls":"residential"},"geometry":{"type":"LineString","coordinates":[[31.33067,30.098997],[31.33,30.099501]]}},{"type":"Feature","properties":{"ar":"شارع عمر بن الخطاب","en":"Omar Ibn Al Khatab Street","cls":"tertiary"},"geometry":{"type":"LineString","coordinates":[[31.33432,30.096261],[31.33434,30.096175],[31.334396,30.096108],[31.337971,30.093425],[31.338029,30.093342],[31.338036,30.093221]]}},{"type":"Feature","properties":{"ar":"شارع السيد الميرغنى","en":"Al Sayed Al Marghany Street","cls":"secondary"},"geometry":{"type":"LineString","coordinates":[[31.346503,30.093031],[31.346036,30.092993],[31.345665,30.092918],[31.345134,30.092707],[31.344186,30.092209]]}},{"type":"Feature","properties":{"ar":"شارع الزهور","en":"Al Zohor Street","cls":"residential"},"geometry":{"type":"LineString","coordinates":[[31.353331,30.101353],[31.35411,30.100312],[31.354187,30.100265],[31.354234,30.100258],[31.354325,30.100286],[31.356,30.10121]]}},{"type":"Feature","properties":{"ar":"شارع الجلاء","en":"Al Gala' Street","cls":"residential"},"geometry":{"type":"LineString","coordinates":[[31.35384,30.100674],[31.356,30.101879]]}},{"type":"Feature","properties":{"ar":"شارع الجلاء","en":"Al Gala' Street","cls":"residential"},"geometry":{"type":"LineString","coordinates":[[31.356,30.102003],[31.353791,30.100745]]}},{"type":"Feature","properties":{"ar":"شارع محمد احمد العفيفى","en":"Mohamed Ahmed Al Afifi Street","cls":"residential"},"geometry":{"type":"LineString","coordinates":[[31.347523,30.109526],[31.348256,30.11]]}},{"type":"Feature","properties":{"ar":"شارع القناطر","en":"Al Qanater Street","cls":"residential"},"geometry":{"type":"LineString","coordinates":[[31.330154,30.096072],[31.331284,30.097192]]}},{"type":"Feature","properties":{"ar":"شارع الدلتا","en":"Al Delta Street","cls":"residential"},"geometry":{"type":"LineString","coordinates":[[31.33,30.096694],[31.330634,30.097313],[31.330686,30.097302],[31.330832,30.097442]]}},{"type":"Feature","properties":{"ar":"شارع على فخرى بك","en":"Ali Fakhry Bek Street","cls":"residential"},"geometry":{"type":"LineString","coordinates":[[31.331611,30.104043],[31.331953,30.103444]]}},{"type":"Feature","properties":{"ar":"شارع الفسطاط","en":"Al Fostat Street","cls":"residential"},"geometry":{"type":"LineString","coordinates":[[31.331529,30.096656],[31.332239,30.095794]]}},{"type":"Feature","properties":{"ar":"كوبري الجلاء","en":"Al Gala' Bridge","cls":"trunk"},"geometry":{"type":"LineString","coordinates":[[31.346352,30.097833],[31.344532,30.096678],[31.339604,30.093886],[31.339071,30.093613],[31.33793,30.093101]]}},{"type":"Feature","properties":{"ar":"شارع جلال الدين الدسوقي","en":"Galal Al Din Al Desouki Street","cls":"residential"},"geometry":{"type":"LineString","coordinates":[[31.343099,30.09131],[31.343172,30.091303],[31.343274,30.091264],[31.343518,30.091067],[31.343692,30.09095],[31.345235,30.090047]]}},{"type":"Feature","properties":{"ar":"شارع اللواء عمر عبد الأخر","en":"Al Lowa' Omar Abd Al Akhr Street","cls":"residential"},"geometry":{"type":"LineString","coordinates":[[31.333741,30.090759],[31.333294,30.09137],[31.333233,30.091432],[31.33,30.093912]]}},{"type":"Feature","properties":{"ar":"شارع والى الدين يكن","en":"Wali Al Din Yakan Street","cls":"residential"},"geometry":{"type":"LineString","coordinates":[[31.347605,30.108806],[31.345598,30.107671]]}},{"type":"Feature","properties":{"ar":"شارع ابو بكر الصديق","en":"Abou Bakr Al Sedik Street","cls":"primary"},"geometry":{"type":"LineString","coordinates":[[31.347794,30.091859],[31.348008,30.09165],[31.348127,30.091487],[31.348402,30.090945],[31.348479,30.090709],[31.348553,30.090285],[31.348582,30.09]]}},{"type":"Feature","properties":{"ar":"شارع النزهه","en":"Al Nozha Street","cls":"primary"},"geometry":{"type":"LineString","coordinates":[[31.341659,30.091551],[31.341465,30.090541],[31.341387,30.09]]}},{"type":"Feature","properties":{"ar":"شارع ابو بكر الصديق","en":"Abou Bakr Al Sedik Street","cls":"primary"},"geometry":{"type":"LineString","coordinates":[[31.331835,30.101739],[31.331748,30.101894],[31.331628,30.102],[31.33,30.102977]]}},{"type":"Feature","properties":{"ar":"شارع حسنى العشماوى","en":"Hosny Al Ashamwy Street","cls":"residential"},"geometry":{"type":"LineString","coordinates":[[31.337139,30.11],[31.337049,30.109812],[31.336568,30.108994]]}},{"type":"Feature","properties":{"ar":"شارع شمس الدين الكوفى","en":"Shams Al Din Al Koufi Street","cls":"residential"},"geometry":{"type":"LineString","coordinates":[[31.335004,30.109713],[31.335175,30.11]]}},{"type":"Feature","properties":{"ar":"شارع السيد الميرغنى","en":"Al Sayed Al Marghany Street","cls":"secondary"},"geometry":{"type":"LineString","coordinates":[[31.340643,30.09],[31.341137,30.090272],[31.341217,30.090283],[31.341269,30.090268],[31.34135,30.090203],[31.341409,30.090117]]}},{"type":"Feature","properties":{"ar":"شارع المنتزه","en":"Al Montazah Street","cls":"tertiary"},"geometry":{"type":"LineString","coordinates":[[31.338049,30.105577],[31.338183,30.10646],[31.338301,30.107528],[31.338319,30.107584],[31.338355,30.107634],[31.338467,30.107699],[31.338762,30.107726]]}},{"type":"Feature","properties":{"ar":"شارع عمار بن ياسر","en":"Ammar Ibn Yaser Street","cls":"tertiary"},"geometry":{"type":"LineString","coordinates":[[31.352292,30.11],[31.35,30.108481],[31.349006,30.107852],[31.34895,30.10783],[31.348848,30.107821],[31.348797,30.107831],[31.34871,30.107878]]}},{"type":"Feature","properties":{"ar":"شارع احمد فؤاد","en":"Ahmed Fouad Street","cls":"tertiary"},"geometry":{"type":"LineString","coordinates":[[31.348564,30.107575],[31.346221,30.106248],[31.345062,30.105848],[31.34408,30.105562],[31.343878,30.105491]]}},{"type":"Feature","properties":{"ar":"شارع محمد شفيق","en":"Mohamed Shafik Street","cls":"tertiary"},"geometry":{"type":"LineString","coordinates":[[31.337953,30.105368],[31.338144,30.105179],[31.338214,30.105087],[31.340123,30.101882],[31.340203,30.101713],[31.340225,30.101533]]}},{"type":"Feature","properties":{"ar":"شارع نخله المطيعى","en":"Nakhla Al Moteaay Street","cls":"tertiary"},"geometry":{"type":"LineString","coordinates":[[31.340209,30.101505],[31.340145,30.101444],[31.340067,30.101398],[31.339977,30.10137],[31.334816,30.100508],[31.334453,30.100425],[31.334234,30.100409],[31.334015,30.100425]]}},{"type":"Feature","properties":{"ar":"شارع محمد شفيق","en":"Mohamed Shafik Street","cls":"tertiary"},"geometry":{"type":"LineString","coordinates":[[31.340384,30.101568],[31.340327,30.10175],[31.340281,30.101836],[31.338178,30.105316],[31.338065,30.105542]]}},{"type":"Feature","properties":{"ar":"شارع عمار بن ياسر","en":"Ammar Ibn Yaser Street","cls":"tertiary"},"geometry":{"type":"LineString","coordinates":[[31.348904,30.1076],[31.349027,30.107742],[31.351,30.109062]]}},{"type":"Feature","properties":{"ar":"شارع الشهيد فريد سميكه","en":"Al Shahid Farid Samikuh Street","cls":"primary"},"geometry":{"type":"LineString","coordinates":[[31.350566,30.105211],[31.350454,30.105488],[31.350321,30.10568],[31.348904,30.1076],[31.347921,30.108994]]}},{"type":"Feature","properties":{"ar":"شارع محمد عدلى كفافى","en":"Mohamed Adly Kafafi Street","cls":"residential"},"geometry":{"type":"LineString","coordinates":[[31.347178,30.10276],[31.347082,30.102745],[31.346985,30.102753],[31.346894,30.102781],[31.343865,30.104202],[31.343819,30.104228],[31.343756,30.10431]]}},{"type":"Feature","properties":{"ar":"كوبري الجلاء","en":"Al Gala' Bridge","cls":"trunk"},"geometry":{"type":"LineString","coordinates":[[31.338341,30.09298],[31.338654,30.093198],[31.338946,30.093377],[31.344297,30.096381],[31.345916,30.097246]]}},{"type":"Feature","properties":{"ar":"شارع عمر بن الخطاب","en":"Omar Ibn Al Khatab Street","cls":"tertiary"},"geometry":{"type":"LineString","coordinates":[[31.338362,30.093424],[31.338261,30.093448],[31.338195,30.093483],[31.335005,30.095887],[31.334906,30.096007],[31.334861,30.096119],[31.334846,30.096414]]}},{"type":"Feature","properties":{"ar":"شارع على فتحى","en":"Ali Fathy Street","cls":"residential"},"geometry":{"type":"LineString","coordinates":[[31.330964,30.10469],[31.33141,30.103953]]}},{"type":"Feature","properties":{"ar":"شارع هيها","en":"Hehia Street","cls":"residential"},"geometry":{"type":"LineString","coordinates":[[31.338892,30.101188],[31.339075,30.100396]]}},{"type":"Feature","properties":{"ar":"شارع الزهراء","en":"Al Zahraa Street","cls":"residential"},"geometry":{"type":"LineString","coordinates":[[31.336461,30.091893],[31.337474,30.090538]]}},{"type":"Feature","properties":{"ar":"شارع الحصباء","en":"Al Hasba' Street","cls":"residential"},"geometry":{"type":"LineString","coordinates":[[31.33733,30.09045],[31.337695,30.09]]}},{"type":"Feature","properties":{"ar":"شارع محمد الصقر","en":"Mohamed Al Saqr Street","cls":"residential"},"geometry":{"type":"LineString","coordinates":[[31.333285,30.107872],[31.333205,30.10801],[31.333163,30.108182],[31.333176,30.108358],[31.333204,30.108443],[31.333281,30.108579]]}},{"type":"Feature","properties":{"ar":"شارع الشيخ نصر الدين","en":"Al Sheikh Nasr Al Din Street","cls":"residential"},"geometry":{"type":"LineString","coordinates":[[31.340019,30.090845],[31.340599,30.091403]]}},{"type":"Feature","properties":{"ar":"شارع النهضه","en":"Al Nahda Street","cls":"residential"},"geometry":{"type":"LineString","coordinates":[[31.344766,30.097916],[31.345377,30.098261],[31.345516,30.09836],[31.34564,30.098507],[31.345986,30.099124]]}},{"type":"Feature","properties":{"ar":"شارع الشيخ محمد رفعت","en":"Al Sheikh Mohamed Refaat Street","cls":"residential"},"geometry":{"type":"LineString","coordinates":[[31.334765,30.109523],[31.334046,30.108355],[31.333999,30.108302],[31.333884,30.108224],[31.332278,30.107483],[31.332174,30.107418],[31.331116,30.106519]]}},{"type":"Feature","properties":{"ar":"شارع احمد على حسين","en":"Ahmed Ali Hussein Street","cls":"residential"},"geometry":{"type":"LineString","coordinates":[[31.33,30.105502],[31.330182,30.105601],[31.331481,30.106163]]}},{"type":"Feature","properties":{"ar":"شارع الدكتور محمد على البقلى","en":"Al Doctor Mohamed Ali Al Bakly Street","cls":"residential"},"geometry":{"type":"LineString","coordinates":[[31.335013,30.106736],[31.334945,30.106761],[31.334876,30.106811],[31.334104,30.108075],[31.334008,30.108205],[31.333943,30.108257],[31.333846,30.108313],[31.330257,30.11]]}},{"type":"Feature","properties":{"ar":"شارع ابو بكر الصديق","en":"Abou Bakr Al Sedik Street","cls":"primary"},"geometry":{"type":"LineString","coordinates":[[31.335709,30.099277],[31.335723,30.099177],[31.335797,30.099093],[31.336745,30.098481],[31.337606,30.09796],[31.337648,30.097899],[31.33766,30.097795],[31.337646,30.097655],[31.337599,30.097517]]}},{"type":"Feature","properties":{"ar":"ميدان محمد شفيق","en":"Mohamed Shafiq Square","cls":"tertiary"},"geometry":{"type":"LineString","coordinates":[[31.340225,30.101533],[31.340206,30.101444],[31.340272,30.101373],[31.340342,30.101362],[31.340432,30.101408],[31.34045,30.101498],[31.340414,30.101551],[31.340314,30.101579],[31.340225,30.101533]]}},{"type":"Feature","properties":{"ar":"شارع نخله المطيعى","en":"Nakhla Al Moteaay Street","cls":"tertiary"},"geometry":{"type":"LineString","coordinates":[[31.340376,30.10137],[31.34051,30.101348],[31.342545,30.100479]]}},{"type":"Feature","properties":{"ar":"شارع نخله المطيعى","en":"Nakhla Al Moteaay Street","cls":"tertiary"},"geometry":{"type":"LineString","coordinates":[[31.342587,30.100554],[31.340552,30.101402],[31.340476,30.101459],[31.34045,30.101498]]}},{"type":"Feature","properties":{"ar":"شارع النزهه","en":"Al Nozha Street","cls":"secondary"},"geometry":{"type":"LineString","coordinates":[[31.344065,30.105407],[31.344095,30.105855],[31.345249,30.109186],[31.345513,30.11]]}},{"type":"Feature","properties":{"ar":"شارع العروبه","en":"Al Orouba Street","cls":"primary"},"geometry":{"type":"LineString","coordinates":[[31.34178,30.095472],[31.34179,30.095398],[31.341776,30.095326],[31.34174,30.095259],[31.341682,30.095208],[31.338286,30.093384],[31.338036,30.093221],[31.33793,30.093101]]}},{"type":"Feature","properties":{"ar":"شارع عثمان بن عفان","en":"Othman Ibn Affan Street","cls":"primary"},"geometry":{"type":"LineString","coordinates":[[31.350372,30.104927],[31.350347,30.10485],[31.350294,30.104763],[31.350145,30.104616],[31.348498,30.103524],[31.347841,30.103124]]}},{"type":"Feature","properties":{"ar":"شارع مراد الشريعى","en":"Mourad Al Sherai Street","cls":"residential"},"geometry":{"type":"LineString","coordinates":[[31.341399,30.106403],[31.340949,30.10571],[31.340925,30.105669],[31.34091,30.105579],[31.340938,30.105492],[31.341551,30.104504]]}},{"type":"Feature","properties":{"ar":"شارع عبد الله ابو السعود","en":"Abd Allah Abou Al Seoud Street","cls":"residential"},"geometry":{"type":"LineString","coordinates":[[31.339647,30.107252],[31.339135,30.10644],[31.339109,30.106365],[31.339042,30.10578],[31.339051,30.105668],[31.339085,30.105559],[31.339143,30.105459],[31.340033,30.103983],[31.340043,30.103928],[31.340019,30.103878]]}},{"type":"Feature","properties":{"ar":"شارع مراد الشريعى","en":"Mourad Al Sherai Street","cls":"residential"},"geometry":{"type":"LineString","coordinates":[[31.341625,30.104376],[31.342264,30.103314],[31.342336,30.103233],[31.342418,30.103182],[31.342512,30.103153],[31.343381,30.103044]]}},{"type":"Feature","properties":{"ar":"شارع الدكتور احمد امين","en":"Al Doctor Ahmed Amin Street","cls":"tertiary"},"geometry":{"type":"LineString","coordinates":[[31.339323,30.103414],[31.342605,30.104786],[31.343615,30.105268]]}},{"type":"Feature","properties":{"ar":"شارع جلال الدين الدسوقي","en":"Galal Al Din Al Desouki Street","cls":"residential"},"geometry":{"type":"LineString","coordinates":[[31.345399,30.09],[31.343631,30.091069],[31.343384,30.091261],[31.343333,30.091361],[31.343331,30.091442]]}},{"type":"Feature","properties":{"ar":"شارع الشيخ حسن منصور","en":"Al Sheikh Hassn Mansour Street","cls":"residential"},"geometry":{"type":"LineString","coordinates":[[31.33,30.108187],[31.330997,30.109016]]}},{"type":"Feature","properties":{"ar":"شارع الفي شحاته","en":"Alfi Shehata Street","cls":"residential"},"geometry":{"type":"LineString","coordinates":[[31.345188,30.09],[31.34527,30.090081]]}},{"type":"Feature","properties":{"ar":"شارع الدكتور محمد على البقلى","en":"Al Doctor Mohamed Ali Al Bakly Street","cls":"residential"},"geometry":{"type":"LineString","coordinates":[[31.330109,30.11],[31.333884,30.108224],[31.333951,30.108176],[31.334049,30.108053],[31.334399,30.107452],[31.334821,30.106787],[31.334844,30.106708],[31.334835,30.106648]]}},{"type":"Feature","properties":{"ar":"شارع عمر بن الخطاب","en":"Omar Ibn Al Khatab Street","cls":"tertiary"},"geometry":{"type":"LineString","coordinates":[[31.33474,30.096682],[31.334582,30.096834],[31.334465,30.097007],[31.333092,30.100225],[31.333105,30.100342],[31.333169,30.100413],[31.333229,30.100442],[31.333331,30.100452],[31.333615,30.100417],[31.33375,30.10042]]}},{"type":"Feature","properties":{"ar":"شارع الشيخ حسنى المرصفى","en":"Al Sheikh Hosny Al Masrfi Street","cls":"residential"},"geometry":{"type":"LineString","coordinates":[[31.340958,30.096286],[31.341413,30.096883],[31.341491,30.097019],[31.34153,30.097133],[31.341792,30.098834]]}},{"type":"Feature","properties":{"ar":"شارع الشيخ حسونه النواوى","en":"Al Sheikh Hassouna Al Nawawy Street","cls":"residential"},"geometry":{"type":"LineString","coordinates":[[31.339789,30.097082],[31.340334,30.097705],[31.340425,30.097773],[31.341112,30.098176]]}},{"type":"Feature","properties":{"ar":"شارع اسماعيل رأفت باشا","en":"Ismail Raafat Pasha Street","cls":"residential"},"geometry":{"type":"LineString","coordinates":[[31.339511,30.098225],[31.340334,30.097705],[31.34233,30.096528]]}},{"type":"Feature","properties":{"ar":"شارع الامل","en":"Al Amal Street","cls":"residential"},"geometry":{"type":"LineString","coordinates":[[31.348572,30.099087],[31.348482,30.099055],[31.348386,30.099044],[31.34829,30.099054],[31.348201,30.099086],[31.345477,30.100246],[31.345377,30.100302],[31.345262,30.100403],[31.344856,30.100913],[31.344792,30.101017],[31.344761,30.101159]]}},{"type":"Feature","properties":{"ar":"شارع النخلة","en":"Al Nakhla Street","cls":"residential"},"geometry":{"type":"LineString","coordinates":[[31.347263,30.099485],[31.346791,30.098676]]}},{"type":"Feature","properties":{"ar":"شارع النخلة","en":"Al Nakhla Street","cls":"residential"},"geometry":{"type":"LineString","coordinates":[[31.346863,30.098646],[31.347321,30.099461]]}},{"type":"Feature","properties":{"ar":"شارع عبد القوى احمد باشا","en":"Abd Al Qawi Ahmed Pasha Street","cls":"residential"},"geometry":{"type":"LineString","coordinates":[[31.341975,30.094176],[31.340097,30.093121],[31.339964,30.093098],[31.339253,30.09313],[31.339183,30.093155],[31.339155,30.093191],[31.339153,30.093256],[31.339179,30.093294],[31.340058,30.093776],[31.340163,30.093787],[31.340333,30.093695],[31.340474,30.093678]]}},{"type":"Feature","properties":{"ar":"شارع الحجاز الجانبى","en":"Side Al Hegaz Street","cls":"residential"},"geometry":{"type":"LineString","coordinates":[[31.33,30.104142],[31.330062,30.104171],[31.332532,30.105256]]}},{"type":"Feature","properties":{"ar":"شارع حسين خضر","en":"Hussein Khedr Street","cls":"residential"},"geometry":{"type":"LineString","coordinates":[[31.33233,30.108957],[31.332975,30.11]]}},{"type":"Feature","properties":{"ar":"شارع الكهف","en":"Al Kahf Street","cls":"residential"},"geometry":{"type":"LineString","coordinates":[[31.330735,30.100213],[31.331436,30.100893]]}},{"type":"Feature","properties":{"ar":"شارع العريش","en":"Al Arish Street","cls":"residential"},"geometry":{"type":"LineString","coordinates":[[31.330391,30.099789],[31.330778,30.100179]]}},{"type":"Feature","properties":{"ar":"شارع التضحيه","en":"Al Tadhya Street","cls":"residential"},"geometry":{"type":"LineString","coordinates":[[31.344738,30.103793],[31.344543,30.102544],[31.344512,30.102473],[31.344252,30.102095]]}},{"type":"Feature","properties":{"ar":"شارع الفرن","en":"Al Forn Street","cls":"residential"},"geometry":{"type":"LineString","coordinates":[[31.33,30.098644],[31.330178,30.098509]]}},{"type":"Feature","properties":{"ar":"شارع كمال رسلان","en":"Kamal Raslan Street","cls":"residential"},"geometry":{"type":"LineString","coordinates":[[31.332149,30.100481],[31.330821,30.101249],[31.33,30.101753]]}},{"type":"Feature","properties":{"ar":"شارع عبد العزيز اسماعيل","en":"Abd Al Aziz Ismail Street","cls":"residential"},"geometry":{"type":"LineString","coordinates":[[31.341666,30.100938],[31.341701,30.101045],[31.342119,30.101472],[31.342171,30.101552],[31.342227,30.101694],[31.342605,30.104652],[31.342605,30.104786],[31.342561,30.104869],[31.342523,30.104901]]}},{"type":"Feature","properties":{"ar":"شارع عبد الله ابو السعود","en":"Abd Allah Abou Al Seoud Street","cls":"residential"},"geometry":{"type":"LineString","coordinates":[[31.343159,30.10161],[31.342227,30.101694],[31.342134,30.101716],[31.341497,30.101977],[31.34138,30.102035],[31.341277,30.102111],[31.341191,30.102202],[31.340239,30.103797]]}},{"type":"Feature","properties":{"ar":"شارع مصطفى صديق الرافعى","en":"Moustafa Sedik Al Rafei Street","cls":"residential"},"geometry":{"type":"LineString","coordinates":[[31.342184,30.102124],[31.339803,30.106067]]}},{"type":"Feature","properties":{"ar":"شارع عبد اللطيف المكباتى","en":"Abd Al Latif Al Makbaty Street","cls":"residential"},"geometry":{"type":"LineString","coordinates":[[31.338183,30.10646],[31.339037,30.106376],[31.339282,30.106313],[31.342376,30.104841]]}},{"type":"Feature","properties":{"ar":"شارع عبد الله ابو السعود","en":"Abd Allah Abou Al Seoud Street","cls":"residential"},"geometry":{"type":"LineString","coordinates":[[31.340221,30.10396],[31.340155,30.103971],[31.340105,30.104011],[31.339221,30.105479],[31.339171,30.105574],[31.339145,30.105676],[31.339142,30.10578],[31.339205,30.10634],[31.339228,30.106412],[31.339733,30.107212]]}},{"type":"Feature","properties":{"ar":"شارع مستشفى هليوبوليس","en":"Mostashfa Heliopolis Street","cls":"residential"},"geometry":{"type":"LineString","coordinates":[[31.33753,30.105267],[31.337253,30.105494],[31.337033,30.105705],[31.336921,30.105861],[31.336639,30.106322],[31.336314,30.106909],[31.336325,30.106967],[31.336402,30.107041],[31.336403,30.107119]]}},{"type":"Feature","properties":{"ar":"شارع عبد الرحمن رشدى بك","en":"Abd Al Rahman Roshdi Bek Street","cls":"residential"},"geometry":{"type":"LineString","coordinates":[[31.342668,30.10605],[31.343175,30.106851],[31.344052,30.109505]]}},{"type":"Feature","properties":{"ar":"شارع احمد فهيم بيومى","en":"Ahmed Fahim Bayoumi Street","cls":"residential"},"geometry":{"type":"LineString","coordinates":[[31.345315,30.100244],[31.345435,30.100339],[31.348837,30.102259]]}},{"type":"Feature","properties":{"ar":"شارع محمد نهاد فهمى","en":"Mohamed Nehad Fahmy Street","cls":"residential"},"geometry":{"type":"LineString","coordinates":[[31.344231,30.098614],[31.344855,30.099493],[31.345315,30.100244]]}},{"type":"Feature","properties":{"ar":"شارع سعد صادق الدوينى","en":"Saad Sadek Al Daweni Street","cls":"residential"},"geometry":{"type":"LineString","coordinates":[[31.344358,30.102037],[31.344709,30.102453],[31.345874,30.103119],[31.345951,30.103224]]}},{"type":"Feature","properties":{"ar":"شارع المنتزه","en":"Al Montazah Street","cls":"tertiary"},"geometry":{"type":"LineString","coordinates":[[31.337872,30.107732],[31.337981,30.107615],[31.338004,30.107516],[31.337821,30.106195],[31.337761,30.105582]]}},{"type":"Feature","properties":{"ar":"شارع احمد على حسين","en":"Ahmed Ali Hussein Street","cls":"residential"},"geometry":{"type":"LineString","coordinates":[[31.331116,30.106519],[31.33,30.105622]]}},{"type":"Feature","properties":{"ar":"شارع الدكتور على مصطفى مشرفه","en":"Al Doctor Ali Moustafa Moshrafa Street","cls":"residential"},"geometry":{"type":"LineString","coordinates":[[31.338761,30.090229],[31.338796,30.09]]}},{"type":"Feature","properties":{"ar":"شارع محمود عزت شرف","en":"Mahmoud Ezzat Sharaf Street","cls":"residential"},"geometry":{"type":"LineString","coordinates":[[31.337445,30.094997],[31.338876,30.096427],[31.339293,30.096945]]}},{"type":"Feature","properties":{"ar":"شارع البادية","en":"Al Badyah Street","cls":"residential"},"geometry":{"type":"LineString","coordinates":[[31.338387,30.09],[31.338724,30.090214],[31.338897,30.090264],[31.339038,30.090274],[31.339774,30.09021],[31.339842,30.090192],[31.339899,30.090155],[31.339939,30.090104],[31.33996,30.090039]]}},{"type":"Feature","properties":{"ar":"شارع النزهه","en":"Al Nozha Street","cls":"primary"},"geometry":{"type":"LineString","coordinates":[[31.341821,30.091539],[31.34189,30.091596],[31.341928,30.091709],[31.342399,30.094718],[31.34246,30.094782],[31.342501,30.094804],[31.342595,30.094821],[31.342689,30.094802],[31.34339,30.094407],[31.345074,30.093369]]}},{"type":"Feature","properties":{"ar":"كوبري النزهة","en":"Al Nozha Bridge","cls":"primary"},"geometry":{"type":"LineString","coordinates":[[31.341705,30.091829],[31.341659,30.091551]]}},{"type":"Feature","properties":{"ar":"كوبري النزهة","en":"Al Nozha Bridge","cls":"primary"},"geometry":{"type":"LineString","coordinates":[[31.341821,30.091539],[31.341849,30.091794]]}},{"type":"Feature","properties":{"ar":"شارع النزهه","en":"Al Nozha Street","cls":"primary"},"geometry":{"type":"LineString","coordinates":[[31.343535,30.100669],[31.343334,30.100482],[31.343168,30.100286],[31.343022,30.100029],[31.342925,30.099779],[31.34288,30.09959],[31.342858,30.0994]]}},{"type":"Feature","properties":{"ar":"شارع ابو بكر الصديق","en":"Abou Bakr Al Sedik Street","cls":"primary"},"geometry":{"type":"LineString","coordinates":[[31.336076,30.099064],[31.338525,30.097576],[31.340556,30.096374]]}},{"type":"Feature","properties":{"ar":"شارع ابو بكر الصديق","en":"Abou Bakr Al Sedik Street","cls":"primary"},"geometry":{"type":"LineString","coordinates":[[31.340643,30.096477],[31.338015,30.098029],[31.33615,30.099175]]}},{"type":"Feature","properties":{"ar":"شارع ابو بكر الصديق","en":"Abou Bakr Al Sedik Street","cls":"trunk"},"geometry":{"type":"LineString","coordinates":[[31.348894,30.09],[31.348879,30.090028],[31.348779,30.090342],[31.348609,30.091069],[31.348473,30.091481],[31.348324,30.091784],[31.348123,30.092022],[31.347932,30.092169],[31.346711,30.092916],[31.344041,30.094476],[31.343474,30.094824],[31.34298,30.095175]]}},{"type":"Feature","properties":{"ar":"شارع ابو بكر الصديق","en":"Abou Bakr Al Sedik Street","cls":"primary"},"geometry":{"type":"LineString","coordinates":[[31.337848,30.097449],[31.338055,30.09746],[31.338254,30.097441],[31.338448,30.097398],[31.338634,30.097333],[31.340441,30.096248],[31.340653,30.096178],[31.340743,30.096169],[31.340876,30.096182]]}},{"type":"Feature","properties":{"ar":"شارع ابو بكر الصديق","en":"Abou Bakr Al Sedik Street","cls":"primary"},"geometry":{"type":"LineString","coordinates":[[31.340937,30.096301],[31.340919,30.096363],[31.340878,30.096418],[31.340758,30.096523],[31.338941,30.097569],[31.338879,30.097637],[31.338841,30.097707],[31.338825,30.097789],[31.338849,30.097907]]}},{"type":"Feature","properties":{"ar":"شارع النزهه","en":"Al Nozha Street","cls":"primary"},"geometry":{"type":"LineString","coordinates":[[31.341686,30.095662],[31.341706,30.095573],[31.341756,30.095494],[31.341935,30.09537],[31.342035,30.095268],[31.342097,30.095145],[31.342113,30.095045],[31.341604,30.091788],[31.341602,30.091658],[31.341659,30.091551]]}},{"type":"Feature","properties":{"ar":"شارع ابو بكر الصديق","en":"Abou Bakr Al Sedik Street","cls":"primary"},"geometry":{"type":"LineString","coordinates":[[31.338606,30.097894],[31.338486,30.097886],[31.338374,30.097927],[31.336844,30.09885],[31.336036,30.099361],[31.335942,30.099381],[31.335822,30.09937]]}},{"type":"Feature","properties":{"ar":"شارع النزهه","en":"Al Nozha Street","cls":"primary"},"geometry":{"type":"LineString","coordinates":[[31.34298,30.095175],[31.342857,30.095304],[31.34264,30.095664],[31.342596,30.095765],[31.342579,30.09589],[31.343074,30.099218],[31.343062,30.099314],[31.342992,30.099395]]}},{"type":"Feature","properties":{"ar":"شارع النزهه","en":"Al Nozha Street","cls":"primary"},"geometry":{"type":"LineString","coordinates":[[31.342992,30.099395],[31.343081,30.099754],[31.343182,30.099967],[31.343348,30.100208],[31.343655,30.100514]]}},{"type":"Feature","properties":{"ar":"شارع ابو بكر الصديق","en":"Abou Bakr Al Sedik Street","cls":"primary"},"geometry":{"type":"LineString","coordinates":[[31.331734,30.101631],[31.334412,30.100012],[31.335709,30.099277]]}},{"type":"Feature","properties":{"ar":"شارع ابو بكر الصديق","en":"Abou Bakr Al Sedik Street","cls":"primary"},"geometry":{"type":"LineString","coordinates":[[31.335822,30.09937],[31.33456,30.100096],[31.331835,30.101739]]}},{"type":"Feature","properties":{"ar":"كوبري الحجاز","en":"Al Hegaz Bridge","cls":"primary"},"geometry":{"type":"LineString","coordinates":[[31.33,30.102678],[31.330088,30.102623],[31.331429,30.101815]]}},{"type":"Feature","properties":{"ar":"كوبري الحجاز","en":"Al Hegaz Bridge","cls":"primary"},"geometry":{"type":"LineString","coordinates":[[31.331509,30.101931],[31.330175,30.102717],[31.33,30.102825]]}},{"type":"Feature","properties":{"ar":"شارع الشيخ على محمود","en":"Al Sheikh Ali Mahmoud Street","cls":"residential"},"geometry":{"type":"LineString","coordinates":[[31.336316,30.108835],[31.335997,30.108293],[31.335861,30.108175],[31.33144,30.106207]]}},{"type":"Feature","properties":{"ar":"شارع عمر بن الخطاب","en":"Omar Ibn Al Khatab Street","cls":"tertiary"},"geometry":{"type":"LineString","coordinates":[[31.342738,30.09],[31.342154,30.090439],[31.342103,30.090498],[31.34207,30.09057],[31.342062,30.090652],[31.34208,30.090733]]}},{"type":"Feature","properties":{"ar":"كوبرى السبع عمارات","en":"Al Sabaa Emarat Bridge","cls":"secondary"},"geometry":{"type":"LineString","coordinates":[[31.34315,30.091631],[31.340099,30.09]]}},{"type":"Feature","properties":{"ar":"كوبرى السبع عمارات","en":"Al Sabaa Emarat Bridge","cls":"secondary"},"geometry":{"type":"LineString","coordinates":[[31.340402,30.09],[31.341648,30.090697],[31.343219,30.091531]]}},{"type":"Feature","properties":{"ar":"شارع السيد الميرغنى","en":"Al Sayed Al Marghany Street","cls":"tertiary"},"geometry":{"type":"LineString","coordinates":[[31.341646,30.090254],[31.341824,30.090516],[31.342031,30.090702],[31.344262,30.09196],[31.344337,30.092034],[31.344374,30.092127]]}},{"type":"Feature","properties":{"ar":"شارع السيد الميرغنى","en":"Al Sayed Al Marghany Street","cls":"tertiary"},"geometry":{"type":"LineString","coordinates":[[31.344186,30.092209],[31.344064,30.092237],[31.343939,30.092214],[31.342092,30.091199],[31.341981,30.091196],[31.341892,30.091237],[31.34184,30.091306],[31.341808,30.091405]]}},{"type":"Feature","properties":{"ar":"شارع الشهيد اسماعيل فهمي","en":"Al Shahid Ismail Fahmy Street","cls":"residential"},"geometry":{"type":"LineString","coordinates":[[31.345618,30.091229],[31.345398,30.091185],[31.345207,30.0911],[31.345048,30.09097],[31.344525,30.090456]]}},{"type":"Feature","properties":{"ar":"شارع الشهيد جول الياس الجمال","en":"Al Shahid Goul Alyas Al Gamal Street","cls":"residential"},"geometry":{"type":"LineString","coordinates":[[31.346226,30.09],[31.346308,30.090084],[31.346402,30.090214],[31.346461,30.090359],[31.34648,30.090588]]}},{"type":"Feature","properties":{"ar":"شارع محمود عزت شرف","en":"Mahmoud Ezzat Sharaf Street","cls":"residential"},"geometry":{"type":"LineString","coordinates":[[31.336899,30.094452],[31.337445,30.094997]]}},{"type":"Feature","properties":{"ar":"شارع محمود عزت شرف","en":"Mahmoud Ezzat Sharaf Street","cls":"residential"},"geometry":{"type":"LineString","coordinates":[[31.336767,30.09432],[31.336899,30.094452]]}},{"type":"Feature","properties":{"ar":"شارع النزهه","en":"Al Nozha Street","cls":"primary"},"geometry":{"type":"LineString","coordinates":[[31.341609,30.09],[31.341687,30.090528],[31.341821,30.091539]]}},{"type":"Feature","properties":{"ar":"شارع ابو بكر الصديق","en":"Abou Bakr Al Sedik Street","cls":"primary"},"geometry":{"type":"LineString","coordinates":[[31.343948,30.094183],[31.345553,30.093246],[31.347028,30.092351],[31.347631,30.091975],[31.347794,30.091859]]}},{"type":"Feature","properties":{"ar":"شارع أبو بكر الصديق","en":"Abou Bakr Al Sedik Street","cls":"primary"},"geometry":{"type":"LineString","coordinates":[[31.343989,30.094304],[31.343463,30.094612],[31.343195,30.0948],[31.342984,30.094991],[31.342724,30.09528],[31.342495,30.095451],[31.34181,30.095807],[31.340937,30.096301]]}},{"type":"Feature","properties":{"ar":"شارع العروبه","en":"Al Orouba Street","cls":"trunk_link"},"geometry":{"type":"LineString","coordinates":[[31.34298,30.095175],[31.342932,30.095275],[31.342939,30.095379],[31.342987,30.095476],[31.343069,30.095555],[31.345461,30.096914],[31.345767,30.097107],[31.345916,30.097246]]}},{"type":"Feature","properties":{"ar":"شارع العروبه","en":"Al Orouba Street","cls":"trunk_link"},"geometry":{"type":"LineString","coordinates":[[31.346352,30.097833],[31.345958,30.09766],[31.345475,30.097402],[31.342896,30.0959],[31.342822,30.095876],[31.342743,30.095875],[31.342666,30.095898],[31.342585,30.095952]]}},{"type":"Feature","properties":{"ar":"شارع ابو بكر الصديق","en":"Abou Bakr Al Sedik Street","cls":"primary"},"geometry":{"type":"LineString","coordinates":[[31.340876,30.096182],[31.341686,30.095662],[31.342567,30.095125]]}},{"type":"Feature","properties":{"ar":"ميدان تريومف","en":"Triumph Square","cls":"tertiary"},"geometry":{"type":"LineString","coordinates":[[31.343081,30.099754],[31.343272,30.099771],[31.343448,30.099839],[31.343591,30.099951],[31.343644,30.100017],[31.343712,30.100167],[31.343727,30.10028],[31.343713,30.100394],[31.343655,30.100514]]}},{"type":"Feature","properties":{"ar":"كوبرى ميدان الحجاز","en":"Medan Al Hegaz Bridge","cls":"primary"},"geometry":{"type":"LineString","coordinates":[[31.346859,30.11],[31.347578,30.109015],[31.347607,30.108948],[31.347617,30.108877],[31.347605,30.108806]]}},{"type":"Feature","properties":{"ar":"كوبرى ميدان الحجاز","en":"Medan Al Hegaz Bridge","cls":"primary"},"geometry":{"type":"LineString","coordinates":[[31.347921,30.108994],[31.347786,30.109037],[31.347688,30.10913],[31.347035,30.11]]}},{"type":"Feature","properties":{"ar":"كوبرى السبع عمارات","en":"Al Sabaa Emarat Bridge","cls":"secondary"},"geometry":{"type":"LineString","coordinates":[[31.344186,30.092209],[31.34315,30.091631]]}},{"type":"Feature","properties":{"ar":"كوبرى السبع عمارات","en":"Al Sabaa Emarat Bridge","cls":"secondary"},"geometry":{"type":"LineString","coordinates":[[31.343219,30.091531],[31.344374,30.092127]]}},{"type":"Feature","properties":{"ar":"كوبري النزهة","en":"Al Nozha Bridge","cls":"primary"},"geometry":{"type":"LineString","coordinates":[[31.342858,30.0994],[31.34282,30.099144]]}},{"type":"Feature","properties":{"ar":"كوبري النزهة","en":"Al Nozha Bridge","cls":"primary"},"geometry":{"type":"LineString","coordinates":[[31.341849,30.091794],[31.342955,30.099134]]}},{"type":"Feature","properties":{"ar":"كوبري النزهة","en":"Al Nozha Bridge","cls":"primary"},"geometry":{"type":"LineString","coordinates":[[31.34282,30.099144],[31.341705,30.091829]]}},{"type":"Feature","properties":{"ar":"شارع ابو بكر الصديق","en":"Abou Bakr Al Sedik Street","cls":"primary"},"geometry":{"type":"LineString","coordinates":[[31.33615,30.099175],[31.335822,30.09937]]}},{"type":"Feature","properties":{"ar":"شارع ابو بكر الصديق","en":"Abou Bakr Al Sedik Street","cls":"primary"},"geometry":{"type":"LineString","coordinates":[[31.340556,30.096374],[31.340876,30.096182]]}},{"type":"Feature","properties":{"ar":"شارع ابو بكر الصديق","en":"Abou Bakr Al Sedik Street","cls":"primary"},"geometry":{"type":"LineString","coordinates":[[31.331429,30.101815],[31.331734,30.101631]]}},{"type":"Feature","properties":{"ar":"شارع ابو بكر الصديق","en":"Abou Bakr Al Sedik Street","cls":"primary"},"geometry":{"type":"LineString","coordinates":[[31.331835,30.101739],[31.331509,30.101931]]}},{"type":"Feature","properties":{"ar":"شارع ابو بكر الصديق","en":"Abou Bakr Al Sedik Street","cls":"primary"},"geometry":{"type":"LineString","coordinates":[[31.335709,30.099277],[31.336076,30.099064]]}},{"type":"Feature","properties":{"ar":"شارع ابو بكر الصديق","en":"Abou Bakr Al Sedik Street","cls":"primary"},"geometry":{"type":"LineString","coordinates":[[31.340937,30.096301],[31.340643,30.096477]]}},{"type":"Feature","properties":{"ar":"شارع ابو بكر الصديق","en":"Abou Bakr Al Sedik Street","cls":"primary"},"geometry":{"type":"LineString","coordinates":[[31.342567,30.095125],[31.342978,30.094804],[31.343269,30.094599],[31.343948,30.094183]]}},{"type":"Feature","properties":{"ar":"شارع عبد العزيز فهمى","en":"Abd Al Aziz Fahmy Street","cls":"secondary"},"geometry":{"type":"LineString","coordinates":[[31.338178,30.107862],[31.338476,30.107815],[31.338762,30.107726],[31.338886,30.107669],[31.339647,30.107252],[31.341256,30.106466],[31.343036,30.105644],[31.346189,30.104153],[31.347765,30.103358],[31.347807,30.103283],[31.347841,30.103124]]}},{"type":"Feature","properties":{"ar":"شارع عبد العزيز فهمى","en":"Abd Al Aziz Fahmy Street","cls":"secondary"},"geometry":{"type":"LineString","coordinates":[[31.341329,30.106674],[31.340037,30.107277],[31.33901,30.10787],[31.338928,30.107921],[31.338887,30.107975],[31.338864,30.108036],[31.338863,30.1081],[31.338884,30.108162]]}},{"type":"Feature","properties":{"ar":"شارع الشهيد فريد سميكه","en":"Al Shahid Farid Samikuh Street","cls":"primary"},"geometry":{"type":"LineString","coordinates":[[31.347921,30.108994],[31.347177,30.11]]}},{"type":"Feature","properties":{"ar":"شارع عثمان بن عفان","en":"Othman Ibn Affan Street","cls":"secondary"},"geometry":{"type":"LineString","coordinates":[[31.342378,30.09982],[31.342468,30.099857],[31.342565,30.099874],[31.342664,30.099872],[31.34276,30.099851]]}},{"type":"Feature","properties":{"ar":"شارع عثمان بن عفان","en":"Othman Ibn Affan Street","cls":"primary"},"geometry":{"type":"LineString","coordinates":[[31.344813,30.101427],[31.344397,30.101207],[31.343982,30.100963],[31.343535,30.100669]]}},{"type":"Feature","properties":{"ar":"شارع النزهه","en":"Al Nozha Street","cls":"secondary"},"geometry":{"type":"LineString","coordinates":[[31.343148,30.101537],[31.343048,30.101039],[31.342922,30.100787]]}},{"type":"Feature","properties":{"ar":"شارع النزهه","en":"Al Nozha Street","cls":"secondary"},"geometry":{"type":"LineString","coordinates":[[31.343693,30.105066],[31.34369,30.104838],[31.343381,30.103044],[31.343148,30.101537]]}},{"type":"Feature","properties":{"ar":"شارع السيد الميرغنى","en":"Al Sayed Al Marghany Street","cls":"secondary"},"geometry":{"type":"LineString","coordinates":[[31.341053,30.090626],[31.339885,30.09]]}},{"type":"Feature","properties":{"ar":"شارع عبد العزيز فهمى","en":"Abd Al Aziz Fahmy Street","cls":"secondary"},"geometry":{"type":"LineString","coordinates":[[31.348498,30.103524],[31.348151,30.103542],[31.347952,30.103577]]}},{"type":"Feature","properties":{"ar":"ممر الجمال","en":"Al Gammal Passage","cls":"residential"},"geometry":{"type":"LineString","coordinates":[[31.330002,30.095873],[31.33,30.09587]]}},{"type":"Feature","properties":{"ar":"شارع عمار بن ياسر","en":"Ammar Ibn Yaser Street","cls":"tertiary"},"geometry":{"type":"LineString","coordinates":[[31.351,30.109062],[31.352423,30.11]]}},{"type":"Feature","properties":{"ar":"شارع المنتزه","en":"Al Montazah Street","cls":"tertiary"},"geometry":{"type":"LineString","coordinates":[[31.338932,30.108424],[31.338763,30.108411],[31.338655,30.108441],[31.33853,30.108528],[31.338478,30.108606],[31.338467,30.108649],[31.33861,30.109458],[31.338696,30.11]]}},{"type":"Feature","properties":{"ar":"شارع الشهيد محمد قنايه","en":"Al Shahid Mohamed Qanayah Street","cls":"residential"},"geometry":{"type":"LineString","coordinates":[[31.347008,30.090591],[31.34697,30.090281],[31.346925,30.090137],[31.346858,30.09]]}},{"type":"Feature","properties":{"ar":"شارع الشهيد محمد قنايه","en":"Al Shahid Mohamed Qanayah Street","cls":"residential"},"geometry":{"type":"LineString","coordinates":[[31.346933,30.09],[31.346981,30.090083],[31.347036,30.090226],[31.347091,30.090545]]}},{"type":"Feature","properties":{"ar":"شارع الشهيد كمال الفسخاني","en":"Al Shahid Kamal Al Faskhany Street","cls":"residential"},"geometry":{"type":"LineString","coordinates":[[31.347091,30.090545],[31.347139,30.090568],[31.34753,30.090597],[31.347576,30.090624],[31.347613,30.090699],[31.347562,30.090963],[31.347496,30.091143],[31.347359,30.091401],[31.347244,30.091561],[31.347077,30.091739],[31.346877,30.091898],[31.346577,30.092071],[31.346335,30.092163],[31.34584,30.09227],[31.345725,30.092313]]}},{"type":"Feature","properties":{"ar":"شارع الشهيد عادل دسوقي","en":"Al Shahid Adel Desouki Street","cls":"residential"},"geometry":{"type":"LineString","coordinates":[[31.346947,30.091843],[31.347192,30.092099]]}},{"type":"Feature","properties":{"ar":"شارع حسن محمد علام","en":"Hassn Mohamed Alam Street","cls":"residential"},"geometry":{"type":"LineString","coordinates":[[31.3406,30.090384],[31.340019,30.090845]]}},{"type":"Feature","properties":{"ar":"شارع محمد رمزى بك","en":"Mohamed Ramzy Bek Street","cls":"residential"},"geometry":{"type":"LineString","coordinates":[[31.336568,30.099986],[31.33551,30.099833],[31.335033,30.099824]]}},{"type":"Feature","properties":{"ar":"كوبري النزهة","en":"Al Nozha Bridge","cls":"primary"},"geometry":{"type":"LineString","coordinates":[[31.342955,30.099134],[31.342992,30.099395]]}},{"type":"Feature","properties":{"ar":"شارع الشهيد كمال الفسخاني","en":"Al Shahid Kamal Al Faskhany Street","cls":"residential"},"geometry":{"type":"LineString","coordinates":[[31.347511,30.090693],[31.347458,30.090663],[31.347075,30.090627],[31.347008,30.090591]]}},{"type":"Feature","properties":{"ar":"شارع جلال الدين الدسوقي","en":"Galal Al Din Al Desouki Street","cls":"residential"},"geometry":{"type":"LineString","coordinates":[[31.345235,30.090047],[31.345305,30.09]]}},{"type":"Feature","properties":{"ar":"شارع أبو بكر الصديق","en":"Abou Bakr Al Sedik Street","cls":"primary"},"geometry":{"type":"LineString","coordinates":[[31.347892,30.091954],[31.347699,30.092085],[31.346756,30.092662],[31.343989,30.094304]]}},{"type":"Feature","properties":{"ar":"شارع أبو بكر الصديق","en":"Abou Bakr Al Sedik Street","cls":"primary"},"geometry":{"type":"LineString","coordinates":[[31.348628,30.091],[31.348482,30.091149],[31.348343,30.091327],[31.348086,30.091752],[31.347892,30.091954]]}}]}