{"type":"FeatureCollection","features":[{"type":"Feature","properties":{"id":"NZ-001","id_ar":"نز-٠٠١","street_en":"Al Nozha Street","street_ar":"شارع النزهه","booked_en":"Nile Bank – ATM & branch","booked_ar":"بنك النيل – فرع وصراف آلي"},"geometry":{"type":"Polygon","coordinates":[[[31.343871,30.104685],[31.343875,30.104712],[31.343899,30.104709],[31.343895,30.104683],[31.343892,30.104663],[31.343868,30.104665],[31.343871,30.104685]]]}},{"type":"Feature","properties":{"id":"NZ-002","id_ar":"نز-٠٠٢","street_en":"Al Nozha Street","street_ar":"شارع النزهه","booked_en":"Nile Bank – ATM & branch","booked_ar":"بنك النيل – فرع وصراف آلي"},"geometry":{"type":"Polygon","coordinates":[[[31.343883,30.104764],[31.343907,30.104761],[31.3439,30.104715],[31.343876,30.104717],[31.343883,30.104764]]]}},{"type":"Feature","properties":{"id":"NZ-003","id_ar":"نز-٠٠٣","street_en":"Al Nozha Street","street_ar":"شارع النزهه","booked_en":"Nile Bank – ATM & branch","booked_ar":"بنك النيل – فرع وصراف آلي"},"geometry":{"type":"Polygon","coordinates":[[[31.343891,30.104816],[31.343915,30.104813],[31.343908,30.104767],[31.343884,30.104769],[31.343891,30.104816]]]}},{"type":"Feature","properties":{"id":"NZ-004","id_ar":"نز-٠٠٤","street_en":"Al Nozha Street","street_ar":"شارع النزهه","booked_en":"Nile Bank – ATM & branch","booked_ar":"بنك النيل – فرع وصراف آلي"},"geometry":{"type":"Polygon","coordinates":[[[31.343893,30.104828],[31.343901,30.104868],[31.343924,30.104865],[31.343917,30.104825],[31.343916,30.104819],[31.343892,30.104821],[31.343893,30.104828]]]}},{"type":"Feature","properties":{"id":"NZ-005","id_ar":"نز-٠٠٥","street_en":"Al Nozha Street","street_ar":"شارع النزهه","booked_en":"Tech Hub Offices","booked_ar":"مكاتب تك هب"},"geometry":{"type":"Polygon","coordinates":[[[31.343492,30.104031],[31.343485,30.103989],[31.343462,30.103992],[31.343469,30.104034],[31.34347,30.104039],[31.343493,30.104036],[31.343492,30.104031]]]}},{"type":"Feature","properties":{"id":"NZ-006","id_ar":"نز-٠٠٦","street_en":"Al Nozha Street","street_ar":"شارع النزهه","booked_en":"Resident – Building 14","booked_ar":"ساكن – عقار ١٤"},"geometry":{"type":"Polygon","coordinates":[[[31.34348,30.103956],[31.343476,30.103937],[31.343453,30.10394],[31.343456,30.103959],[31.343461,30.103987],[31.343484,30.103984],[31.34348,30.103956]]]}},{"type":"Feature","properties":{"id":"NZ-007","id_ar":"نز-٠٠٧","street_en":"Al Nozha Street","street_ar":"شارع النزهه","booked_en":"Al Salam Supermarket","booked_ar":"سوبرماركت السلام"},"geometry":{"type":"Polygon","coordinates":[[[31.343467,30.103885],[31.343444,30.103888],[31.343452,30.103935],[31.343475,30.103932],[31.343467,30.103885]]]}},{"type":"Feature","properties":{"id":"NZ-008","id_ar":"نز-٠٠٨","street_en":"Al Nozha Street","street_ar":"شارع النزهه","booked_en":"Al Salam Supermarket","booked_ar":"سوبرماركت السلام"},"geometry":{"type":"Polygon","coordinates":[[[31.343458,30.103834],[31.343435,30.103837],[31.343443,30.103883],[31.343466,30.10388],[31.343458,30.103834]]]}},{"type":"Feature","properties":{"id":"NZ-009","id_ar":"نز-٠٠٩","street_en":"Al Nozha Street","street_ar":"شارع النزهه","booked_en":"Resident – Building 8","booked_ar":"ساكن – عقار ٨"},"geometry":{"type":"Polygon","coordinates":[[[31.343111,30.098925],[31.343134,30.098922],[31.343128,30.098875],[31.343104,30.098878],[31.343111,30.098925]]]}},{"type":"Feature","properties":{"id":"NZ-010","id_ar":"نز-٠١٠","street_en":"Al Nozha Street","street_ar":"شارع النزهه","booked_en":"Resident – Building 8","booked_ar":"ساكن – عقار ٨"},"geometry":{"type":"Polygon","coordinates":[[[31.343118,30.098977],[31.343142,30.098974],[31.343135,30.098927],[31.343111,30.09893],[31.343118,30.098977]]]}},{"type":"Feature","properties":{"id":"NZ-011","id_ar":"نز-٠١١","street_en":"Al Nozha Street","street_ar":"شارع النزهه","booked_en":"Resident – Building 8","booked_ar":"ساكن – عقار ٨"},"geometry":{"type":"Polygon","coordinates":[[[31.343126,30.099029],[31.343149,30.099026],[31.343143,30.098979],[31.343119,30.098982],[31.343126,30.099029]]]}},{"type":"Feature","properties":{"id":"NZ-012","id_ar":"نز-٠١٢","street_en":"Al Nozha Street","street_ar":"شارع النزهه","booked_en":"Cairo Dental Center","booked_ar":"مركز القاهرة لطب الأسنان"},"geometry":{"type":"Polygon","coordinates":[[[31.343133,30.099081],[31.343157,30.099078],[31.34315,30.099031],[31.343127,30.099034],[31.343133,30.099081]]]}},{"type":"Feature","properties":{"id":"NZ-013","id_ar":"نز-٠١٣","street_en":"Al Nozha Street","street_ar":"شارع النزهه","booked_en":"Cairo Dental Center","booked_ar":"مركز القاهرة لطب الأسنان"},"geometry":{"type":"Polygon","coordinates":[[[31.343141,30.099133],[31.343164,30.09913],[31.343158,30.099083],[31.343134,30.099086],[31.343141,30.099133]]]}},{"type":"Feature","properties":{"id":"NZ-014","id_ar":"نز-٠١٤","street_en":"Al Nozha Street","street_ar":"شارع النزهه","booked_en":"Cairo Dental Center","booked_ar":"مركز القاهرة لطب الأسنان"},"geometry":{"type":"Polygon","coordinates":[[[31.343148,30.099185],[31.343172,30.099182],[31.343165,30.099135],[31.343142,30.099138],[31.343148,30.099185]]]}},{"type":"Feature","properties":{"id":"NZ-015","id_ar":"نز-٠١٥","street_en":"Al Nozha Street","street_ar":"شارع النزهه","booked_en":"Misr Insurance – Heliopolis branch","booked_ar":"مصر للتأمين – فرع مصر الجديدة"},"geometry":{"type":"Polygon","coordinates":[[[31.343152,30.099209],[31.343152,30.099216],[31.343153,30.099236],[31.343177,30.099235],[31.343176,30.099215],[31.343176,30.099207],[31.343173,30.099188],[31.343149,30.09919],[31.343152,30.099209]]]}},{"type":"Feature","properties":{"id":"NZ-016","id_ar":"نز-٠١٦","street_en":"Al Nozha Street","street_ar":"شارع النزهه","booked_en":"Misr Insurance – Heliopolis branch","booked_ar":"مصر للتأمين – فرع مصر الجديدة"},"geometry":{"type":"Polygon","coordinates":[[[31.343154,30.099264],[31.343154,30.099271],[31.343153,30.099277],[31.343152,30.099284],[31.343151,30.099285],[31.343175,30.09929],[31.343175,30.099288],[31.343177,30.09928],[31.343178,30.099272],[31.343178,30.099264],[31.343177,30.099241],[31.343153,30.099241],[31.343154,30.099264]]]}},{"type":"Feature","properties":{"id":"NZ-017","id_ar":"نز-٠١٧","street_en":"Abd Al Aziz Fahmy Street","street_ar":"شارع عبد العزيز فهمى","booked_en":"Delta Logistics","booked_ar":"دلتا للخدمات اللوجستية"},"geometry":{"type":"Polygon","coordinates":[[[31.342258,30.105944],[31.342281,30.105934],[31.342269,30.105915],[31.342246,30.105926],[31.342222,30.105938],[31.342233,30.105956],[31.342258,30.105944]]]}},{"type":"Feature","properties":{"id":"NZ-018","id_ar":"نز-٠١٨","street_en":"Abd Al Aziz Fahmy Street","street_ar":"شارع عبد العزيز فهمى","booked_en":"Dr. Hany Clinic","booked_ar":"عيادة د. هاني"},"geometry":{"type":"Polygon","coordinates":[[[31.342334,30.105909],[31.342322,30.105891],[31.342275,30.105913],[31.342286,30.105931],[31.342334,30.105909]]]}},{"type":"Feature","properties":{"id":"NZ-019","id_ar":"نز-٠١٩","street_en":"Abd Al Aziz Fahmy Street","street_ar":"شارع عبد العزيز فهمى","booked_en":"Dr. Hany Clinic","booked_ar":"عيادة د. هاني"},"geometry":{"type":"Polygon","coordinates":[[[31.342387,30.105884],[31.342375,30.105866],[31.342328,30.105888],[31.342339,30.105906],[31.342387,30.105884]]]}},{"type":"Feature","properties":{"id":"NZ-020","id_ar":"نز-٠٢٠","street_en":"Abd Al Aziz Fahmy Street","street_ar":"شارع عبد العزيز فهمى","booked_en":"Dr. Hany Clinic","booked_ar":"عيادة د. هاني"},"geometry":{"type":"Polygon","coordinates":[[[31.34244,30.105859],[31.342428,30.105841],[31.342381,30.105863],[31.342392,30.105881],[31.34244,30.105859]]]}},{"type":"Feature","properties":{"id":"NZ-021","id_ar":"نز-٠٢١","street_en":"Abd Al Aziz Fahmy Street","street_ar":"شارع عبد العزيز فهمى","booked_en":"Dr. Hany Clinic","booked_ar":"عيادة د. هاني"},"geometry":{"type":"Polygon","coordinates":[[[31.342492,30.105835],[31.342493,30.105834],[31.342481,30.105816],[31.34248,30.105817],[31.342434,30.105838],[31.342445,30.105857],[31.342492,30.105835]]]}},{"type":"Feature","properties":{"id":"NZ-022","id_ar":"نز-٠٢٢","street_en":"Abd Al Aziz Fahmy Street","street_ar":"شارع عبد العزيز فهمى","booked_en":"Resident – Building 8","booked_ar":"ساكن – عقار ٨"},"geometry":{"type":"Polygon","coordinates":[[[31.342546,30.10581],[31.342535,30.105791],[31.342487,30.105813],[31.342498,30.105832],[31.342546,30.10581]]]}},{"type":"Feature","properties":{"id":"NZ-023","id_ar":"نز-٠٢٣","street_en":"Abd Al Aziz Fahmy Street","street_ar":"شارع عبد العزيز فهمى","booked_en":"Resident – Building 8","booked_ar":"ساكن – عقار ٨"},"geometry":{"type":"Polygon","coordinates":[[[31.342599,30.105785],[31.342588,30.105766],[31.34254,30.105789],[31.342551,30.105807],[31.342599,30.105785]]]}},{"type":"Feature","properties":{"id":"NZ-024","id_ar":"نز-٠٢٤","street_en":"Abd Al Aziz Fahmy Street","street_ar":"شارع عبد العزيز فهمى","booked_en":"Resident – Building 8","booked_ar":"ساكن – عقار ٨"},"geometry":{"type":"Polygon","coordinates":[[[31.342652,30.10576],[31.342641,30.105742],[31.342593,30.105764],[31.342604,30.105782],[31.342652,30.10576]]]}},{"type":"Feature","properties":{"id":"NZ-025","id_ar":"نز-٠٢٥","street_en":"Abd Al Aziz Fahmy Street","street_ar":"شارع عبد العزيز فهمى","booked_en":"Tech Hub Offices","booked_ar":"مكاتب تك هب"},"geometry":{"type":"Polygon","coordinates":[[[31.34669,30.103846],[31.346678,30.103828],[31.346631,30.103851],[31.346643,30.103869],[31.34669,30.103846]]]}},{"type":"Feature","properties":{"id":"NZ-026","id_ar":"نز-٠٢٦","street_en":"Abd Al Aziz Fahmy Street","street_ar":"شارع عبد العزيز فهمى","booked_en":"Tech Hub Offices","booked_ar":"مكاتب تك هب"},"geometry":{"type":"Polygon","coordinates":[[[31.346742,30.10382],[31.34673,30.103802],[31.346683,30.103825],[31.346695,30.103843],[31.346742,30.10382]]]}},{"type":"Feature","properties":{"id":"NZ-027","id_ar":"نز-٠٢٧","street_en":"Abd Al Aziz Fahmy Street","street_ar":"شارع عبد العزيز فهمى","booked_en":"Delta Logistics","booked_ar":"دلتا للخدمات اللوجستية"},"geometry":{"type":"Polygon","coordinates":[[[31.346792,30.103795],[31.346794,30.103794],[31.346782,30.103776],[31.346781,30.103777],[31.346735,30.103799],[31.346747,30.103817],[31.346792,30.103795]]]}},{"type":"Feature","properties":{"id":"NZ-028","id_ar":"نز-٠٢٨","street_en":"Abd Al Aziz Fahmy Street","street_ar":"شارع عبد العزيز فهمى","booked_en":"Delta Logistics","booked_ar":"دلتا للخدمات اللوجستية"},"geometry":{"type":"Polygon","coordinates":[[[31.346846,30.103768],[31.346834,30.10375],[31.346788,30.103773],[31.346799,30.103791],[31.346846,30.103768]]]}},{"type":"Feature","properties":{"id":"NZ-029","id_ar":"نز-٠٢٩","street_en":"Abd Al Aziz Fahmy Street","street_ar":"شارع عبد العزيز فهمى","booked_en":"Delta Logistics","booked_ar":"دلتا للخدمات اللوجستية"},"geometry":{"type":"Polygon","coordinates":[[[31.346899,30.103742],[31.346887,30.103724],[31.34684,30.103747],[31.346852,30.103765],[31.346899,30.103742]]]}},{"type":"Feature","properties":{"id":"NZ-030","id_ar":"نز-٠٣٠","street_en":"Abd Al Aziz Fahmy Street","street_ar":"شارع عبد العزيز فهمى","booked_en":"Delta Logistics","booked_ar":"دلتا للخدمات اللوجستية"},"geometry":{"type":"Polygon","coordinates":[[[31.346951,30.103716],[31.346939,30.103698],[31.346892,30.103721],[31.346904,30.103739],[31.346951,30.103716]]]}},{"type":"Feature","properties":{"id":"NZ-031","id_ar":"نز-٠٣١","street_en":"Abd Al Aziz Fahmy Street","street_ar":"شارع عبد العزيز فهمى","booked_en":"Resident – Building 8","booked_ar":"ساكن – عقار ٨"},"geometry":{"type":"Polygon","coordinates":[[[31.347003,30.10369],[31.346991,30.103672],[31.346944,30.103695],[31.346956,30.103713],[31.347003,30.10369]]]}},{"type":"Feature","properties":{"id":"NZ-032","id_ar":"نز-٠٣٢","street_en":"Abd Al Aziz Fahmy Street","street_ar":"شارع عبد العزيز فهمى","booked_en":"Resident – Building 14","booked_ar":"ساكن – عقار ١٤"},"geometry":{"type":"Polygon","coordinates":[[[31.347017,30.103683],[31.347055,30.103664],[31.347043,30.103646],[31.347005,30.103665],[31.346997,30.103669],[31.347009,30.103687],[31.347017,30.103683]]]}},{"type":"Feature","properties":{"id":"NZ-033","id_ar":"نز-٠٣٣","street_en":"Abd Al Aziz Fahmy Street","street_ar":"شارع عبد العزيز فهمى","booked_en":"Resident – Building 14","booked_ar":"ساكن – عقار ١٤"},"geometry":{"type":"Polygon","coordinates":[[[31.347108,30.103638],[31.347096,30.10362],[31.347049,30.103643],[31.347061,30.103661],[31.347108,30.103638]]]}},{"type":"Feature","properties":{"id":"NZ-034","id_ar":"نز-٠٣٤","street_en":"Abd Al Aziz Fahmy Street","street_ar":"شارع عبد العزيز فهمى","booked_en":"Resident – Building 14","booked_ar":"ساكن – عقار ١٤"},"geometry":{"type":"Polygon","coordinates":[[[31.34716,30.103612],[31.347148,30.103593],[31.347101,30.103617],[31.347113,30.103635],[31.34716,30.103612]]]}},{"type":"Feature","properties":{"id":"NZ-035","id_ar":"نز-٠٣٥","street_en":"Othman Ibn Affan Street","street_ar":"شارع عثمان بن عفان","booked_en":"Al Salam Supermarket","booked_ar":"سوبرماركت السلام"},"geometry":{"type":"Polygon","coordinates":[[[31.348318,30.103087],[31.348332,30.10307],[31.348288,30.103043],[31.348274,30.10306],[31.348318,30.103087]]]}},{"type":"Feature","properties":{"id":"NZ-036","id_ar":"نز-٠٣٦","street_en":"Othman Ibn Affan Street","street_ar":"شارع عثمان بن عفان","booked_en":"Al Salam Supermarket","booked_ar":"سوبرماركت السلام"},"geometry":{"type":"Polygon","coordinates":[[[31.348367,30.103118],[31.348381,30.103101],[31.348337,30.103073],[31.348323,30.10309],[31.348367,30.103118]]]}},{"type":"Feature","properties":{"id":"NZ-037","id_ar":"نز-٠٣٧","street_en":"Othman Ibn Affan Street","street_ar":"شارع عثمان بن عفان","booked_en":"Al Amal Bakery","booked_ar":"مخبز الأمل"},"geometry":{"type":"Polygon","coordinates":[[[31.339121,30.097964],[31.339131,30.097945],[31.339082,30.097925],[31.339072,30.097944],[31.339121,30.097964]]]}},{"type":"Feature","properties":{"id":"NZ-038","id_ar":"نز-٠٣٨","street_en":"Othman Ibn Affan Street","street_ar":"شارع عثمان بن عفان","booked_en":"Al Amal Bakery","booked_ar":"مخبز الأمل"},"geometry":{"type":"Polygon","coordinates":[[[31.339175,30.097987],[31.339185,30.097968],[31.339137,30.097948],[31.339126,30.097966],[31.339175,30.097987]]]}},{"type":"Feature","properties":{"id":"NZ-039","id_ar":"نز-٠٣٩","street_en":"Othman Ibn Affan Street","street_ar":"شارع عثمان بن عفان","booked_en":"Al Amal Bakery","booked_ar":"مخبز الأمل"},"geometry":{"type":"Polygon","coordinates":[[[31.339223,30.098006],[31.339229,30.098009],[31.33924,30.097991],[31.339233,30.097988],[31.339191,30.09797],[31.339181,30.097989],[31.339223,30.098006]]]}},{"type":"Feature","properties":{"id":"NZ-040","id_ar":"نز-٠٤٠","street_en":"Othman Ibn Affan Street","street_ar":"شارع عثمان بن عفان","booked_en":"Al Amal Bakery","booked_ar":"مخبز الأمل"},"geometry":{"type":"Polygon","coordinates":[[[31.339279,30.098037],[31.339292,30.098019],[31.339246,30.097994],[31.339233,30.098012],[31.339279,30.098037]]]}},{"type":"Feature","properties":{"id":"NZ-041","id_ar":"نز-٠٤١","street_en":"Othman Ibn Affan Street","street_ar":"شارع عثمان بن عفان","booked_en":"Al Amal Bakery","booked_ar":"مخبز الأمل"},"geometry":{"type":"Polygon","coordinates":[[[31.33933,30.098065],[31.339342,30.098048],[31.339297,30.098022],[31.339284,30.09804],[31.33933,30.098065]]]}},{"type":"Feature","properties":{"id":"NZ-042","id_ar":"نز-٠٤٢","street_en":"Othman Ibn Affan Street","street_ar":"شارع عثمان بن عفان","booked_en":"Al Amal Bakery","booked_ar":"مخبز الأمل"},"geometry":{"type":"Polygon","coordinates":[[[31.339371,30.098088],[31.33938,30.098093],[31.339393,30.098076],[31.339384,30.098071],[31.339348,30.09805],[31.339335,30.098068],[31.339371,30.098088]]]}},{"type":"Feature","properties":{"id":"NZ-043","id_ar":"نز-٠٤٣","street_en":"Mohamed Shafik Street","street_ar":"شارع محمد شفيق","booked_en":"Tech Hub Offices","booked_ar":"مكاتب تك هب"},"geometry":{"type":"Polygon","coordinates":[[[31.3391,30.103863],[31.339121,30.103873],[31.339146,30.103831],[31.339125,30.103822],[31.3391,30.103863]]]}},{"type":"Feature","properties":{"id":"NZ-044","id_ar":"نز-٠٤٤","street_en":"Mohamed Shafik Street","street_ar":"شارع محمد شفيق","booked_en":"Dr. Hany Clinic","booked_ar":"عيادة د. هاني"},"geometry":{"type":"Polygon","coordinates":[[[31.339072,30.10391],[31.339093,30.10392],[31.339118,30.103878],[31.339097,30.103868],[31.339072,30.10391]]]}},{"type":"Feature","properties":{"id":"NZ-045","id_ar":"نز-٠٤٥","street_en":"Mohamed Shafik Street","street_ar":"شارع محمد شفيق","booked_en":"Dr. Hany Clinic","booked_ar":"عيادة د. هاني"},"geometry":{"type":"Polygon","coordinates":[[[31.339044,30.103956],[31.339065,30.103966],[31.33909,30.103924],[31.339069,30.103915],[31.339044,30.103956]]]}},{"type":"Feature","properties":{"id":"NZ-046","id_ar":"نز-٠٤٦","street_en":"Mohamed Shafik Street","street_ar":"شارع محمد شفيق","booked_en":"Dr. Hany Clinic","booked_ar":"عيادة د. هاني"},"geometry":{"type":"Polygon","coordinates":[[[31.339016,30.104003],[31.339037,30.104012],[31.339062,30.103971],[31.339041,30.103961],[31.339016,30.104003]]]}},{"type":"Feature","properties":{"id":"NZ-047","id_ar":"نز-٠٤٧","street_en":"Mohamed Shafik Street","street_ar":"شارع محمد شفيق","booked_en":"Misr Insurance – Heliopolis branch","booked_ar":"مصر للتأمين – فرع مصر الجديدة"},"geometry":{"type":"Polygon","coordinates":[[[31.338988,30.104049],[31.339009,30.104059],[31.339034,30.104017],[31.339013,30.104008],[31.338988,30.104049]]]}},{"type":"Feature","properties":{"id":"NZ-048","id_ar":"نز-٠٤٨","street_en":"Mohamed Shafik Street","street_ar":"شارع محمد شفيق","booked_en":"Al Salam Supermarket","booked_ar":"سوبرماركت السلام"},"geometry":{"type":"Polygon","coordinates":[[[31.33896,30.104096],[31.338981,30.104105],[31.339006,30.104064],[31.338985,30.104054],[31.33896,30.104096]]]}},{"type":"Feature","properties":{"id":"NZ-049","id_ar":"نز-٠٤٩","street_en":"Mohamed Shafik Street","street_ar":"شارع محمد شفيق","booked_en":"Al Salam Supermarket","booked_ar":"سوبرماركت السلام"},"geometry":{"type":"Polygon","coordinates":[[[31.338932,30.104142],[31.338953,30.104152],[31.338978,30.10411],[31.338957,30.104101],[31.338932,30.104142]]]}},{"type":"Feature","properties":{"id":"NZ-050","id_ar":"نز-٠٥٠","street_en":"Mohamed Shafik Street","street_ar":"شارع محمد شفيق","booked_en":"Dr. Hany Clinic","booked_ar":"عيادة د. هاني"},"geometry":{"type":"Polygon","coordinates":[[[31.338823,30.103985],[31.338801,30.103975],[31.338777,30.104017],[31.338798,30.104027],[31.338823,30.103985]]]}},{"type":"Feature","properties":{"id":"NZ-051","id_ar":"نز-٠٥١","street_en":"Mohamed Shafik Street","street_ar":"شارع محمد شفيق","booked_en":"Dr. Hany Clinic","booked_ar":"عيادة د. هاني"},"geometry":{"type":"Polygon","coordinates":[[[31.33885,30.103938],[31.338829,30.103929],[31.338804,30.103971],[31.338826,30.10398],[31.33885,30.103938]]]}},{"type":"Feature","properties":{"id":"NZ-052","id_ar":"نز-٠٥٢","street_en":"Mohamed Shafik Street","street_ar":"شارع محمد شفيق","booked_en":"Dr. Hany Clinic","booked_ar":"عيادة د. هاني"},"geometry":{"type":"Polygon","coordinates":[[[31.338878,30.103892],[31.338857,30.103882],[31.338832,30.103924],[31.338853,30.103934],[31.338878,30.103892]]]}},{"type":"Feature","properties":{"id":"NZ-053","id_ar":"نز-٠٥٣","street_en":"Mohamed Shafik Street","street_ar":"شارع محمد شفيق","booked_en":"Resident – Building 27","booked_ar":"ساكن – عقار ٢٧"},"geometry":{"type":"Polygon","coordinates":[[[31.338906,30.103845],[31.338885,30.103836],[31.33886,30.103877],[31.338881,30.103887],[31.338906,30.103845]]]}},{"type":"Feature","properties":{"id":"NZ-054","id_ar":"نز-٠٥٤","street_en":"Mohamed Shafik Street","street_ar":"شارع محمد شفيق","booked_en":"Resident – Building 27","booked_ar":"ساكن – عقار ٢٧"},"geometry":{"type":"Polygon","coordinates":[[[31.338934,30.103799],[31.338912,30.103789],[31.338888,30.103831],[31.338909,30.10384],[31.338934,30.103799]]]}},{"type":"Feature","properties":{"id":"NZ-055","id_ar":"نز-٠٥٥","street_en":"Mohamed Shafik Street","street_ar":"شارع محمد شفيق","booked_en":"Resident – Building 27","booked_ar":"ساكن – عقار ٢٧"},"geometry":{"type":"Polygon","coordinates":[[[31.338961,30.103752],[31.33894,30.103743],[31.338915,30.103784],[31.338936,30.103794],[31.338961,30.103752]]]}},{"type":"Feature","properties":{"id":"NZ-056","id_ar":"نز-٠٥٦","street_en":"Nakhla Al Moteaay Street","street_ar":"شارع نخله المطيعى","booked_en":"Resident – Building 27","booked_ar":"ساكن – عقار ٢٧"},"geometry":{"type":"Polygon","coordinates":[[[31.341791,30.100761],[31.34178,30.100742],[31.341732,30.100763],[31.341742,30.100781],[31.341791,30.100761]]]}},{"type":"Feature","properties":{"id":"NZ-057","id_ar":"نز-٠٥٧","street_en":"Nakhla Al Moteaay Street","street_ar":"شارع نخله المطيعى","booked_en":"Resident – Building 27","booked_ar":"ساكن – عقار ٢٧"},"geometry":{"type":"Polygon","coordinates":[[[31.341845,30.100737],[31.341834,30.100719],[31.341786,30.100739],[31.341796,30.100758],[31.341845,30.100737]]]}},{"type":"Feature","properties":{"id":"NZ-058","id_ar":"نز-٠٥٨","street_en":"Nakhla Al Moteaay Street","street_ar":"شارع نخله المطيعى","booked_en":"Resident – Building 27","booked_ar":"ساكن – عقار ٢٧"},"geometry":{"type":"Polygon","coordinates":[[[31.341899,30.100714],[31.341888,30.100696],[31.34184,30.100716],[31.34185,30.100735],[31.341899,30.100714]]]}},{"type":"Feature","properties":{"id":"NZ-059","id_ar":"نز-٠٥٩","street_en":"Nakhla Al Moteaay Street","street_ar":"شارع نخله المطيعى","booked_en":"Resident – Building 27","booked_ar":"ساكن – عقار ٢٧"},"geometry":{"type":"Polygon","coordinates":[[[31.341953,30.100691],[31.341942,30.100673],[31.341894,30.100693],[31.341905,30.100712],[31.341953,30.100691]]]}},{"type":"Feature","properties":{"id":"NZ-060","id_ar":"نز-٠٦٠","street_en":"Nakhla Al Moteaay Street","street_ar":"شارع نخله المطيعى","booked_en":"Nozha Fitness Club","booked_ar":"نادي النزهة الرياضي"},"geometry":{"type":"Polygon","coordinates":[[[31.342007,30.100668],[31.341997,30.10065],[31.341948,30.10067],[31.341959,30.100689],[31.342007,30.100668]]]}},{"type":"Feature","properties":{"id":"NZ-061","id_ar":"نز-٠٦١","street_en":"Nakhla Al Moteaay Street","street_ar":"شارع نخله المطيعى","booked_en":"El Nozha Pharmacy","booked_ar":"صيدلية النزهة"},"geometry":{"type":"Polygon","coordinates":[[[31.342061,30.100645],[31.342051,30.100626],[31.342002,30.100647],[31.342013,30.100666],[31.342061,30.100645]]]}},{"type":"Feature","properties":{"id":"NZ-062","id_ar":"نز-٠٦٢","street_en":"Nakhla Al Moteaay Street","street_ar":"شارع نخله المطيعى","booked_en":"El Nozha Pharmacy","booked_ar":"صيدلية النزهة"},"geometry":{"type":"Polygon","coordinates":[[[31.342115,30.100622],[31.342105,30.100603],[31.342056,30.100624],[31.342067,30.100643],[31.342115,30.100622]]]}},{"type":"Feature","properties":{"id":"NZ-063","id_ar":"نز-٠٦٣","street_en":"Nakhla Al Moteaay Street","street_ar":"شارع نخله المطيعى","booked_en":"Dr. Hany Clinic","booked_ar":"عيادة د. هاني"},"geometry":{"type":"Polygon","coordinates":[[[31.342169,30.100599],[31.342159,30.10058],[31.34211,30.100601],[31.342121,30.10062],[31.342169,30.100599]]]}},{"type":"Feature","properties":{"id":"NZ-064","id_ar":"نز-٠٦٤","street_en":"Nakhla Al Moteaay Street","street_ar":"شارع نخله المطيعى","booked_en":"Dr. Hany Clinic","booked_ar":"عيادة د. هاني"},"geometry":{"type":"Polygon","coordinates":[[[31.342223,30.100576],[31.342213,30.100557],[31.342164,30.100578],[31.342175,30.100597],[31.342223,30.100576]]]}},{"type":"Feature","properties":{"id":"NZ-065","id_ar":"نز-٠٦٥","street_en":"Nakhla Al Moteaay Street","street_ar":"شارع نخله المطيعى","booked_en":"Heliopolis Language School","booked_ar":"مدرسة مصر الجديدة للغات"},"geometry":{"type":"Polygon","coordinates":[[[31.33966,30.101354],[31.339656,30.101374],[31.339709,30.101383],[31.339713,30.101363],[31.33966,30.101354]]]}},{"type":"Feature","properties":{"id":"NZ-066","id_ar":"نز-٠٦٦","street_en":"Nakhla Al Moteaay Street","street_ar":"شارع نخله المطيعى","booked_en":"Heliopolis Language School","booked_ar":"مدرسة مصر الجديدة للغات"},"geometry":{"type":"Polygon","coordinates":[[[31.339601,30.101344],[31.339596,30.101364],[31.33965,30.101373],[31.339654,30.101353],[31.339601,30.101344]]]}},{"type":"Feature","properties":{"id":"NZ-067","id_ar":"نز-٠٦٧","street_en":"Nakhla Al Moteaay Street","street_ar":"شارع نخله المطيعى","booked_en":"Al Amal Bakery","booked_ar":"مخبز الأمل"},"geometry":{"type":"Polygon","coordinates":[[[31.339542,30.101334],[31.339537,30.101355],[31.33959,30.101363],[31.339595,30.101343],[31.339542,30.101334]]]}},{"type":"Feature","properties":{"id":"NZ-068","id_ar":"نز-٠٦٨","street_en":"Nakhla Al Moteaay Street","street_ar":"شارع نخله المطيعى","booked_en":"Al Amal Bakery","booked_ar":"مخبز الأمل"},"geometry":{"type":"Polygon","coordinates":[[[31.339483,30.101324],[31.339478,30.101345],[31.339531,30.101354],[31.339536,30.101333],[31.339483,30.101324]]]}},{"type":"Feature","properties":{"id":"NZ-069","id_ar":"نز-٠٦٩","street_en":"Nakhla Al Moteaay Street","street_ar":"شارع نخله المطيعى","booked_en":"Al Amal Bakery","booked_ar":"مخبز الأمل"},"geometry":{"type":"Polygon","coordinates":[[[31.339424,30.101314],[31.339419,30.101335],[31.339472,30.101344],[31.339477,30.101323],[31.339424,30.101314]]]}},{"type":"Feature","properties":{"id":"NZ-070","id_ar":"نز-٠٧٠","street_en":"Nakhla Al Moteaay Street","street_ar":"شارع نخله المطيعى","booked_en":"Al Amal Bakery","booked_ar":"مخبز الأمل"},"geometry":{"type":"Polygon","coordinates":[[[31.339364,30.101304],[31.33936,30.101325],[31.339413,30.101334],[31.339417,30.101313],[31.339364,30.101304]]]}},{"type":"Feature","properties":{"id":"NZ-071","id_ar":"نز-٠٧١","street_en":"Al Doctor Ahmed Amin Street","street_ar":"شارع الدكتور احمد امين","booked_en":"Resident – Building 41","booked_ar":"ساكن – عقار ٤١"},"geometry":{"type":"Polygon","coordinates":[[[31.341213,30.104406],[31.341203,30.104425],[31.341251,30.104445],[31.341262,30.104426],[31.341213,30.104406]]]}},{"type":"Feature","properties":{"id":"NZ-072","id_ar":"نز-٠٧٢","street_en":"Al Doctor Ahmed Amin Street","street_ar":"شارع الدكتور احمد امين","booked_en":"Nozha Fitness Club","booked_ar":"نادي النزهة الرياضي"},"geometry":{"type":"Polygon","coordinates":[[[31.341158,30.104384],[31.341148,30.104403],[31.341197,30.104423],[31.341207,30.104404],[31.341158,30.104384]]]}},{"type":"Feature","properties":{"id":"NZ-073","id_ar":"نز-٠٧٣","street_en":"Al Doctor Ahmed Amin Street","street_ar":"شارع الدكتور احمد امين","booked_en":"Nozha Fitness Club","booked_ar":"نادي النزهة الرياضي"},"geometry":{"type":"Polygon","coordinates":[[[31.341104,30.104361],[31.341093,30.10438],[31.341142,30.1044],[31.341153,30.104381],[31.341104,30.104361]]]}},{"type":"Feature","properties":{"id":"NZ-074","id_ar":"نز-٠٧٤","street_en":"Al Doctor Ahmed Amin Street","street_ar":"شارع الدكتور احمد امين","booked_en":"Nozha Fitness Club","booked_ar":"نادي النزهة الرياضي"},"geometry":{"type":"Polygon","coordinates":[[[31.341049,30.104339],[31.341039,30.104358],[31.341088,30.104378],[31.341098,30.104359],[31.341049,30.104339]]]}},{"type":"Feature","properties":{"id":"NZ-075","id_ar":"نز-٠٧٥","street_en":"Al Doctor Ahmed Amin Street","street_ar":"شارع الدكتور احمد امين","booked_en":"Nozha Fitness Club","booked_ar":"نادي النزهة الرياضي"},"geometry":{"type":"Polygon","coordinates":[[[31.342904,30.105125],[31.342893,30.105143],[31.34294,30.105165],[31.342952,30.105147],[31.342904,30.105125]]]}},{"type":"Feature","properties":{"id":"NZ-076","id_ar":"نز-٠٧٦","street_en":"Al Doctor Ahmed Amin Street","street_ar":"شارع الدكتور احمد امين","booked_en":"Nile Bank – ATM & branch","booked_ar":"بنك النيل – فرع وصراف آلي"},"geometry":{"type":"Polygon","coordinates":[[[31.342852,30.105099],[31.34284,30.105118],[31.342888,30.10514],[31.342899,30.105122],[31.342852,30.105099]]]}},{"type":"Feature","properties":{"id":"NZ-077","id_ar":"نز-٠٧٧","street_en":"Al Doctor Ahmed Amin Street","street_ar":"شارع الدكتور احمد امين","booked_en":"Cairo Dental Center","booked_ar":"مركز القاهرة لطب الأسنان"},"geometry":{"type":"Polygon","coordinates":[[[31.342799,30.105074],[31.342787,30.105092],[31.342835,30.105115],[31.342846,30.105097],[31.342799,30.105074]]]}},{"type":"Feature","properties":{"id":"NZ-078","id_ar":"نز-٠٧٨","street_en":"Al Doctor Ahmed Amin Street","street_ar":"شارع الدكتور احمد امين","booked_en":"Resident – Building 41","booked_ar":"ساكن – عقار ٤١"},"geometry":{"type":"Polygon","coordinates":[[[31.342746,30.105049],[31.342735,30.105067],[31.342782,30.10509],[31.342793,30.105072],[31.342746,30.105049]]]}},{"type":"Feature","properties":{"id":"NZ-079","id_ar":"نز-٠٧٩","street_en":"Al Doctor Ahmed Amin Street","street_ar":"شارع الدكتور احمد امين","booked_en":"Resident – Building 41","booked_ar":"ساكن – عقار ٤١"},"geometry":{"type":"Polygon","coordinates":[[[31.342693,30.105024],[31.342682,30.105042],[31.342729,30.105065],[31.342741,30.105046],[31.342693,30.105024]]]}},{"type":"Feature","properties":{"id":"NZ-080","id_ar":"نز-٠٨٠","street_en":"Al Doctor Ahmed Amin Street","street_ar":"شارع الدكتور احمد امين","booked_en":"Resident – Building 41","booked_ar":"ساكن – عقار ٤١"},"geometry":{"type":"Polygon","coordinates":[[[31.34264,30.104999],[31.342629,30.105017],[31.342676,30.105039],[31.342688,30.105021],[31.34264,30.104999]]]}},{"type":"Feature","properties":{"id":"NZ-081","id_ar":"نز-٠٨١","street_en":"Mohamed Ramzy Bek Street","street_ar":"شارع محمد رمزى بك","booked_en":"Tech Hub Offices","booked_ar":"مكاتب تك هب"},"geometry":{"type":"Polygon","coordinates":[[[31.340752,30.100391],[31.340763,30.10041],[31.340811,30.100389],[31.340801,30.10037],[31.340752,30.100391]]]}},{"type":"Feature","properties":{"id":"NZ-082","id_ar":"نز-٠٨٢","street_en":"Mohamed Ramzy Bek Street","street_ar":"شارع محمد رمزى بك","booked_en":"Tech Hub Offices","booked_ar":"مكاتب تك هب"},"geometry":{"type":"Polygon","coordinates":[[[31.340698,30.100414],[31.340709,30.100433],[31.340757,30.100412],[31.340747,30.100393],[31.340698,30.100414]]]}},{"type":"Feature","properties":{"id":"NZ-083","id_ar":"نز-٠٨٣","street_en":"Mohamed Ramzy Bek Street","street_ar":"شارع محمد رمزى بك","booked_en":"Tech Hub Offices","booked_ar":"مكاتب تك هب"},"geometry":{"type":"Polygon","coordinates":[[[31.340644,30.100437],[31.340655,30.100456],[31.340703,30.100435],[31.340693,30.100416],[31.340644,30.100437]]]}},{"type":"Feature","properties":{"id":"NZ-084","id_ar":"نز-٠٨٤","street_en":"Mohamed Ramzy Bek Street","street_ar":"شارع محمد رمزى بك","booked_en":"Tech Hub Offices","booked_ar":"مكاتب تك هب"},"geometry":{"type":"Polygon","coordinates":[[[31.34059,30.100461],[31.340601,30.100479],[31.340649,30.100458],[31.340639,30.10044],[31.34059,30.100461]]]}},{"type":"Feature","properties":{"id":"NZ-085","id_ar":"نز-٠٨٥","street_en":"Mohamed Ramzy Bek Street","street_ar":"شارع محمد رمزى بك","booked_en":"Al Amal Bakery","booked_ar":"مخبز الأمل"},"geometry":{"type":"Polygon","coordinates":[[[31.340536,30.100484],[31.340547,30.100502],[31.340595,30.100482],[31.340585,30.100463],[31.340536,30.100484]]]}},{"type":"Feature","properties":{"id":"NZ-086","id_ar":"نز-٠٨٦","street_en":"Mohamed Ramzy Bek Street","street_ar":"شارع محمد رمزى بك","booked_en":"Tech Hub Offices","booked_ar":"مكاتب تك هب"},"geometry":{"type":"Polygon","coordinates":[[[31.340482,30.100507],[31.340493,30.100526],[31.340541,30.100505],[31.340531,30.100486],[31.340482,30.100507]]]}},{"type":"Feature","properties":{"id":"NZ-087","id_ar":"نز-٠٨٧","street_en":"Mohamed Ramzy Bek Street","street_ar":"شارع محمد رمزى بك","booked_en":"Tech Hub Offices","booked_ar":"مكاتب تك هب"},"geometry":{"type":"Polygon","coordinates":[[[31.340428,30.10053],[31.340439,30.100549],[31.340487,30.100528],[31.340477,30.100509],[31.340428,30.10053]]]}},{"type":"Feature","properties":{"id":"NZ-088","id_ar":"نز-٠٨٨","street_en":"Mohamed Ramzy Bek Street","street_ar":"شارع محمد رمزى بك","booked_en":"Tech Hub Offices","booked_ar":"مكاتب تك هب"},"geometry":{"type":"Polygon","coordinates":[[[31.340374,30.100553],[31.340385,30.100572],[31.340433,30.100551],[31.340423,30.100533],[31.340374,30.100553]]]}},{"type":"Feature","properties":{"id":"NZ-089","id_ar":"نز-٠٨٩","street_en":"Mohamed Ramzy Bek Street","street_ar":"شارع محمد رمزى بك","booked_en":"Heliopolis Language School","booked_ar":"مدرسة مصر الجديدة للغات"},"geometry":{"type":"Polygon","coordinates":[[[31.340346,30.100566],[31.340344,30.100566],[31.340342,30.100567],[31.340321,30.100573],[31.340328,30.100593],[31.340349,30.100587],[31.340353,30.100586],[31.340356,30.100584],[31.340379,30.100574],[31.340369,30.100556],[31.340346,30.100566]]]}},{"type":"Feature","properties":{"id":"NZ-090","id_ar":"نز-٠٩٠","street_en":"Mohamed Ramzy Bek Street","street_ar":"شارع محمد رمزى بك","booked_en":"Al Salam Supermarket","booked_ar":"سوبرماركت السلام"},"geometry":{"type":"Polygon","coordinates":[[[31.340263,30.100588],[31.34027,30.100608],[31.340322,30.100594],[31.340315,30.100574],[31.340263,30.100588]]]}},{"type":"Feature","properties":{"id":"NZ-091","id_ar":"نز-٠٩١","street_en":"Mohamed Ramzy Bek Street","street_ar":"شارع محمد رمزى بك","booked_en":"Delta Logistics","booked_ar":"دلتا للخدمات اللوجستية"},"geometry":{"type":"Polygon","coordinates":[[[31.336231,30.099957],[31.336226,30.099977],[31.33628,30.099986],[31.336284,30.099965],[31.336231,30.099957]]]}},{"type":"Feature","properties":{"id":"NZ-092","id_ar":"نز-٠٩٢","street_en":"Mohamed Ramzy Bek Street","street_ar":"شارع محمد رمزى بك","booked_en":"Delta Logistics","booked_ar":"دلتا للخدمات اللوجستية"},"geometry":{"type":"Polygon","coordinates":[[[31.336171,30.099948],[31.336167,30.099968],[31.33622,30.099976],[31.336224,30.099956],[31.336171,30.099948]]]}},{"type":"Feature","properties":{"id":"NZ-093","id_ar":"نز-٠٩٣","street_en":"Mohamed Ramzy Bek Street","street_ar":"شارع محمد رمزى بك","booked_en":"Resident – Building 41","booked_ar":"ساكن – عقار ٤١"},"geometry":{"type":"Polygon","coordinates":[[[31.336112,30.099938],[31.336108,30.099959],[31.336161,30.099967],[31.336165,30.099947],[31.336112,30.099938]]]}},{"type":"Feature","properties":{"id":"NZ-094","id_ar":"نز-٠٩٤","street_en":"Mohamed Ramzy Bek Street","street_ar":"شارع محمد رمزى بك","booked_en":"Resident – Building 41","booked_ar":"ساكن – عقار ٤١"},"geometry":{"type":"Polygon","coordinates":[[[31.336053,30.099929],[31.336049,30.09995],[31.336102,30.099958],[31.336106,30.099938],[31.336053,30.099929]]]}},{"type":"Feature","properties":{"id":"NZ-095","id_ar":"نز-٠٩٥","street_en":"Al Khalifa Al Mansour Street","street_ar":"شارع الخليفه المنصور","booked_en":"Nile Bank – ATM & branch","booked_ar":"بنك النيل – فرع وصراف آلي"},"geometry":{"type":"Polygon","coordinates":[[[31.339259,30.099175],[31.339246,30.099193],[31.339291,30.099218],[31.339304,30.099201],[31.339259,30.099175]]]}},{"type":"Feature","properties":{"id":"NZ-096","id_ar":"نز-٠٩٦","street_en":"Al Khalifa Al Mansour Street","street_ar":"شارع الخليفه المنصور","booked_en":"Nile Bank – ATM & branch","booked_ar":"بنك النيل – فرع وصراف آلي"},"geometry":{"type":"Polygon","coordinates":[[[31.339209,30.099147],[31.339196,30.099164],[31.339241,30.09919],[31.339254,30.099172],[31.339209,30.099147]]]}},{"type":"Feature","properties":{"id":"NZ-097","id_ar":"نز-٠٩٧","street_en":"Al Khalifa Al Mansour Street","street_ar":"شارع الخليفه المنصور","booked_en":"Nile Bank – ATM & branch","booked_ar":"بنك النيل – فرع وصراف آلي"},"geometry":{"type":"Polygon","coordinates":[[[31.339158,30.099118],[31.339145,30.099136],[31.33919,30.099161],[31.339203,30.099144],[31.339158,30.099118]]]}},{"type":"Feature","properties":{"id":"NZ-098","id_ar":"نز-٠٩٨","street_en":"Al Khalifa Al Mansour Street","street_ar":"شارع الخليفه المنصور","booked_en":"Nile Bank – ATM & branch","booked_ar":"بنك النيل – فرع وصراف آلي"},"geometry":{"type":"Polygon","coordinates":[[[31.339108,30.09909],[31.339095,30.099107],[31.33914,30.099133],[31.339153,30.099115],[31.339108,30.09909]]]}},{"type":"Feature","properties":{"id":"NZ-099","id_ar":"نز-٠٩٩","street_en":"Al Khalifa Al Mansour Street","street_ar":"شارع الخليفه المنصور","booked_en":"Nile Bank – ATM & branch","booked_ar":"بنك النيل – فرع وصراف آلي"},"geometry":{"type":"Polygon","coordinates":[[[31.339057,30.099061],[31.339044,30.099079],[31.339089,30.099104],[31.339102,30.099087],[31.339057,30.099061]]]}},{"type":"Feature","properties":{"id":"NZ-100","id_ar":"نز-١٠٠","street_en":"Joseph Tito Street","street_ar":"شارع جوزيف تيتو","booked_en":"Dr. Hany Clinic","booked_ar":"عيادة د. هاني"},"geometry":{"type":"Polygon","coordinates":[[[31.417969,30.140022],[31.417972,30.140042],[31.418026,30.140037],[31.418023,30.140016],[31.417969,30.140022]]]}},{"type":"Feature","properties":{"id":"NZ-101","id_ar":"نز-١٠١","street_en":"Joseph Tito Street","street_ar":"شارع جوزيف تيتو","booked_en":"Dr. Hany Clinic","booked_ar":"عيادة د. هاني"},"geometry":{"type":"Polygon","coordinates":[[[31.417909,30.140028],[31.417912,30.140049],[31.417966,30.140043],[31.417963,30.140022],[31.417909,30.140028]]]}},{"type":"Feature","properties":{"id":"NZ-102","id_ar":"نز-١٠٢","street_en":"Joseph Tito Street","street_ar":"شارع جوزيف تيتو","booked_en":"Dr. Hany Clinic","booked_ar":"عيادة د. هاني"},"geometry":{"type":"Polygon","coordinates":[[[31.41785,30.140035],[31.417853,30.140055],[31.417906,30.14005],[31.417903,30.140029],[31.41785,30.140035]]]}},{"type":"Feature","properties":{"id":"NZ-103","id_ar":"نز-١٠٣","street_en":"Joseph Tito Street","street_ar":"شارع جوزيف تيتو","booked_en":"Cairo Dental Center","booked_ar":"مركز القاهرة لطب الأسنان"},"geometry":{"type":"Polygon","coordinates":[[[31.418706,30.139703],[31.418703,30.139682],[31.41865,30.139687],[31.418652,30.139708],[31.418706,30.139703]]]}},{"type":"Feature","properties":{"id":"NZ-104","id_ar":"نز-١٠٤","street_en":"Joseph Tito Street","street_ar":"شارع جوزيف تيتو","booked_en":"Cairo Dental Center","booked_ar":"مركز القاهرة لطب الأسنان"},"geometry":{"type":"Polygon","coordinates":[[[31.418766,30.139697],[31.418763,30.139676],[31.418709,30.139681],[31.418712,30.139702],[31.418766,30.139697]]]}},{"type":"Feature","properties":{"id":"NZ-105","id_ar":"نز-١٠٥","street_en":"Joseph Tito Street","street_ar":"شارع جوزيف تيتو","booked_en":"Cairo Dental Center","booked_ar":"مركز القاهرة لطب الأسنان"},"geometry":{"type":"Polygon","coordinates":[[[31.418826,30.139691],[31.418823,30.13967],[31.418769,30.139675],[31.418772,30.139696],[31.418826,30.139691]]]}},{"type":"Feature","properties":{"id":"NZ-106","id_ar":"نز-١٠٦","street_en":"Joseph Tito Street","street_ar":"شارع جوزيف تيتو","booked_en":"Cairo Dental Center","booked_ar":"مركز القاهرة لطب الأسنان"},"geometry":{"type":"Polygon","coordinates":[[[31.418885,30.139685],[31.418883,30.139664],[31.418829,30.139669],[31.418832,30.13969],[31.418885,30.139685]]]}},{"type":"Feature","properties":{"id":"NZ-107","id_ar":"نز-١٠٧","street_en":"Joseph Tito Street","street_ar":"شارع جوزيف تيتو","booked_en":"Cairo Dental Center","booked_ar":"مركز القاهرة لطب الأسنان"},"geometry":{"type":"Polygon","coordinates":[[[31.418945,30.139679],[31.418942,30.139658],[31.418889,30.139663],[31.418892,30.139684],[31.418945,30.139679]]]}},{"type":"Feature","properties":{"id":"NZ-108","id_ar":"نز-١٠٨","street_en":"Joseph Tito Street","street_ar":"شارع جوزيف تيتو","booked_en":"Cairo Dental Center","booked_ar":"مركز القاهرة لطب الأسنان"},"geometry":{"type":"Polygon","coordinates":[[[31.419005,30.139673],[31.419002,30.139652],[31.418949,30.139658],[31.418951,30.139678],[31.419005,30.139673]]]}},{"type":"Feature","properties":{"id":"NZ-109","id_ar":"نز-١٠٩","street_en":"Joseph Tito Street","street_ar":"شارع جوزيف تيتو","booked_en":"Cairo Dental Center","booked_ar":"مركز القاهرة لطب الأسنان"},"geometry":{"type":"Polygon","coordinates":[[[31.419065,30.139667],[31.419062,30.139646],[31.419008,30.139652],[31.419011,30.139672],[31.419065,30.139667]]]}},{"type":"Feature","properties":{"id":"NZ-110","id_ar":"نز-١١٠","street_en":"Joseph Tito Street","street_ar":"شارع جوزيف تيتو","booked_en":"Cairo Dental Center","booked_ar":"مركز القاهرة لطب الأسنان"},"geometry":{"type":"Polygon","coordinates":[[[31.419125,30.139661],[31.419122,30.13964],[31.419068,30.139646],[31.419071,30.139666],[31.419125,30.139661]]]}},{"type":"Feature","properties":{"id":"NZ-111","id_ar":"نز-١١١","street_en":"Side Joseph Tito Street","street_ar":"شارع جوزيف تيتو الجانبي","booked_en":"Nozha Fitness Club","booked_ar":"نادي النزهة الرياضي"},"geometry":{"type":"Polygon","coordinates":[[[31.388414,30.134041],[31.388398,30.134057],[31.38844,30.134088],[31.388455,30.134072],[31.388414,30.134041]]]}},{"type":"Feature","properties":{"id":"NZ-112","id_ar":"نز-١١٢","street_en":"Side Joseph Tito Street","street_ar":"شارع جوزيف تيتو الجانبي","booked_en":"Al Salam Supermarket","booked_ar":"سوبرماركت السلام"},"geometry":{"type":"Polygon","coordinates":[[[31.388368,30.134008],[31.388352,30.134023],[31.388394,30.134054],[31.388409,30.134038],[31.388368,30.134008]]]}},{"type":"Feature","properties":{"id":"NZ-113","id_ar":"نز-١١٣","street_en":"Side Joseph Tito Street","street_ar":"شارع جوزيف تيتو الجانبي","booked_en":"Al Salam Supermarket","booked_ar":"سوبرماركت السلام"},"geometry":{"type":"Polygon","coordinates":[[[31.388321,30.133974],[31.388306,30.13399],[31.388347,30.13402],[31.388363,30.134004],[31.388321,30.133974]]]}},{"type":"Feature","properties":{"id":"NZ-114","id_ar":"نز-١١٤","street_en":"Side Joseph Tito Street","street_ar":"شارع جوزيف تيتو الجانبي","booked_en":"Nile Bank – ATM & branch","booked_ar":"بنك النيل – فرع وصراف آلي"},"geometry":{"type":"Polygon","coordinates":[[[31.388275,30.13394],[31.38826,30.133956],[31.388301,30.133986],[31.388317,30.13397],[31.388275,30.13394]]]}},{"type":"Feature","properties":{"id":"NZ-115","id_ar":"نز-١١٥","street_en":"Side Joseph Tito Street","street_ar":"شارع جوزيف تيتو الجانبي","booked_en":"Nile Bank – ATM & branch","booked_ar":"بنك النيل – فرع وصراف آلي"},"geometry":{"type":"Polygon","coordinates":[[[31.388229,30.133906],[31.388214,30.133922],[31.388255,30.133952],[31.388271,30.133937],[31.388229,30.133906]]]}},{"type":"Feature","properties":{"id":"NZ-116","id_ar":"نز-١١٦","street_en":"Side Joseph Tito Street","street_ar":"شارع جوزيف تيتو الجانبي","booked_en":"Resident – Building 14","booked_ar":"ساكن – عقار ١٤"},"geometry":{"type":"Polygon","coordinates":[[[31.378265,30.126281],[31.378249,30.126297],[31.378289,30.126328],[31.378305,30.126313],[31.378265,30.126281]]]}},{"type":"Feature","properties":{"id":"NZ-117","id_ar":"نز-١١٧","street_en":"Side Joseph Tito Street","street_ar":"شارع جوزيف تيتو الجانبي","booked_en":"Green Leaf Café","booked_ar":"كافيه الورقة الخضراء"},"geometry":{"type":"Polygon","coordinates":[[[31.378221,30.126246],[31.378204,30.126261],[31.378244,30.126293],[31.37826,30.126278],[31.378221,30.126246]]]}},{"type":"Feature","properties":{"id":"NZ-118","id_ar":"نز-١١٨","street_en":"Side Joseph Tito Street","street_ar":"شارع جوزيف تيتو الجانبي","booked_en":"Green Leaf Café","booked_ar":"كافيه الورقة الخضراء"},"geometry":{"type":"Polygon","coordinates":[[[31.378176,30.126211],[31.37816,30.126226],[31.3782,30.126258],[31.378216,30.126242],[31.378176,30.126211]]]}},{"type":"Feature","properties":{"id":"NZ-119","id_ar":"نز-١١٩","street_en":"Side Joseph Tito Street","street_ar":"شارع جوزيف تيتو الجانبي","booked_en":"Green Leaf Café","booked_ar":"كافيه الورقة الخضراء"},"geometry":{"type":"Polygon","coordinates":[[[31.378131,30.126175],[31.378115,30.126191],[31.378155,30.126223],[31.378171,30.126207],[31.378131,30.126175]]]}},{"type":"Feature","properties":{"id":"NZ-120","id_ar":"نز-١٢٠","street_en":"Side Joseph Tito Street","street_ar":"شارع جوزيف تيتو الجانبي","booked_en":"Green Leaf Café","booked_ar":"كافيه الورقة الخضراء"},"geometry":{"type":"Polygon","coordinates":[[[31.378087,30.12614],[31.378071,30.126156],[31.378111,30.126187],[31.378127,30.126172],[31.378087,30.12614]]]}},{"type":"Feature","properties":{"id":"NZ-121","id_ar":"نز-١٢١","street_en":"Side Joseph Tito Street","street_ar":"شارع جوزيف تيتو الجانبي","booked_en":"Green Leaf Café","booked_ar":"كافيه الورقة الخضراء"},"geometry":{"type":"Polygon","coordinates":[[[31.378042,30.126105],[31.378026,30.12612],[31.378066,30.126152],[31.378082,30.126137],[31.378042,30.126105]]]}},{"type":"Feature","properties":{"id":"NZ-122","id_ar":"نز-١٢٢","street_en":"Side Joseph Tito Street","street_ar":"شارع جوزيف تيتو الجانبي","booked_en":"Nozha Fitness Club","booked_ar":"نادي النزهة الرياضي"},"geometry":{"type":"Polygon","coordinates":[[[31.377998,30.12607],[31.377982,30.126085],[31.378022,30.126117],[31.378038,30.126101],[31.377998,30.12607]]]}},{"type":"Feature","properties":{"id":"NZ-123","id_ar":"نز-١٢٣","street_en":"Anqarah Street","street_ar":"شارع انقره","booked_en":"Green Leaf Café","booked_ar":"كافيه الورقة الخضراء"},"geometry":{"type":"Polygon","coordinates":[[[31.375991,30.10948],[31.375974,30.109494],[31.376012,30.109528],[31.376029,30.109514],[31.375991,30.10948]]]}},{"type":"Feature","properties":{"id":"NZ-124","id_ar":"نز-١٢٤","street_en":"Anqarah Street","street_ar":"شارع انقره","booked_en":"Green Leaf Café","booked_ar":"كافيه الورقة الخضراء"},"geometry":{"type":"Polygon","coordinates":[[[31.375949,30.109442],[31.375932,30.109457],[31.37597,30.109491],[31.375987,30.109476],[31.375949,30.109442]]]}},{"type":"Feature","properties":{"id":"NZ-125","id_ar":"نز-١٢٥","street_en":"Anqarah Street","street_ar":"شارع انقره","booked_en":"Green Leaf Café","booked_ar":"كافيه الورقة الخضراء"},"geometry":{"type":"Polygon","coordinates":[[[31.375907,30.109405],[31.37589,30.109419],[31.375928,30.109453],[31.375945,30.109438],[31.375907,30.109405]]]}},{"type":"Feature","properties":{"id":"NZ-126","id_ar":"نز-١٢٦","street_en":"Anqarah Street","street_ar":"شارع انقره","booked_en":"Green Leaf Café","booked_ar":"كافيه الورقة الخضراء"},"geometry":{"type":"Polygon","coordinates":[[[31.375865,30.109367],[31.375848,30.109382],[31.375886,30.109415],[31.375903,30.109401],[31.375865,30.109367]]]}},{"type":"Feature","properties":{"id":"NZ-127","id_ar":"نز-١٢٧","street_en":"Anqarah Street","street_ar":"شارع انقره","booked_en":"Green Leaf Café","booked_ar":"كافيه الورقة الخضراء"},"geometry":{"type":"Polygon","coordinates":[[[31.375823,30.10933],[31.375806,30.109344],[31.375844,30.109378],[31.375861,30.109363],[31.375823,30.10933]]]}},{"type":"Feature","properties":{"id":"NZ-128","id_ar":"نز-١٢٨","street_en":"Anqarah Street","street_ar":"شارع انقره","booked_en":"Green Leaf Café","booked_ar":"كافيه الورقة الخضراء"},"geometry":{"type":"Polygon","coordinates":[[[31.375781,30.109292],[31.375764,30.109306],[31.375802,30.10934],[31.375819,30.109326],[31.375781,30.109292]]]}},{"type":"Feature","properties":{"id":"NZ-129","id_ar":"نز-١٢٩","street_en":"Anqarah Street","street_ar":"شارع انقره","booked_en":"Al Amal Bakery","booked_ar":"مخبز الأمل"},"geometry":{"type":"Polygon","coordinates":[[[31.380067,30.109966],[31.380051,30.109951],[31.380012,30.109984],[31.380028,30.109999],[31.380067,30.109966]]]}},{"type":"Feature","properties":{"id":"NZ-130","id_ar":"نز-١٣٠","street_en":"Anqarah Street","street_ar":"شارع انقره","booked_en":"Misr Insurance – Heliopolis branch","booked_ar":"مصر للتأمين – فرع مصر الجديدة"},"geometry":{"type":"Polygon","coordinates":[[[31.38011,30.109929],[31.380094,30.109915],[31.380055,30.109947],[31.380072,30.109962],[31.38011,30.109929]]]}},{"type":"Feature","properties":{"id":"NZ-131","id_ar":"نز-١٣١","street_en":"Anqarah Street","street_ar":"شارع انقره","booked_en":"Misr Insurance – Heliopolis branch","booked_ar":"مصر للتأمين – فرع مصر الجديدة"},"geometry":{"type":"Polygon","coordinates":[[[31.380154,30.109893],[31.380137,30.109878],[31.380098,30.109911],[31.380115,30.109926],[31.380154,30.109893]]]}},{"type":"Feature","properties":{"id":"NZ-132","id_ar":"نز-١٣٢","street_en":"Anqarah Street","street_ar":"شارع انقره","booked_en":"Dr. Hany Clinic","booked_ar":"عيادة د. هاني"},"geometry":{"type":"Polygon","coordinates":[[[31.380197,30.109857],[31.38018,30.109842],[31.380142,30.109874],[31.380158,30.109889],[31.380197,30.109857]]]}},{"type":"Feature","properties":{"id":"NZ-133","id_ar":"نز-١٣٣","street_en":"Anqarah Street","street_ar":"شارع انقره","booked_en":"El Nozha Pharmacy","booked_ar":"صيدلية النزهة"},"geometry":{"type":"Polygon","coordinates":[[[31.38024,30.10982],[31.380224,30.109805],[31.380185,30.109838],[31.380202,30.109853],[31.38024,30.10982]]]}},{"type":"Feature","properties":{"id":"NZ-134","id_ar":"نز-١٣٤","street_en":"Anqarah Street","street_ar":"شارع انقره","booked_en":"El Nozha Pharmacy","booked_ar":"صيدلية النزهة"},"geometry":{"type":"Polygon","coordinates":[[[31.380284,30.109784],[31.380267,30.109769],[31.380228,30.109801],[31.380245,30.109816],[31.380284,30.109784]]]}},{"type":"Feature","properties":{"id":"NZ-135","id_ar":"نز-١٣٥","street_en":"Anqarah Street","street_ar":"شارع انقره","booked_en":"El Nozha Pharmacy","booked_ar":"صيدلية النزهة"},"geometry":{"type":"Polygon","coordinates":[[[31.380327,30.109747],[31.38031,30.109732],[31.380271,30.109765],[31.380288,30.10978],[31.380327,30.109747]]]}},{"type":"Feature","properties":{"id":"NZ-136","id_ar":"نز-١٣٦","street_en":"Anqarah Street","street_ar":"شارع انقره","booked_en":"Resident – Building 14","booked_ar":"ساكن – عقار ١٤"},"geometry":{"type":"Polygon","coordinates":[[[31.38037,30.109711],[31.380354,30.109696],[31.380315,30.109728],[31.380331,30.109743],[31.38037,30.109711]]]}},{"type":"Feature","properties":{"id":"NZ-137","id_ar":"نز-١٣٧","street_en":"Al Saeqah Street","street_ar":"شارع الصاعقه","booked_en":"Cairo Dental Center","booked_ar":"مركز القاهرة لطب الأسنان"},"geometry":{"type":"Polygon","coordinates":[[[31.379123,30.08233],[31.379144,30.082339],[31.379168,30.082298],[31.379147,30.082288],[31.379123,30.08233]]]}},{"type":"Feature","properties":{"id":"NZ-138","id_ar":"نز-١٣٨","street_en":"Al Saeqah Street","street_ar":"شارع الصاعقه","booked_en":"Cairo Dental Center","booked_ar":"مركز القاهرة لطب الأسنان"},"geometry":{"type":"Polygon","coordinates":[[[31.379095,30.082377],[31.379117,30.082386],[31.379141,30.082344],[31.37912,30.082335],[31.379095,30.082377]]]}},{"type":"Feature","properties":{"id":"NZ-139","id_ar":"نز-١٣٩","street_en":"Al Saeqah Street","street_ar":"شارع الصاعقه","booked_en":"Cairo Dental Center","booked_ar":"مركز القاهرة لطب الأسنان"},"geometry":{"type":"Polygon","coordinates":[[[31.379068,30.082423],[31.379089,30.082433],[31.379114,30.082391],[31.379092,30.082382],[31.379068,30.082423]]]}},{"type":"Feature","properties":{"id":"NZ-140","id_ar":"نز-١٤٠","street_en":"Al Saeqah Street","street_ar":"شارع الصاعقه","booked_en":"Cairo Dental Center","booked_ar":"مركز القاهرة لطب الأسنان"},"geometry":{"type":"Polygon","coordinates":[[[31.37904,30.08247],[31.379062,30.08248],[31.379086,30.082438],[31.379065,30.082428],[31.37904,30.08247]]]}},{"type":"Feature","properties":{"id":"NZ-141","id_ar":"نز-١٤١","street_en":"Al Saeqah Street","street_ar":"شارع الصاعقه","booked_en":"Delta Logistics","booked_ar":"دلتا للخدمات اللوجستية"},"geometry":{"type":"Polygon","coordinates":[[[31.379013,30.082517],[31.379034,30.082526],[31.379059,30.082484],[31.379038,30.082475],[31.379013,30.082517]]]}},{"type":"Feature","properties":{"id":"NZ-142","id_ar":"نز-١٤٢","street_en":"Al Saeqah Street","street_ar":"شارع الصاعقه","booked_en":"Delta Logistics","booked_ar":"دلتا للخدمات اللوجستية"},"geometry":{"type":"Polygon","coordinates":[[[31.378985,30.082563],[31.379007,30.082573],[31.379031,30.082531],[31.37901,30.082522],[31.378985,30.082563]]]}},{"type":"Feature","properties":{"id":"NZ-143","id_ar":"نز-١٤٣","street_en":"Al Saeqah Street","street_ar":"شارع الصاعقه","booked_en":"El Nozha Pharmacy","booked_ar":"صيدلية النزهة"},"geometry":{"type":"Polygon","coordinates":[[[31.379389,30.080305],[31.379366,30.080301],[31.379356,30.080348],[31.37938,30.080351],[31.379389,30.080305]]]}},{"type":"Feature","properties":{"id":"NZ-144","id_ar":"نز-١٤٤","street_en":"Al Saeqah Street","street_ar":"شارع الصاعقه","booked_en":"El Nozha Pharmacy","booked_ar":"صيدلية النزهة"},"geometry":{"type":"Polygon","coordinates":[[[31.3794,30.080254],[31.379377,30.08025],[31.379367,30.080296],[31.37939,30.0803],[31.3794,30.080254]]]}},{"type":"Feature","properties":{"id":"NZ-145","id_ar":"نز-١٤٥","street_en":"Al Saeqah Street","street_ar":"شارع الصاعقه","booked_en":"El Nozha Pharmacy","booked_ar":"صيدلية النزهة"},"geometry":{"type":"Polygon","coordinates":[[[31.379411,30.080202],[31.379388,30.080198],[31.379378,30.080245],[31.379401,30.080248],[31.379411,30.080202]]]}},{"type":"Feature","properties":{"id":"NZ-146","id_ar":"نز-١٤٦","street_en":"Al Saeqah Street","street_ar":"شارع الصاعقه","booked_en":"El Nozha Pharmacy","booked_ar":"صيدلية النزهة"},"geometry":{"type":"Polygon","coordinates":[[[31.379422,30.08015],[31.379399,30.080147],[31.379389,30.080193],[31.379412,30.080197],[31.379422,30.08015]]]}},{"type":"Feature","properties":{"id":"NZ-147","id_ar":"نز-١٤٧","street_en":"Al Saeqah Street","street_ar":"شارع الصاعقه","booked_en":"El Nozha Pharmacy","booked_ar":"صيدلية النزهة"},"geometry":{"type":"Polygon","coordinates":[[[31.379433,30.080099],[31.37941,30.080095],[31.3794,30.080141],[31.379423,30.080145],[31.379433,30.080099]]]}},{"type":"Feature","properties":{"id":"NZ-148","id_ar":"نز-١٤٨","street_en":"Khaled Ibn Al Walid Street","street_ar":"شارع خالد بن الوليد","booked_en":"Cairo Dental Center","booked_ar":"مركز القاهرة لطب الأسنان"},"geometry":{"type":"Polygon","coordinates":[[[31.376348,30.102578],[31.376331,30.102592],[31.376369,30.102626],[31.376386,30.102611],[31.376348,30.102578]]]}},{"type":"Feature","properties":{"id":"NZ-149","id_ar":"نز-١٤٩","street_en":"Khaled Ibn Al Walid Street","street_ar":"شارع خالد بن الوليد","booked_en":"Cairo Dental Center","booked_ar":"مركز القاهرة لطب الأسنان"},"geometry":{"type":"Polygon","coordinates":[[[31.376306,30.10254],[31.376289,30.102555],[31.376327,30.102588],[31.376344,30.102574],[31.376306,30.10254]]]}},{"type":"Feature","properties":{"id":"NZ-150","id_ar":"نز-١٥٠","street_en":"Khaled Ibn Al Walid Street","street_ar":"شارع خالد بن الوليد","booked_en":"Al Salam Supermarket","booked_ar":"سوبرماركت السلام"},"geometry":{"type":"Polygon","coordinates":[[[31.376264,30.102503],[31.376247,30.102517],[31.376285,30.102551],[31.376302,30.102536],[31.376264,30.102503]]]}},{"type":"Feature","properties":{"id":"NZ-151","id_ar":"نز-١٥١","street_en":"Khaled Ibn Al Walid Street","street_ar":"شارع خالد بن الوليد","booked_en":"Al Salam Supermarket","booked_ar":"سوبرماركت السلام"},"geometry":{"type":"Polygon","coordinates":[[[31.376222,30.102465],[31.376205,30.102479],[31.376242,30.102513],[31.37626,30.102499],[31.376222,30.102465]]]}},{"type":"Feature","properties":{"id":"NZ-152","id_ar":"نز-١٥٢","street_en":"Khaled Ibn Al Walid Street","street_ar":"شارع خالد بن الوليد","booked_en":"Misr Insurance – Heliopolis branch","booked_ar":"مصر للتأمين – فرع مصر الجديدة"},"geometry":{"type":"Polygon","coordinates":[[[31.37618,30.102427],[31.376163,30.102442],[31.3762,30.102476],[31.376218,30.102461],[31.37618,30.102427]]]}},{"type":"Feature","properties":{"id":"NZ-153","id_ar":"نز-١٥٣","street_en":"Khaled Ibn Al Walid Street","street_ar":"شارع خالد بن الوليد","booked_en":"Misr Insurance – Heliopolis branch","booked_ar":"مصر للتأمين – فرع مصر الجديدة"},"geometry":{"type":"Polygon","coordinates":[[[31.376138,30.10239],[31.376121,30.102404],[31.376158,30.102438],[31.376176,30.102423],[31.376138,30.10239]]]}},{"type":"Feature","properties":{"id":"NZ-154","id_ar":"نز-١٥٤","street_en":"Khaled Ibn Al Walid Street","street_ar":"شارع خالد بن الوليد","booked_en":"Resident – Building 27","booked_ar":"ساكن – عقار ٢٧"},"geometry":{"type":"Polygon","coordinates":[[[31.376096,30.102352],[31.376079,30.102367],[31.376116,30.1024],[31.376134,30.102386],[31.376096,30.102352]]]}},{"type":"Feature","properties":{"id":"NZ-155","id_ar":"نز-١٥٥","street_en":"Khaled Ibn Al Walid Street","street_ar":"شارع خالد بن الوليد","booked_en":"Resident – Building 27","booked_ar":"ساكن – عقار ٢٧"},"geometry":{"type":"Polygon","coordinates":[[[31.376054,30.102315],[31.376037,30.102329],[31.376074,30.102363],[31.376092,30.102348],[31.376054,30.102315]]]}},{"type":"Feature","properties":{"id":"NZ-156","id_ar":"نز-١٥٦","street_en":"Khaled Ibn Al Walid Street","street_ar":"شارع خالد بن الوليد","booked_en":"Tech Hub Offices","booked_ar":"مكاتب تك هب"},"geometry":{"type":"Polygon","coordinates":[[[31.373853,30.100029],[31.37387,30.100015],[31.373833,30.09998],[31.373816,30.099994],[31.373853,30.100029]]]}},{"type":"Feature","properties":{"id":"NZ-157","id_ar":"نز-١٥٧","street_en":"Khaled Ibn Al Walid Street","street_ar":"شارع خالد بن الوليد","booked_en":"Tech Hub Offices","booked_ar":"مكاتب تك هب"},"geometry":{"type":"Polygon","coordinates":[[[31.373894,30.100067],[31.373911,30.100053],[31.373874,30.100019],[31.373857,30.100033],[31.373894,30.100067]]]}},{"type":"Feature","properties":{"id":"NZ-158","id_ar":"نز-١٥٨","street_en":"Khaled Ibn Al Walid Street","street_ar":"شارع خالد بن الوليد","booked_en":"Tech Hub Offices","booked_ar":"مكاتب تك هب"},"geometry":{"type":"Polygon","coordinates":[[[31.373934,30.100106],[31.373952,30.100092],[31.373915,30.100057],[31.373898,30.100071],[31.373934,30.100106]]]}},{"type":"Feature","properties":{"id":"NZ-159","id_ar":"نز-١٥٩","street_en":"Khaled Ibn Al Walid Street","street_ar":"شارع خالد بن الوليد","booked_en":"Resident – Building 14","booked_ar":"ساكن – عقار ١٤"},"geometry":{"type":"Polygon","coordinates":[[[31.373975,30.100144],[31.373993,30.10013],[31.373956,30.100096],[31.373939,30.10011],[31.373975,30.100144]]]}},{"type":"Feature","properties":{"id":"NZ-160","id_ar":"نز-١٦٠","street_en":"Al Moshir Ahmed Ismail Street","street_ar":"شارع المشير احمد اسماعيل","booked_en":"Dr. Hany Clinic","booked_ar":"عيادة د. هاني"},"geometry":{"type":"Polygon","coordinates":[[[31.370919,30.098469],[31.370935,30.098484],[31.370974,30.098452],[31.370957,30.098437],[31.370919,30.098469]]]}},{"type":"Feature","properties":{"id":"NZ-161","id_ar":"نز-١٦١","street_en":"Al Moshir Ahmed Ismail Street","street_ar":"شارع المشير احمد اسماعيل","booked_en":"Misr Insurance – Heliopolis branch","booked_ar":"مصر للتأمين – فرع مصر الجديدة"},"geometry":{"type":"Polygon","coordinates":[[[31.370875,30.098506],[31.370892,30.098521],[31.370931,30.098488],[31.370914,30.098473],[31.370875,30.098506]]]}},{"type":"Feature","properties":{"id":"NZ-162","id_ar":"نز-١٦٢","street_en":"Al Moshir Ahmed Ismail Street","street_ar":"شارع المشير احمد اسماعيل","booked_en":"Misr Insurance – Heliopolis branch","booked_ar":"مصر للتأمين – فرع مصر الجديدة"},"geometry":{"type":"Polygon","coordinates":[[[31.370832,30.098542],[31.370849,30.098557],[31.370887,30.098525],[31.370871,30.09851],[31.370832,30.098542]]]}},{"type":"Feature","properties":{"id":"NZ-163","id_ar":"نز-١٦٣","street_en":"Al Moshir Ahmed Ismail Street","street_ar":"شارع المشير احمد اسماعيل","booked_en":"Resident – Building 14","booked_ar":"ساكن – عقار ١٤"},"geometry":{"type":"Polygon","coordinates":[[[31.370789,30.098579],[31.370805,30.098594],[31.370844,30.098561],[31.370828,30.098546],[31.370789,30.098579]]]}},{"type":"Feature","properties":{"id":"NZ-164","id_ar":"نز-١٦٤","street_en":"Al Moshir Ahmed Ismail Street","street_ar":"شارع المشير احمد اسماعيل","booked_en":"Al Salam Supermarket","booked_ar":"سوبرماركت السلام"},"geometry":{"type":"Polygon","coordinates":[[[31.37247,30.091804],[31.372494,30.091806],[31.372499,30.09176],[31.372476,30.091757],[31.37247,30.091804]]]}},{"type":"Feature","properties":{"id":"NZ-165","id_ar":"نز-١٦٥","street_en":"Al Moshir Ahmed Ismail Street","street_ar":"شارع المشير احمد اسماعيل","booked_en":"Al Salam Supermarket","booked_ar":"سوبرماركت السلام"},"geometry":{"type":"Polygon","coordinates":[[[31.372463,30.091856],[31.372487,30.091858],[31.372493,30.091812],[31.372469,30.091809],[31.372463,30.091856]]]}},{"type":"Feature","properties":{"id":"NZ-166","id_ar":"نز-١٦٦","street_en":"Al Moshir Ahmed Ismail Street","street_ar":"شارع المشير احمد اسماعيل","booked_en":"Al Salam Supermarket","booked_ar":"سوبرماركت السلام"},"geometry":{"type":"Polygon","coordinates":[[[31.372457,30.091908],[31.372481,30.091911],[31.372486,30.091864],[31.372463,30.091862],[31.372457,30.091908]]]}},{"type":"Feature","properties":{"id":"NZ-167","id_ar":"نز-١٦٧","street_en":"Al Moshir Ahmed Ismail Street","street_ar":"شارع المشير احمد اسماعيل","booked_en":"Al Salam Supermarket","booked_ar":"سوبرماركت السلام"},"geometry":{"type":"Polygon","coordinates":[[[31.37245,30.09196],[31.372474,30.091963],[31.37248,30.091916],[31.372456,30.091914],[31.37245,30.09196]]]}},{"type":"Feature","properties":{"id":"NZ-168","id_ar":"نز-١٦٨","street_en":"Abd Al Hamid Badawi Street","street_ar":"شارع عبد الحميد بدوى","booked_en":"Cairo Dental Center","booked_ar":"مركز القاهرة لطب الأسنان"},"geometry":{"type":"Polygon","coordinates":[[[31.38217,30.09621],[31.382169,30.096227],[31.382193,30.096227],[31.382193,30.09621],[31.382194,30.09618],[31.38217,30.09618],[31.38217,30.09621]]]}},{"type":"Feature","properties":{"id":"NZ-169","id_ar":"نز-١٦٩","street_en":"Abd Al Hamid Badawi Street","street_ar":"شارع عبد الحميد بدوى","booked_en":"Delta Logistics","booked_ar":"دلتا للخدمات اللوجستية"},"geometry":{"type":"Polygon","coordinates":[[[31.382169,30.09625],[31.382168,30.096254],[31.382166,30.096278],[31.382189,30.09628],[31.382192,30.096255],[31.382192,30.09625],[31.382193,30.096232],[31.382169,30.096232],[31.382169,30.09625]]]}},{"type":"Feature","properties":{"id":"NZ-170","id_ar":"نز-١٧٠","street_en":"Abd Al Hamid Badawi Street","street_ar":"شارع عبد الحميد بدوى","booked_en":"Delta Logistics","booked_ar":"دلتا للخدمات اللوجستية"},"geometry":{"type":"Polygon","coordinates":[[[31.38216,30.09633],[31.382184,30.096332],[31.382189,30.096286],[31.382165,30.096284],[31.38216,30.09633]]]}},{"type":"Feature","properties":{"id":"NZ-171","id_ar":"نز-١٧١","street_en":"Abd Al Hamid Badawi Street","street_ar":"شارع عبد الحميد بدوى","booked_en":"Delta Logistics","booked_ar":"دلتا للخدمات اللوجستية"},"geometry":{"type":"Polygon","coordinates":[[[31.382154,30.096383],[31.382178,30.096385],[31.382183,30.096338],[31.382159,30.096336],[31.382154,30.096383]]]}},{"type":"Feature","properties":{"id":"NZ-172","id_ar":"نز-١٧٢","street_en":"Abd Al Hamid Badawi Street","street_ar":"شارع عبد الحميد بدوى","booked_en":"Delta Logistics","booked_ar":"دلتا للخدمات اللوجستية"},"geometry":{"type":"Polygon","coordinates":[[[31.382148,30.096435],[31.382172,30.096437],[31.382177,30.09639],[31.382154,30.096388],[31.382148,30.096435]]]}},{"type":"Feature","properties":{"id":"NZ-173","id_ar":"نز-١٧٣","street_en":"Abd Al Hamid Badawi Street","street_ar":"شارع عبد الحميد بدوى","booked_en":"Misr Insurance – Heliopolis branch","booked_ar":"مصر للتأمين – فرع مصر الجديدة"},"geometry":{"type":"Polygon","coordinates":[[[31.376117,30.106183],[31.3761,30.106168],[31.376061,30.106201],[31.376078,30.106216],[31.376117,30.106183]]]}},{"type":"Feature","properties":{"id":"NZ-174","id_ar":"نز-١٧٤","street_en":"Abd Al Hamid Badawi Street","street_ar":"شارع عبد الحميد بدوى","booked_en":"Misr Insurance – Heliopolis branch","booked_ar":"مصر للتأمين – فرع مصر الجديدة"},"geometry":{"type":"Polygon","coordinates":[[[31.37616,30.106146],[31.376143,30.106132],[31.376105,30.106164],[31.376121,30.106179],[31.37616,30.106146]]]}},{"type":"Feature","properties":{"id":"NZ-175","id_ar":"نز-١٧٥","street_en":"Abd Al Hamid Badawi Street","street_ar":"شارع عبد الحميد بدوى","booked_en":"Misr Insurance – Heliopolis branch","booked_ar":"مصر للتأمين – فرع مصر الجديدة"},"geometry":{"type":"Polygon","coordinates":[[[31.376203,30.10611],[31.376186,30.106095],[31.376148,30.106128],[31.376164,30.106143],[31.376203,30.10611]]]}},{"type":"Feature","properties":{"id":"NZ-176","id_ar":"نز-١٧٦","street_en":"Abd Al Hamid Badawi Street","street_ar":"شارع عبد الحميد بدوى","booked_en":"Al Salam Supermarket","booked_ar":"سوبرماركت السلام"},"geometry":{"type":"Polygon","coordinates":[[[31.376246,30.106073],[31.376229,30.106058],[31.376191,30.106091],[31.376207,30.106106],[31.376246,30.106073]]]}},{"type":"Feature","properties":{"id":"NZ-177","id_ar":"نز-١٧٧","street_en":"Abd Al Hamid Badawi Street","street_ar":"شارع عبد الحميد بدوى","booked_en":"Resident – Building 8","booked_ar":"ساكن – عقار ٨"},"geometry":{"type":"Polygon","coordinates":[[[31.376289,30.106037],[31.376273,30.106022],[31.376234,30.106055],[31.376251,30.106069],[31.376289,30.106037]]]}},{"type":"Feature","properties":{"id":"NZ-178","id_ar":"نز-١٧٨","street_en":"Abd Al Hamid Badawi Street","street_ar":"شارع عبد الحميد بدوى","booked_en":"Resident – Building 8","booked_ar":"ساكن – عقار ٨"},"geometry":{"type":"Polygon","coordinates":[[[31.376332,30.106],[31.376316,30.105985],[31.376277,30.106018],[31.376294,30.106033],[31.376332,30.106]]]}},{"type":"Feature","properties":{"id":"NZ-179","id_ar":"نز-١٧٩","street_en":"Abd Al Hamid Badawi Street","street_ar":"شارع عبد الحميد بدوى","booked_en":"Resident – Building 41","booked_ar":"ساكن – عقار ٤١"},"geometry":{"type":"Polygon","coordinates":[[[31.376375,30.105963],[31.376359,30.105948],[31.37632,30.105981],[31.376337,30.105996],[31.376375,30.105963]]]}},{"type":"Feature","properties":{"id":"NZ-180","id_ar":"نز-١٨٠","street_en":"Abd Al Hamid Badawi Street","street_ar":"شارع عبد الحميد بدوى","booked_en":"Resident – Building 27","booked_ar":"ساكن – عقار ٢٧"},"geometry":{"type":"Polygon","coordinates":[[[31.376419,30.105927],[31.376402,30.105912],[31.376363,30.105945],[31.37638,30.10596],[31.376419,30.105927]]]}},{"type":"Feature","properties":{"id":"NZ-181","id_ar":"نز-١٨١","street_en":"Abd Al Hamid Badawi Street","street_ar":"شارع عبد الحميد بدوى","booked_en":"Resident – Building 27","booked_ar":"ساكن – عقار ٢٧"},"geometry":{"type":"Polygon","coordinates":[[[31.376462,30.10589],[31.376445,30.105875],[31.376406,30.105908],[31.376423,30.105923],[31.376462,30.10589]]]}},{"type":"Feature","properties":{"id":"NZ-182","id_ar":"نز-١٨٢","street_en":"Mohamed Kamel Hussein Street","street_ar":"شارع محمد كامل حسين","booked_en":"Delta Logistics","booked_ar":"دلتا للخدمات اللوجستية"},"geometry":{"type":"Polygon","coordinates":[[[31.365085,30.122148],[31.365078,30.122168],[31.365129,30.122182],[31.365136,30.122163],[31.365085,30.122148]]]}},{"type":"Feature","properties":{"id":"NZ-183","id_ar":"نز-١٨٣","street_en":"Mohamed Kamel Hussein Street","street_ar":"شارع محمد كامل حسين","booked_en":"Delta Logistics","booked_ar":"دلتا للخدمات اللوجستية"},"geometry":{"type":"Polygon","coordinates":[[[31.365028,30.122131],[31.365021,30.122151],[31.365072,30.122166],[31.365079,30.122146],[31.365028,30.122131]]]}},{"type":"Feature","properties":{"id":"NZ-184","id_ar":"نز-١٨٤","street_en":"Mohamed Kamel Hussein Street","street_ar":"شارع محمد كامل حسين","booked_en":"Delta Logistics","booked_ar":"دلتا للخدمات اللوجستية"},"geometry":{"type":"Polygon","coordinates":[[[31.364971,30.122115],[31.364963,30.122134],[31.365015,30.122149],[31.365022,30.12213],[31.364971,30.122115]]]}},{"type":"Feature","properties":{"id":"NZ-185","id_ar":"نز-١٨٥","street_en":"Mohamed Kamel Hussein Street","street_ar":"شارع محمد كامل حسين","booked_en":"Delta Logistics","booked_ar":"دلتا للخدمات اللوجستية"},"geometry":{"type":"Polygon","coordinates":[[[31.364914,30.122098],[31.364906,30.122118],[31.364958,30.122133],[31.364965,30.122113],[31.364914,30.122098]]]}},{"type":"Feature","properties":{"id":"NZ-186","id_ar":"نز-١٨٦","street_en":"Mohamed Kamel Hussein Street","street_ar":"شارع محمد كامل حسين","booked_en":"Delta Logistics","booked_ar":"دلتا للخدمات اللوجستية"},"geometry":{"type":"Polygon","coordinates":[[[31.364857,30.122081],[31.364849,30.122101],[31.3649,30.122116],[31.364908,30.122096],[31.364857,30.122081]]]}},{"type":"Feature","properties":{"id":"NZ-187","id_ar":"نز-١٨٧","street_en":"Mohamed Kamel Hussein Street","street_ar":"شارع محمد كامل حسين","booked_en":"Al Salam Supermarket","booked_ar":"سوبرماركت السلام"},"geometry":{"type":"Polygon","coordinates":[[[31.364179,30.1219],[31.364172,30.12192],[31.364224,30.121934],[31.364231,30.121914],[31.364179,30.1219]]]}},{"type":"Feature","properties":{"id":"NZ-188","id_ar":"نز-١٨٨","street_en":"Mohamed Kamel Hussein Street","street_ar":"شارع محمد كامل حسين","booked_en":"Al Salam Supermarket","booked_ar":"سوبرماركت السلام"},"geometry":{"type":"Polygon","coordinates":[[[31.364122,30.121885],[31.364115,30.121905],[31.364166,30.121919],[31.364173,30.121899],[31.364122,30.121885]]]}},{"type":"Feature","properties":{"id":"NZ-189","id_ar":"نز-١٨٩","street_en":"Mohamed Kamel Hussein Street","street_ar":"شارع محمد كامل حسين","booked_en":"Nozha Fitness Club","booked_ar":"نادي النزهة الرياضي"},"geometry":{"type":"Polygon","coordinates":[[[31.364064,30.12187],[31.364057,30.12189],[31.364109,30.121904],[31.364116,30.121884],[31.364064,30.12187]]]}},{"type":"Feature","properties":{"id":"NZ-190","id_ar":"نز-١٩٠","street_en":"Mohamed Kamel Hussein Street","street_ar":"شارع محمد كامل حسين","booked_en":"Resident – Building 27","booked_ar":"ساكن – عقار ٢٧"},"geometry":{"type":"Polygon","coordinates":[[[31.364006,30.121855],[31.363999,30.121875],[31.364051,30.121889],[31.364058,30.121869],[31.364006,30.121855]]]}},{"type":"Feature","properties":{"id":"NZ-191","id_ar":"نز-١٩١","street_en":"Al Zohor Street","street_ar":"شارع الزهور","booked_en":"Resident – Building 8","booked_ar":"ساكن – عقار ٨"},"geometry":{"type":"Polygon","coordinates":[[[31.375626,30.105688],[31.375609,30.105673],[31.37557,30.105706],[31.375587,30.105721],[31.375626,30.105688]]]}},{"type":"Feature","properties":{"id":"NZ-192","id_ar":"نز-١٩٢","street_en":"Al Zohor Street","street_ar":"شارع الزهور","booked_en":"Resident – Building 8","booked_ar":"ساكن – عقار ٨"},"geometry":{"type":"Polygon","coordinates":[[[31.375669,30.105652],[31.375653,30.105637],[31.375614,30.105669],[31.37563,30.105684],[31.375669,30.105652]]]}},{"type":"Feature","properties":{"id":"NZ-193","id_ar":"نز-١٩٣","street_en":"Al Zohor Street","street_ar":"شارع الزهور","booked_en":"Resident – Building 8","booked_ar":"ساكن – عقار ٨"},"geometry":{"type":"Polygon","coordinates":[[[31.375713,30.105615],[31.375696,30.1056],[31.375657,30.105633],[31.375674,30.105648],[31.375713,30.105615]]]}},{"type":"Feature","properties":{"id":"NZ-194","id_ar":"نز-١٩٤","street_en":"Al Zohor Street","street_ar":"شارع الزهور","booked_en":"Resident – Building 8","booked_ar":"ساكن – عقار ٨"},"geometry":{"type":"Polygon","coordinates":[[[31.375756,30.105579],[31.37574,30.105564],[31.375701,30.105596],[31.375717,30.105611],[31.375756,30.105579]]]}},{"type":"Feature","properties":{"id":"NZ-195","id_ar":"نز-١٩٥","street_en":"Al Zohor Street","street_ar":"شارع الزهور","booked_en":"Al Amal Bakery","booked_ar":"مخبز الأمل"},"geometry":{"type":"Polygon","coordinates":[[[31.375799,30.105542],[31.375783,30.105527],[31.375744,30.10556],[31.375761,30.105575],[31.375799,30.105542]]]}},{"type":"Feature","properties":{"id":"NZ-196","id_ar":"نز-١٩٦","street_en":"Al Zohor Street","street_ar":"شارع الزهور","booked_en":"Al Amal Bakery","booked_ar":"مخبز الأمل"},"geometry":{"type":"Polygon","coordinates":[[[31.375843,30.105506],[31.375826,30.105491],[31.375787,30.105524],[31.375804,30.105539],[31.375843,30.105506]]]}},{"type":"Feature","properties":{"id":"NZ-197","id_ar":"نز-١٩٧","street_en":"Al Zohor Street","street_ar":"شارع الزهور","booked_en":"Al Amal Bakery","booked_ar":"مخبز الأمل"},"geometry":{"type":"Polygon","coordinates":[[[31.375886,30.10547],[31.37587,30.105455],[31.375831,30.105487],[31.375847,30.105502],[31.375886,30.10547]]]}},{"type":"Feature","properties":{"id":"NZ-198","id_ar":"نز-١٩٨","street_en":"Al Zohor Street","street_ar":"شارع الزهور","booked_en":"Cairo Dental Center","booked_ar":"مركز القاهرة لطب الأسنان"},"geometry":{"type":"Polygon","coordinates":[[[31.37593,30.105433],[31.375913,30.105418],[31.375874,30.105451],[31.375891,30.105466],[31.37593,30.105433]]]}},{"type":"Feature","properties":{"id":"NZ-199","id_ar":"نز-١٩٩","street_en":"Al Zohor Street","street_ar":"شارع الزهور","booked_en":"Cairo Dental Center","booked_ar":"مركز القاهرة لطب الأسنان"},"geometry":{"type":"Polygon","coordinates":[[[31.375973,30.105397],[31.375956,30.105382],[31.375918,30.105415],[31.375934,30.10543],[31.375973,30.105397]]]}},{"type":"Feature","properties":{"id":"NZ-200","id_ar":"نز-٢٠٠","street_en":"Taha Hussein Axis","street_ar":"محور طه حسين","booked_en":"Resident – Building 27","booked_ar":"ساكن – عقار ٢٧"},"geometry":{"type":"Polygon","coordinates":[[[31.367739,30.126908],[31.367746,30.126888],[31.367695,30.126873],[31.367688,30.126893],[31.367739,30.126908]]]}},{"type":"Feature","properties":{"id":"NZ-201","id_ar":"نز-٢٠١","street_en":"Taha Hussein Axis","street_ar":"محور طه حسين","booked_en":"Resident – Building 27","booked_ar":"ساكن – عقار ٢٧"},"geometry":{"type":"Polygon","coordinates":[[[31.367796,30.126925],[31.367804,30.126905],[31.367752,30.12689],[31.367745,30.12691],[31.367796,30.126925]]]}},{"type":"Feature","properties":{"id":"NZ-202","id_ar":"نز-٢٠٢","street_en":"Taha Hussein Axis","street_ar":"محور طه حسين","booked_en":"Resident – Building 41","booked_ar":"ساكن – عقار ٤١"},"geometry":{"type":"Polygon","coordinates":[[[31.367853,30.126942],[31.367861,30.126922],[31.367809,30.126907],[31.367802,30.126927],[31.367853,30.126942]]]}},{"type":"Feature","properties":{"id":"NZ-203","id_ar":"نز-٢٠٣","street_en":"Taha Hussein Axis","street_ar":"محور طه حسين","booked_en":"Resident – Building 41","booked_ar":"ساكن – عقار ٤١"},"geometry":{"type":"Polygon","coordinates":[[[31.36791,30.126958],[31.367918,30.126939],[31.367866,30.126924],[31.367859,30.126943],[31.36791,30.126958]]]}},{"type":"Feature","properties":{"id":"NZ-204","id_ar":"نز-٢٠٤","street_en":"Taha Hussein Axis","street_ar":"محور طه حسين","booked_en":"Resident – Building 41","booked_ar":"ساكن – عقار ٤١"},"geometry":{"type":"Polygon","coordinates":[[[31.367967,30.126975],[31.367975,30.126956],[31.367924,30.12694],[31.367916,30.12696],[31.367967,30.126975]]]}},{"type":"Feature","properties":{"id":"NZ-205","id_ar":"نز-٢٠٥","street_en":"Taha Hussein Axis","street_ar":"محور طه حسين","booked_en":"Heliopolis Language School","booked_ar":"مدرسة مصر الجديدة للغات"},"geometry":{"type":"Polygon","coordinates":[[[31.368024,30.126992],[31.368032,30.126972],[31.367981,30.126957],[31.367973,30.126977],[31.368024,30.126992]]]}},{"type":"Feature","properties":{"id":"NZ-206","id_ar":"نز-٢٠٦","street_en":"Taha Hussein Axis","street_ar":"محور طه حسين","booked_en":"Resident – Building 41","booked_ar":"ساكن – عقار ٤١"},"geometry":{"type":"Polygon","coordinates":[[[31.383078,30.13148],[31.383071,30.1315],[31.383122,30.131514],[31.383129,30.131494],[31.383078,30.13148]]]}},{"type":"Feature","properties":{"id":"NZ-207","id_ar":"نز-٢٠٧","street_en":"Taha Hussein Axis","street_ar":"محور طه حسين","booked_en":"Resident – Building 41","booked_ar":"ساكن – عقار ٤١"},"geometry":{"type":"Polygon","coordinates":[[[31.38302,30.131464],[31.383013,30.131484],[31.383065,30.131498],[31.383072,30.131478],[31.38302,30.131464]]]}},{"type":"Feature","properties":{"id":"NZ-208","id_ar":"نز-٢٠٨","street_en":"Taha Hussein Axis","street_ar":"محور طه حسين","booked_en":"Resident – Building 41","booked_ar":"ساكن – عقار ٤١"},"geometry":{"type":"Polygon","coordinates":[[[31.382963,30.131448],[31.382956,30.131468],[31.383007,30.131482],[31.383014,30.131463],[31.382963,30.131448]]]}},{"type":"Feature","properties":{"id":"NZ-209","id_ar":"نز-٢٠٩","street_en":"Taha Hussein Axis","street_ar":"محور طه حسين","booked_en":"Delta Logistics","booked_ar":"دلتا للخدمات اللوجستية"},"geometry":{"type":"Polygon","coordinates":[[[31.382906,30.131433],[31.382898,30.131452],[31.38295,30.131467],[31.382957,30.131447],[31.382906,30.131433]]]}},{"type":"Feature","properties":{"id":"NZ-210","id_ar":"نز-٢١٠","street_en":"Al Shahid Sayed Zakaria Khalil Street","street_ar":"شارع الشهيد سيد زكريا خليل","booked_en":"Cairo Dental Center","booked_ar":"مركز القاهرة لطب الأسنان"},"geometry":{"type":"Polygon","coordinates":[[[31.371416,30.103724],[31.371399,30.103709],[31.37136,30.103741],[31.371377,30.103756],[31.371416,30.103724]]]}},{"type":"Feature","properties":{"id":"NZ-211","id_ar":"نز-٢١١","street_en":"Al Shahid Sayed Zakaria Khalil Street","street_ar":"شارع الشهيد سيد زكريا خليل","booked_en":"Resident – Building 14","booked_ar":"ساكن – عقار ١٤"},"geometry":{"type":"Polygon","coordinates":[[[31.371459,30.103687],[31.371443,30.103672],[31.371404,30.103705],[31.37142,30.10372],[31.371459,30.103687]]]}},{"type":"Feature","properties":{"id":"NZ-212","id_ar":"نز-٢١٢","street_en":"Al Shahid Sayed Zakaria Khalil Street","street_ar":"شارع الشهيد سيد زكريا خليل","booked_en":"Resident – Building 14","booked_ar":"ساكن – عقار ١٤"},"geometry":{"type":"Polygon","coordinates":[[[31.371503,30.103651],[31.371487,30.103636],[31.371447,30.103669],[31.371464,30.103684],[31.371503,30.103651]]]}},{"type":"Feature","properties":{"id":"NZ-213","id_ar":"نز-٢١٣","street_en":"Al Shahid Sayed Zakaria Khalil Street","street_ar":"شارع الشهيد سيد زكريا خليل","booked_en":"Resident – Building 14","booked_ar":"ساكن – عقار ١٤"},"geometry":{"type":"Polygon","coordinates":[[[31.371547,30.103615],[31.37153,30.1036],[31.371491,30.103632],[31.371508,30.103647],[31.371547,30.103615]]]}},{"type":"Feature","properties":{"id":"NZ-214","id_ar":"نز-٢١٤","street_en":"Al Shahid Sayed Zakaria Khalil Street","street_ar":"شارع الشهيد سيد زكريا خليل","booked_en":"Resident – Building 14","booked_ar":"ساكن – عقار ١٤"},"geometry":{"type":"Polygon","coordinates":[[[31.37159,30.103579],[31.371574,30.103564],[31.371535,30.103596],[31.371551,30.103611],[31.37159,30.103579]]]}},{"type":"Feature","properties":{"id":"NZ-215","id_ar":"نز-٢١٥","street_en":"Al Shahid Sayed Zakaria Khalil Street","street_ar":"شارع الشهيد سيد زكريا خليل","booked_en":"El Nozha Pharmacy","booked_ar":"صيدلية النزهة"},"geometry":{"type":"Polygon","coordinates":[[[31.377274,30.096004],[31.377298,30.096006],[31.377303,30.095959],[31.37728,30.095957],[31.377274,30.096004]]]}},{"type":"Feature","properties":{"id":"NZ-216","id_ar":"نز-٢١٦","street_en":"Al Shahid Sayed Zakaria Khalil Street","street_ar":"شارع الشهيد سيد زكريا خليل","booked_en":"Green Leaf Café","booked_ar":"كافيه الورقة الخضراء"},"geometry":{"type":"Polygon","coordinates":[[[31.377268,30.096056],[31.377292,30.096058],[31.377297,30.096012],[31.377274,30.09601],[31.377268,30.096056]]]}},{"type":"Feature","properties":{"id":"NZ-217","id_ar":"نز-٢١٧","street_en":"Al Shahid Sayed Zakaria Khalil Street","street_ar":"شارع الشهيد سيد زكريا خليل","booked_en":"Green Leaf Café","booked_ar":"كافيه الورقة الخضراء"},"geometry":{"type":"Polygon","coordinates":[[[31.377262,30.096109],[31.377286,30.096111],[31.377291,30.096064],[31.377268,30.096062],[31.377262,30.096109]]]}},{"type":"Feature","properties":{"id":"NZ-218","id_ar":"نز-٢١٨","street_en":"Al Shahid Sayed Zakaria Khalil Street","street_ar":"شارع الشهيد سيد زكريا خليل","booked_en":"Green Leaf Café","booked_ar":"كافيه الورقة الخضراء"},"geometry":{"type":"Polygon","coordinates":[[[31.377256,30.096161],[31.37728,30.096163],[31.377285,30.096116],[31.377262,30.096114],[31.377256,30.096161]]]}},{"type":"Feature","properties":{"id":"NZ-219","id_ar":"نز-٢١٩","street_en":"Al Shahid Sayed Zakaria Khalil Street","street_ar":"شارع الشهيد سيد زكريا خليل","booked_en":"Green Leaf Café","booked_ar":"كافيه الورقة الخضراء"},"geometry":{"type":"Polygon","coordinates":[[[31.37725,30.096213],[31.377274,30.096215],[31.377279,30.096168],[31.377256,30.096166],[31.37725,30.096213]]]}},{"type":"Feature","properties":{"id":"NZ-220","id_ar":"نز-٢٢٠","street_en":"Al Shahid Sayed Zakaria Khalil Street","street_ar":"شارع الشهيد سيد زكريا خليل","booked_en":"Green Leaf Café","booked_ar":"كافيه الورقة الخضراء"},"geometry":{"type":"Polygon","coordinates":[[[31.377244,30.096265],[31.377268,30.096267],[31.377273,30.09622],[31.37725,30.096218],[31.377244,30.096265]]]}},{"type":"Feature","properties":{"id":"NZ-221","id_ar":"نز-٢٢١","street_en":"Al Hassn Street","street_ar":"شارع الحسن","booked_en":"Nile Bank – ATM & branch","booked_ar":"بنك النيل – فرع وصراف آلي"},"geometry":{"type":"Polygon","coordinates":[[[31.369048,30.107864],[31.369066,30.10785],[31.369028,30.107816],[31.369011,30.10783],[31.369048,30.107864]]]}},{"type":"Feature","properties":{"id":"NZ-222","id_ar":"نز-٢٢٢","street_en":"Al Hassn Street","street_ar":"شارع الحسن","booked_en":"Nile Bank – ATM & branch","booked_ar":"بنك النيل – فرع وصراف آلي"},"geometry":{"type":"Polygon","coordinates":[[[31.36909,30.107902],[31.369107,30.107888],[31.36907,30.107854],[31.369053,30.107868],[31.36909,30.107902]]]}},{"type":"Feature","properties":{"id":"NZ-223","id_ar":"نز-٢٢٣","street_en":"Al Hassn Street","street_ar":"شارع الحسن","booked_en":"Nile Bank – ATM & branch","booked_ar":"بنك النيل – فرع وصراف آلي"},"geometry":{"type":"Polygon","coordinates":[[[31.369132,30.10794],[31.369149,30.107926],[31.369112,30.107892],[31.369094,30.107906],[31.369132,30.10794]]]}},{"type":"Feature","properties":{"id":"NZ-224","id_ar":"نز-٢٢٤","street_en":"Al Hassn Street","street_ar":"شارع الحسن","booked_en":"Nile Bank – ATM & branch","booked_ar":"بنك النيل – فرع وصراف آلي"},"geometry":{"type":"Polygon","coordinates":[[[31.369173,30.107978],[31.369191,30.107964],[31.369153,30.10793],[31.369136,30.107944],[31.369173,30.107978]]]}},{"type":"Feature","properties":{"id":"NZ-225","id_ar":"نز-٢٢٥","street_en":"Al Hassn Street","street_ar":"شارع الحسن","booked_en":"Nile Bank – ATM & branch","booked_ar":"بنك النيل – فرع وصراف آلي"},"geometry":{"type":"Polygon","coordinates":[[[31.369215,30.108016],[31.369232,30.108001],[31.369195,30.107967],[31.369178,30.107982],[31.369215,30.108016]]]}},{"type":"Feature","properties":{"id":"NZ-226","id_ar":"نز-٢٢٦","street_en":"Al Madina Al Mnoura Street","street_ar":"شارع المدينة المنورة","booked_en":"Green Leaf Café","booked_ar":"كافيه الورقة الخضراء"},"geometry":{"type":"Polygon","coordinates":[[[31.376397,30.126625],[31.37642,30.126632],[31.376438,30.126588],[31.376416,30.126581],[31.376397,30.126625]]]}},{"type":"Feature","properties":{"id":"NZ-227","id_ar":"نز-٢٢٧","street_en":"Al Madina Al Mnoura Street","street_ar":"شارع المدينة المنورة","booked_en":"Green Leaf Café","booked_ar":"كافيه الورقة الخضراء"},"geometry":{"type":"Polygon","coordinates":[[[31.376376,30.126674],[31.376399,30.126681],[31.376417,30.126637],[31.376395,30.12663],[31.376376,30.126674]]]}},{"type":"Feature","properties":{"id":"NZ-228","id_ar":"نز-٢٢٨","street_en":"Al Madina Al Mnoura Street","street_ar":"شارع المدينة المنورة","booked_en":"Dr. Hany Clinic","booked_ar":"عيادة د. هاني"},"geometry":{"type":"Polygon","coordinates":[[[31.376355,30.126723],[31.376378,30.12673],[31.376396,30.126686],[31.376374,30.126679],[31.376355,30.126723]]]}},{"type":"Feature","properties":{"id":"NZ-229","id_ar":"نز-٢٢٩","street_en":"Moustafa Refaat Street","street_ar":"شارع مصطفى رفعت","booked_en":"El Nozha Pharmacy","booked_ar":"صيدلية النزهة"},"geometry":{"type":"Polygon","coordinates":[[[31.378297,30.102546],[31.378314,30.102531],[31.378276,30.102497],[31.378259,30.102512],[31.378297,30.102546]]]}},{"type":"Feature","properties":{"id":"NZ-230","id_ar":"نز-٢٣٠","street_en":"Moustafa Refaat Street","street_ar":"شارع مصطفى رفعت","booked_en":"El Nozha Pharmacy","booked_ar":"صيدلية النزهة"},"geometry":{"type":"Polygon","coordinates":[[[31.378338,30.102583],[31.378356,30.102569],[31.378318,30.102535],[31.378301,30.102549],[31.378338,30.102583]]]}},{"type":"Feature","properties":{"id":"NZ-231","id_ar":"نز-٢٣١","street_en":"Moustafa Refaat Street","street_ar":"شارع مصطفى رفعت","booked_en":"El Nozha Pharmacy","booked_ar":"صيدلية النزهة"},"geometry":{"type":"Polygon","coordinates":[[[31.37838,30.102621],[31.378397,30.102606],[31.37836,30.102573],[31.378343,30.102587],[31.37838,30.102621]]]}},{"type":"Feature","properties":{"id":"NZ-232","id_ar":"نز-٢٣٢","street_en":"Moustafa Refaat Street","street_ar":"شارع مصطفى رفعت","booked_en":"Al Amal Bakery","booked_ar":"مخبز الأمل"},"geometry":{"type":"Polygon","coordinates":[[[31.378422,30.102659],[31.378439,30.102644],[31.378402,30.10261],[31.378385,30.102625],[31.378422,30.102659]]]}},{"type":"Feature","properties":{"id":"NZ-233","id_ar":"نز-٢٣٣","street_en":"Moustafa Refaat Street","street_ar":"شارع مصطفى رفعت","booked_en":"Al Amal Bakery","booked_ar":"مخبز الأمل"},"geometry":{"type":"Polygon","coordinates":[[[31.378464,30.102696],[31.378481,30.102682],[31.378444,30.102648],[31.378427,30.102663],[31.378464,30.102696]]]}},{"type":"Feature","properties":{"id":"NZ-234","id_ar":"نز-٢٣٤","street_en":"Moustafa Refaat Street","street_ar":"شارع مصطفى رفعت","booked_en":"Al Amal Bakery","booked_ar":"مخبز الأمل"},"geometry":{"type":"Polygon","coordinates":[[[31.378506,30.102734],[31.378523,30.10272],[31.378486,30.102686],[31.378468,30.1027],[31.378506,30.102734]]]}},{"type":"Feature","properties":{"id":"NZ-235","id_ar":"نز-٢٣٥","street_en":"Moustafa Refaat Street","street_ar":"شارع مصطفى رفعت","booked_en":"Al Amal Bakery","booked_ar":"مخبز الأمل"},"geometry":{"type":"Polygon","coordinates":[[[31.378548,30.102772],[31.378565,30.102757],[31.378527,30.102723],[31.37851,30.102738],[31.378548,30.102772]]]}},{"type":"Feature","properties":{"id":"NZ-236","id_ar":"نز-٢٣٦","street_en":"Moustafa Refaat Street","street_ar":"شارع مصطفى رفعت","booked_en":"Resident – Building 14","booked_ar":"ساكن – عقار ١٤"},"geometry":{"type":"Polygon","coordinates":[[[31.37859,30.102809],[31.378607,30.102795],[31.378569,30.102761],[31.378552,30.102776],[31.37859,30.102809]]]}},{"type":"Feature","properties":{"id":"NZ-237","id_ar":"نز-٢٣٧","street_en":"Moustafa Refaat Street","street_ar":"شارع مصطفى رفعت","booked_en":"Green Leaf Café","booked_ar":"كافيه الورقة الخضراء"},"geometry":{"type":"Polygon","coordinates":[[[31.378632,30.102847],[31.378649,30.102833],[31.378611,30.102799],[31.378594,30.102813],[31.378632,30.102847]]]}},{"type":"Feature","properties":{"id":"NZ-238","id_ar":"نز-٢٣٨","street_en":"Moustafa Refaat Street","street_ar":"شارع مصطفى رفعت","booked_en":"Green Leaf Café","booked_ar":"كافيه الورقة الخضراء"},"geometry":{"type":"Polygon","coordinates":[[[31.378673,30.102885],[31.378691,30.10287],[31.378653,30.102837],[31.378636,30.102851],[31.378673,30.102885]]]}}]}